"Station Name","MONTREAL INTL A"
"Province","QUEBEC"
"Latitude","45.47"
"Longitude","-73.74"
"Elevation","36.00"
"Climate Identifier","7025251"
"WMO Identifier","71627"
"TC Identifier","YUL"
"All times are specified in Local Standard Time (LST). Add 1 hour to adjust for Daylight Saving Time where and when it is observed."

"Legend"
"E","Estimated"
"M","Missing"
"NA","Not Available"

"Date/Time","Year","Month","Day","Time","Temp (°C)","Temp Flag","Dew Point Temp (°C)","Dew Point Temp Flag","Rel Hum (%)","Rel Hum Flag","Wind Dir (10s deg)","Wind Dir Flag","Wind Spd (km/h)","Wind Spd Flag","Visibility (km)","Visibility Flag","Stn Press (kPa)","Stn Press Flag","Hmdx","Hmdx Flag","Wind Chill","Wind Chill Flag","Weather"
"2016-11-01 00:00","2016","11","01","00:00","2.1","","-3.0","","69","","17","","9","","24.1","","102.23","","","","","","NA"
"2016-11-01 01:00","2016","11","01","01:00","1.6","","-3.3","","70","","17","","10","","24.1","","102.24","","","","","","Mainly Clear"
"2016-11-01 02:00","2016","11","01","02:00","1.3","","-3.6","","70","","19","","9","","24.1","","102.24","","","","","","NA"
"2016-11-01 03:00","2016","11","01","03:00","1.3","","-3.4","","71","","11","","7","","24.1","","102.21","","","","","","NA"
"2016-11-01 04:00","2016","11","01","04:00","0.5","","-3.4","","75","","9","","9","","24.1","","102.20","","","","","","Mainly Clear"
"2016-11-01 05:00","2016","11","01","05:00","0.0","","-2.5","","83","","9","","9","","24.1","","102.16","","","","-3","","NA"
"2016-11-01 06:00","2016","11","01","06:00","-0.2","","-3.2","","80","","5","","6","","24.1","","102.20","","","","-2","","NA"
"2016-11-01 07:00","2016","11","01","07:00","0.8","","-2.3","","80","","9","","11","","48.3","","102.19","","","","","","Mostly Cloudy"
"2016-11-01 08:00","2016","11","01","08:00","1.8","","-1.6","","78","","10","","14","","48.3","","102.21","","","","","","NA"
"2016-11-01 09:00","2016","11","01","09:00","2.8","","-0.7","","78","","13","","16","","48.3","","102.14","","","","","","NA"
"2016-11-01 10:00","2016","11","01","10:00","4.9","","0.5","","73","","14","","17","","48.3","","102.03","","","","","","Mostly Cloudy"
"2016-11-01 11:00","2016","11","01","11:00","6.4","","1.1","","69","","12","","12","","48.3","","101.99","","","","","","NA"
"2016-11-01 12:00","2016","11","01","12:00","7.8","","1.2","","63","","13","","19","","48.3","","101.84","","","","","","NA"
"2016-11-01 13:00","2016","11","01","13:00","7.9","","1.1","","62","","11","","20","","48.3","","101.76","","","","","","Cloudy"
"2016-11-01 14:00","2016","11","01","14:00","8.4","","1.8","","63","","12","","20","","48.3","","101.65","","","","","","NA"
"2016-11-01 15:00","2016","11","01","15:00","8.3","","3.0","","69","","13","","21","","48.3","","101.48","","","","","","NA"
"2016-11-01 16:00","2016","11","01","16:00","8.8","","2.4","","64","","14","","16","","48.3","","101.47","","","","","","Cloudy"
"2016-11-01 17:00","2016","11","01","17:00","8.9","","2.5","","64","","13","","11","","24.1","","101.42","","","","","","NA"
"2016-11-01 18:00","2016","11","01","18:00","9.2","","2.6","","63","","15","","14","","24.1","","101.46","","","","","","NA"
"2016-11-01 19:00","2016","11","01","19:00","9.8","","2.4","","60","","15","","27","","24.1","","101.24","","","","","","Cloudy"
"2016-11-01 20:00","2016","11","01","20:00","10.5","","2.6","","58","","16","","21","","24.1","","101.24","","","","","","Thunderstorms"
"2016-11-01 21:00","2016","11","01","21:00","10.7","","2.3","","56","","14","","19","","24.1","","101.23","","","","","","Rain Showers"
"2016-11-01 22:00","2016","11","01","22:00","10.9","","3.0","","58","","9","","6","","24.1","","101.35","","","","","","Cloudy"
"2016-11-01 23:00","2016","11","01","23:00","10.3","","3.8","","64","","1","","10","","24.1","","101.35","","","","","","NA"
"2016-11-02 00:00","2016","11","02","00:00","8.0","","4.2","","77","","1","","13","","24.1","","101.43","","","","","","NA"
"2016-11-02 01:00","2016","11","02","01:00","6.9","","4.9","","87","","3","","12","","24.1","","101.50","","","","","","Rain"
"2016-11-02 02:00","2016","11","02","02:00","7.0","","5.8","","92","","4","","7","","24.1","","101.51","","","","","","NA"
"2016-11-02 03:00","2016","11","02","03:00","7.5","","6.1","","91","","32","","4","","24.1","","101.49","","","","","","NA"
"2016-11-02 04:00","2016","11","02","04:00","6.8","","5.4","","91","","34","","7","","24.1","","101.50","","","","","","Mainly Clear"
"2016-11-02 05:00","2016","11","02","05:00","7.4","","6.0","","91","","1","","5","","24.1","","101.56","","","","","","NA"
"2016-11-02 06:00","2016","11","02","06:00","7.7","","6.3","","91","","3","","8","","24.1","","101.54","","","","","","NA"
"2016-11-02 07:00","2016","11","02","07:00","8.0","","6.2","","88","","34","","9","","19.3","","101.57","","","","","","Cloudy"
"2016-11-02 08:00","2016","11","02","08:00","9.3","","6.8","","84","","36","","1","","19.3","","101.61","","","","","","NA"
"2016-11-02 09:00","2016","11","02","09:00","10.8","","7.2","","78","","36","","3","","24.1","","101.61","","","","","","NA"
"2016-11-02 10:00","2016","11","02","10:00","11.8","","7.6","","75","","27","","4","","24.1","","101.66","","","","","","Cloudy"
"2016-11-02 11:00","2016","11","02","11:00","12.7","","8.4","","75","","28","","9","","24.1","","101.63","","","","","","NA"
"2016-11-02 12:00","2016","11","02","12:00","14.1","","9.4","","73","","21","","14","","24.1","","101.59","","","","","","NA"
"2016-11-02 13:00","2016","11","02","13:00","13.9","","8.8","","71","","22","","14","","24.1","","101.54","","","","","","Mainly Clear"
"2016-11-02 14:00","2016","11","02","14:00","14.7","","9.8","","72","","20","","9","","24.1","","101.53","","","","","","NA"
"2016-11-02 15:00","2016","11","02","15:00","14.7","","9.8","","72","","25","","12","","24.1","","101.56","","","","","","NA"
"2016-11-02 16:00","2016","11","02","16:00","14.8","","9.7","","71","","28","","6","","24.1","","101.57","","","","","","Mostly Cloudy"
"2016-11-02 17:00","2016","11","02","17:00","13.7","","9.2","","74","","34","","5","","24.1","","101.60","","","","","","NA"
"2016-11-02 18:00","2016","11","02","18:00","12.6","","9.1","","79","","1","","7","","24.1","","101.63","","","","","","NA"
"2016-11-02 19:00","2016","11","02","19:00","11.2","","7.5","","78","","3","","12","","24.1","","101.62","","","","","","Cloudy"
"2016-11-02 20:00","2016","11","02","20:00","11.1","","7.8","","80","","5","","10","","24.1","","101.61","","","","","","NA"
"2016-11-02 21:00","2016","11","02","21:00","11.8","","7.4","","74","","5","","9","","24.1","","101.57","","","","","","NA"
"2016-11-02 22:00","2016","11","02","22:00","11.7","","7.5","","75","","4","","6","","24.1","","101.59","","","","","","Cloudy"
"2016-11-02 23:00","2016","11","02","23:00","11.6","","7.6","","76","","4","","8","","24.1","","101.51","","","","","","NA"
"2016-11-03 00:00","2016","11","03","00:00","11.3","","7.1","","75","","5","","12","","24.1","","101.49","","","","","","NA"
"2016-11-03 01:00","2016","11","03","01:00","10.7","","6.9","","77","","4","","10","","24.1","","101.42","","","","","","Cloudy"
"2016-11-03 02:00","2016","11","03","02:00","9.9","","7.2","","83","","4","","12","","24.1","","101.36","","","","","","NA"
"2016-11-03 03:00","2016","11","03","03:00","9.3","","7.3","","87","","5","","11","","24.1","","101.26","","","","","","NA"
"2016-11-03 04:00","2016","11","03","04:00","9.2","","7.5","","89","","2","","9","","24.1","","101.22","","","","","","Cloudy"
"2016-11-03 05:00","2016","11","03","05:00","9.1","","7.6","","90","","2","","12","","24.1","","101.17","","","","","","NA"
"2016-11-03 06:00","2016","11","03","06:00","9.2","","8.0","","92","","2","","14","","24.1","","101.09","","","","","","NA"
"2016-11-03 07:00","2016","11","03","07:00","9.3","","7.8","","90","","1","","14","","16.1","","101.15","","","","","","Cloudy"
"2016-11-03 08:00","2016","11","03","08:00","9.1","","7.7","","91","","2","","16","","12.9","","101.08","","","","","","Rain"
"2016-11-03 09:00","2016","11","03","09:00","9.1","","8.0","","93","","3","","14","","9.7","","101.00","","","","","","Rain,Fog"
"2016-11-03 10:00","2016","11","03","10:00","9.1","","8.2","","94","","1","","13","","8.1","","100.99","","","","","","Rain,Fog"
"2016-11-03 11:00","2016","11","03","11:00","8.9","","8.0","","94","","4","","21","","9.7","","100.87","","","","","","Rain,Fog"
"2016-11-03 12:00","2016","11","03","12:00","8.9","","8.0","","94","","2","","15","","8.1","","100.86","","","","","","Rain,Fog"
"2016-11-03 13:00","2016","11","03","13:00","9.2","","8.0","","92","","34","","17","","9.7","","100.92","","","","","","Rain,Fog"
"2016-11-03 14:00","2016","11","03","14:00","9.2","","7.8","","91","","1","","15","","12.9","","100.93","","","","","","Rain"
"2016-11-03 15:00","2016","11","03","15:00","9.2","","7.5","","89","","1","","16","","16.1","","100.98","","","","","","Rain"
"2016-11-03 16:00","2016","11","03","16:00","8.9","","7.4","","90","","1","","11","","16.1","","101.04","","","","","","Rain"
"2016-11-03 17:00","2016","11","03","17:00","8.6","","7.1","","90","","2","","9","","24.1","","101.03","","","","","","Rain"
"2016-11-03 18:00","2016","11","03","18:00","8.7","","7.2","","90","","0","","1","","24.1","","101.04","","","","","","NA"
"2016-11-03 19:00","2016","11","03","19:00","8.6","","7.2","","91","","28","","6","","24.1","","101.06","","","","","","Rain"
"2016-11-03 20:00","2016","11","03","20:00","8.5","","7.0","","90","","31","","5","","24.1","","101.07","","","","","","Rain"
"2016-11-03 21:00","2016","11","03","21:00","7.9","","7.2","","95","","27","","5","","24.1","","101.10","","","","","","Rain"
"2016-11-03 22:00","2016","11","03","22:00","7.9","","7.0","","94","","27","","8","","24.1","","101.11","","","","","","Rain"
"2016-11-03 23:00","2016","11","03","23:00","8.1","","6.7","","91","","34","","18","","24.1","","101.17","","","","","","Rain"
"2016-11-04 00:00","2016","11","04","00:00","6.7","","4.5","","86","","35","","23","","24.1","","101.26","","","","","","Rain"
"2016-11-04 01:00","2016","11","04","01:00","5.6","","3.8","","88","","35","","16","","24.1","","101.32","","","","","","Rain"
"2016-11-04 02:00","2016","11","04","02:00","5.6","","3.9","","89","","31","","8","","24.1","","101.39","","","","","","NA"
"2016-11-04 03:00","2016","11","04","03:00","5.5","","3.5","","87","","30","","10","","24.1","","101.44","","","","","","NA"
"2016-11-04 04:00","2016","11","04","04:00","5.1","","1.4","","77","","34","","18","","24.1","","101.53","","","","","","Cloudy"
"2016-11-04 05:00","2016","11","04","05:00","4.8","","1.5","","79","","34","","13","","24.1","","101.62","","","","","","NA"
"2016-11-04 06:00","2016","11","04","06:00","3.4","","-0.3","","77","","31","","12","","24.1","","101.67","","","","","","NA"
"2016-11-04 07:00","2016","11","04","07:00","2.7","","-1.1","","76","","31","","12","","48.3","","101.79","","","","","","Mostly Cloudy"
"2016-11-04 08:00","2016","11","04","08:00","2.5","","-1.7","","74","","30","","14","","48.3","","101.90","","","","","","NA"
"2016-11-04 09:00","2016","11","04","09:00","2.3","","-3.4","","66","","31","","18","","48.3","","101.95","","","","","","NA"
"2016-11-04 10:00","2016","11","04","10:00","3.4","","-3.4","","61","","29","","14","","48.3","","101.97","","","","","","Mostly Cloudy"
"2016-11-04 11:00","2016","11","04","11:00","3.4","","-3.9","","59","","28","","14","","48.3","","101.96","","","","","","NA"
"2016-11-04 12:00","2016","11","04","12:00","4.1","","-3.0","","60","","25","","15","","48.3","","101.92","","","","","","NA"
"2016-11-04 13:00","2016","11","04","13:00","4.3","","-3.2","","58","","26","","23","","48.3","","101.85","","","","","","Mostly Cloudy"
"2016-11-04 14:00","2016","11","04","14:00","3.8","","-3.9","","57","","24","","18","","48.3","","101.82","","","","","","NA"
"2016-11-04 15:00","2016","11","04","15:00","4.4","","-3.6","","56","","27","","19","","48.3","","101.86","","","","","","NA"
"2016-11-04 16:00","2016","11","04","16:00","4.0","","-4.0","","56","","27","","22","","48.3","","101.84","","","","","","Mostly Cloudy"
"2016-11-04 17:00","2016","11","04","17:00","2.5","","-4.1","","62","","25","","9","","24.1","","101.82","","","","","","NA"
"2016-11-04 18:00","2016","11","04","18:00","1.3","","-3.2","","72","","25","","12","","24.1","","101.79","","","","","","NA"
"2016-11-04 19:00","2016","11","04","19:00","1.2","","-3.1","","73","","25","","13","","24.1","","101.76","","","","","","Clear"
"2016-11-04 20:00","2016","11","04","20:00","1.0","","-3.3","","73","","24","","16","","24.1","","101.74","","","","","","NA"
"2016-11-04 21:00","2016","11","04","21:00","0.7","","-3.1","","76","","26","","10","","24.1","","101.71","","","","","","NA"
"2016-11-04 22:00","2016","11","04","22:00","1.4","","-2.6","","75","","25","","7","","24.1","","101.65","","","","","","Mostly Cloudy"
"2016-11-04 23:00","2016","11","04","23:00","1.8","","-2.0","","76","","20","","6","","24.1","","101.60","","","","","","NA"
"2016-11-05 00:00","2016","11","05","00:00","2.3","","-0.8","","80","","25","","4","","24.1","","101.56","","","","","","NA"
"2016-11-05 01:00","2016","11","05","01:00","2.8","","-0.7","","78","","19","","12","","24.1","","101.52","","","","","","Mostly Cloudy"
"2016-11-05 02:00","2016","11","05","02:00","2.8","","-0.1","","81","","18","","9","","24.1","","101.46","","","","","","NA"
"2016-11-05 03:00","2016","11","05","03:00","3.0","","-0.3","","79","","24","","9","","24.1","","101.44","","","","","","NA"
"2016-11-05 04:00","2016","11","05","04:00","3.1","","-0.2","","79","","21","","5","","24.1","","101.42","","","","","","Mostly Cloudy"
"2016-11-05 05:00","2016","11","05","05:00","3.2","","1.3","","87","","24","","8","","24.1","","101.40","","","","","","NA"
"2016-11-05 06:00","2016","11","05","06:00","3.4","","2.5","","94","","25","","12","","19.3","","101.42","","","","","","Rain"
"2016-11-05 07:00","2016","11","05","07:00","3.7","","2.8","","94","","24","","13","","24.1","","101.42","","","","","","Rain"
"2016-11-05 08:00","2016","11","05","08:00","4.6","","3.6","","93","","26","","14","","24.1","","101.45","","","","","","NA"
"2016-11-05 09:00","2016","11","05","09:00","5.2","","3.9","","91","","27","","10","","24.1","","101.49","","","","","","Drizzle"
"2016-11-05 10:00","2016","11","05","10:00","5.9","","4.2","","89","","26","","14","","24.1","","101.50","","","","","","Cloudy"
"2016-11-05 11:00","2016","11","05","11:00","6.7","","4.7","","87","","26","","18","","24.1","","101.46","","","","","","NA"
"2016-11-05 12:00","2016","11","05","12:00","7.4","","4.7","","83","","26","","12","","24.1","","101.43","","","","","","NA"
"2016-11-05 13:00","2016","11","05","13:00","7.8","","4.6","","80","","29","","13","","24.1","","101.40","","","","","","Cloudy"
"2016-11-05 14:00","2016","11","05","14:00","8.4","","4.3","","75","","30","","11","","24.1","","101.36","","","","","","NA"
"2016-11-05 15:00","2016","11","05","15:00","8.2","","4.2","","76","","27","","10","","24.1","","101.36","","","","","","NA"
"2016-11-05 16:00","2016","11","05","16:00","8.1","","4.3","","77","","27","","7","","24.1","","101.37","","","","","","Cloudy"
"2016-11-05 17:00","2016","11","05","17:00","7.6","","4.6","","81","","30","","7","","24.1","","101.40","","","","","","NA"
"2016-11-05 18:00","2016","11","05","18:00","7.5","","4.6","","82","","36","","5","","24.1","","101.43","","","","","","NA"
"2016-11-05 19:00","2016","11","05","19:00","7.2","","4.5","","83","","35","","4","","24.1","","101.45","","","","","","Cloudy"
"2016-11-05 20:00","2016","11","05","20:00","7.1","","4.9","","86","","36","","3","","24.1","","101.44","","","","","","NA"
"2016-11-05 21:00","2016","11","05","21:00","6.6","","5.1","","90","","36","","2","","24.1","","101.43","","","","","","NA"
"2016-11-05 22:00","2016","11","05","22:00","6.2","","5.2","","93","","32","","6","","24.1","","101.44","","","","","","Cloudy"
"2016-11-05 23:00","2016","11","05","23:00","6.3","","4.3","","87","","33","","9","","24.1","","101.46","","","","","","Rain"
"2016-11-06 00:00","2016","11","06","00:00","5.7","","4.5","","92","","30","","5","","24.1","","101.50","","","","","","NA"
"2016-11-06 01:00","2016","11","06","01:00","5.9","","4.4","","90","","33","","10","","24.1","","101.57","","","","","","Rain"
"2016-11-06 02:00","2016","11","06","02:00","5.6","","4.1","","90","","32","","11","","24.1","","101.64","","","","","","NA"
"2016-11-06 03:00","2016","11","06","03:00","5.4","","1.5","","76","","34","","20","","24.1","","101.72","","","","","","NA"
"2016-11-06 04:00","2016","11","06","04:00","4.7","","0.8","","76","","31","","11","","24.1","","101.81","","","","","","Mostly Cloudy"
"2016-11-06 05:00","2016","11","06","05:00","3.3","","0.0","","79","","30","","13","","24.1","","101.89","","","","","","NA"
"2016-11-06 06:00","2016","11","06","06:00","3.0","","-0.1","","80","","31","","8","","24.1","","101.95","","","","","","NA"
"2016-11-06 07:00","2016","11","06","07:00","2.3","","-0.1","","84","","31","","13","","24.1","","102.07","","","","","","Mainly Clear"
"2016-11-06 08:00","2016","11","06","08:00","2.9","","0.1","","82","","33","","12","","24.1","","102.18","","","","","","NA"
"2016-11-06 09:00","2016","11","06","09:00","4.9","","0.7","","74","","34","","15","","24.1","","102.25","","","","","","NA"
"2016-11-06 10:00","2016","11","06","10:00","6.3","","0.0","","64","","34","","19","","48.3","","102.30","","","","","","Mainly Clear"
"2016-11-06 11:00","2016","11","06","11:00","7.3","","-0.6","","57","","34","","13","","48.3","","102.31","","","","","","NA"
"2016-11-06 12:00","2016","11","06","12:00","7.7","","-1.5","","52","","35","","18","","48.3","","102.30","","","","","","NA"
"2016-11-06 13:00","2016","11","06","13:00","8.0","","-2.6","","47","","33","","19","","24.1","","102.32","","","","","","Mostly Cloudy"
"2016-11-06 14:00","2016","11","06","14:00","8.3","","-1.5","","50","","1","","16","","48.3","","102.32","","","","","","NA"
"2016-11-06 15:00","2016","11","06","15:00","7.9","","-2.4","","48","","34","","12","","48.3","","102.36","","","","","","NA"
"2016-11-06 16:00","2016","11","06","16:00","7.3","","-2.2","","51","","2","","16","","48.3","","102.40","","","","","","Mainly Clear"
"2016-11-06 17:00","2016","11","06","17:00","5.3","","-1.8","","60","","3","","17","","48.3","","102.48","","","","","","NA"
"2016-11-06 18:00","2016","11","06","18:00","3.9","","-2.9","","61","","3","","16","","24.1","","102.54","","","","","","NA"
"2016-11-06 19:00","2016","11","06","19:00","3.1","","-3.7","","61","","2","","9","","24.1","","102.57","","","","","","Mainly Clear"
"2016-11-06 20:00","2016","11","06","20:00","1.8","","-3.5","","68","","2","","8","","24.1","","102.64","","","","","","NA"
"2016-11-06 21:00","2016","11","06","21:00","1.6","","-3.1","","71","","36","","2","","24.1","","102.67","","","","","","NA"
"2016-11-06 22:00","2016","11","06","22:00","-0.6","","-3.6","","80","","2","","6","","24.1","","102.67","","","","-3","","Clear"
"2016-11-06 23:00","2016","11","06","23:00","0.1","","-3.1","","79","","23","","3","","24.1","","102.71","","","","","","NA"
"2016-11-07 00:00","2016","11","07","00:00","-1.4","","-3.4","","86","","32","","4","","24.1","","102.70","","","","-3","","NA"
"2016-11-07 01:00","2016","11","07","01:00","-0.8","","-3.0","","85","","36","","3","","24.1","","102.74","","","","-2","","Clear"
"2016-11-07 02:00","2016","11","07","02:00","-1.5","","-3.1","","89","","36","","2","","24.1","","102.78","","","","-2","","NA"
"2016-11-07 03:00","2016","11","07","03:00","-1.9","","-3.2","","91","","36","","3","","24.1","","102.76","","","","-3","","NA"
"2016-11-07 04:00","2016","11","07","04:00","-2.8","","-4.2","","90","","4","","3","","24.1","","102.75","","","","-4","","Clear"
"2016-11-07 05:00","2016","11","07","05:00","-2.2","","-3.5","","91","","4","","4","","24.1","","102.77","","","","-4","","NA"
"2016-11-07 06:00","2016","11","07","06:00","-2.5","","-3.9","","90","","36","","2","","24.1","","102.76","","","","-3","","NA"
"2016-11-07 07:00","2016","11","07","07:00","-0.1","","-2.3","","85","","12","","5","","24.1","","102.79","","","","-2","","Mainly Clear"
"2016-11-07 08:00","2016","11","07","08:00","2.1","","-1.0","","80","","14","","5","","48.3","","102.82","","","","","","NA"
"2016-11-07 09:00","2016","11","07","09:00","3.8","","-0.4","","74","","18","","7","","48.3","","102.81","","","","","","NA"
"2016-11-07 10:00","2016","11","07","10:00","5.3","","0.5","","71","","20","","12","","48.3","","102.77","","","","","","Clear"
"2016-11-07 11:00","2016","11","07","11:00","6.4","","0.7","","67","","20","","17","","48.3","","102.72","","","","","","NA"
"2016-11-07 12:00","2016","11","07","12:00","8.1","","-0.1","","56","","21","","17","","48.3","","102.63","","","","","","NA"
"2016-11-07 13:00","2016","11","07","13:00","9.4","","0.6","","54","","21","","14","","48.3","","102.54","","","","","","Clear"
"2016-11-07 14:00","2016","11","07","14:00","10.4","","2.0","","56","","22","","20","","48.3","","102.46","","","","","","NA"
"2016-11-07 15:00","2016","11","07","15:00","10.6","","2.5","","57","","21","","14","","48.3","","102.40","","","","","","NA"
"2016-11-07 16:00","2016","11","07","16:00","9.9","","2.3","","59","","20","","12","","48.3","","102.34","","","","","","Clear"
"2016-11-07 17:00","2016","11","07","17:00","8.7","","2.5","","65","","21","","10","","48.3","","102.30","","","","","","NA"
"2016-11-07 18:00","2016","11","07","18:00","8.3","","3.2","","70","","14","","11","","24.1","","102.28","","","","","","NA"
"2016-11-07 19:00","2016","11","07","19:00","6.5","","2.6","","76","","16","","7","","24.1","","102.24","","","","","","Clear"
"2016-11-07 20:00","2016","11","07","20:00","6.1","","2.4","","77","","15","","12","","24.1","","102.18","","","","","","NA"
"2016-11-07 21:00","2016","11","07","21:00","5.6","","2.4","","80","","18","","8","","24.1","","102.15","","","","","","NA"
"2016-11-07 22:00","2016","11","07","22:00","5.1","","2.5","","83","","19","","7","","24.1","","102.09","","","","","","Clear"
"2016-11-07 23:00","2016","11","07","23:00","6.0","","3.2","","82","","20","","7","","24.1","","102.05","","","","","","NA"
"2016-11-08 00:00","2016","11","08","00:00","5.3","","2.7","","83","","22","","8","","24.1","","102.02","","","","","","NA"
"2016-11-08 01:00","2016","11","08","01:00","4.0","","2.0","","87","","13","","3","","24.1","","101.99","","","","","","Clear"
"2016-11-08 02:00","2016","11","08","02:00","4.0","","1.4","","83","","15","","7","","24.1","","101.97","","","","","","NA"
"2016-11-08 03:00","2016","11","08","03:00","3.1","","1.2","","87","","16","","8","","24.1","","101.90","","","","","","NA"
"2016-11-08 04:00","2016","11","08","04:00","3.3","","1.2","","86","","15","","7","","24.1","","101.85","","","","","","Clear"
"2016-11-08 05:00","2016","11","08","05:00","2.0","","0.5","","90","","36","","2","","24.1","","101.80","","","","","","NA"
"2016-11-08 06:00","2016","11","08","06:00","1.3","","0.0","","91","","15","","4","","24.1","","101.74","","","","","","NA"
"2016-11-08 07:00","2016","11","08","07:00","2.4","","0.9","","90","","14","","5","","48.3","","101.70","","","","","","Clear"
"2016-11-08 08:00","2016","11","08","08:00","4.7","","1.7","","81","","14","","7","","48.3","","101.66","","","","","","NA"
"2016-11-08 09:00","2016","11","08","09:00","6.6","","2.1","","73","","15","","6","","48.3","","101.61","","","","","","NA"
"2016-11-08 10:00","2016","11","08","10:00","8.5","","2.1","","64","","13","","4","","48.3","","101.54","","","","","","Mainly Clear"
"2016-11-08 11:00","2016","11","08","11:00","11.0","","0.7","","49","","17","","6","","48.3","","101.42","","","","","","NA"
"2016-11-08 12:00","2016","11","08","12:00","12.9","","1.3","","45","","23","","13","","48.3","","101.30","","","","","","NA"
"2016-11-08 13:00","2016","11","08","13:00","14.2","","1.9","","43","","22","","7","","48.3","","101.17","","","","","","Mainly Clear"
"2016-11-08 14:00","2016","11","08","14:00","15.3","","3.2","","44","","20","","4","","48.3","","101.05","","","","","","NA"
"2016-11-08 15:00","2016","11","08","15:00","15.1","","4.3","","48","","14","","12","","48.3","","100.97","","","","","","NA"
"2016-11-08 16:00","2016","11","08","16:00","14.2","","4.0","","50","","14","","12","","48.3","","100.89","","","","","","Mostly Cloudy"
"2016-11-08 17:00","2016","11","08","17:00","11.8","","4.1","","59","","16","","6","","24.1","","100.84","","","","","","NA"
"2016-11-08 18:00","2016","11","08","18:00","11.6","","3.7","","58","","18","","7","","24.1","","100.82","","","","","","NA"
"2016-11-08 19:00","2016","11","08","19:00","10.8","","4.3","","64","","20","","10","","24.1","","100.81","","","","","","Mostly Cloudy"
"2016-11-08 20:00","2016","11","08","20:00","11.4","","4.7","","63","","23","","15","","24.1","","100.77","","","","","","NA"
"2016-11-08 21:00","2016","11","08","21:00","11.4","","4.9","","64","","23","","10","","24.1","","100.75","","","","","","NA"
"2016-11-08 22:00","2016","11","08","22:00","10.2","","5.2","","71","","20","","11","","24.1","","100.68","","","","","","Cloudy"
"2016-11-08 23:00","2016","11","08","23:00","10.3","","6.1","","75","","22","","17","","24.1","","100.63","","","","","","NA"
"2016-11-09 00:00","2016","11","09","00:00","9.8","","6.4","","79","","21","","10","","24.1","","100.58","","","","","","NA"
"2016-11-09 01:00","2016","11","09","01:00","9.3","","6.8","","84","","21","","6","","24.1","","100.55","","","","","","Cloudy"
"2016-11-09 02:00","2016","11","09","02:00","8.4","","6.4","","87","","21","","11","","24.1","","100.54","","","","","","NA"
"2016-11-09 03:00","2016","11","09","03:00","8.8","","6.8","","87","","24","","12","","24.1","","100.54","","","","","","NA"
"2016-11-09 04:00","2016","11","09","04:00","9.6","","7.1","","84","","27","","10","","24.1","","100.56","","","","","","Cloudy"
"2016-11-09 05:00","2016","11","09","05:00","9.2","","7.0","","86","","28","","9","","24.1","","100.59","","","","","","Rain"
"2016-11-09 06:00","2016","11","09","06:00","9.4","","7.0","","85","","31","","12","","24.1","","100.64","","","","","","Rain"
"2016-11-09 07:00","2016","11","09","07:00","9.2","","6.0","","80","","34","","21","","24.1","","100.74","","","","","","Cloudy"
"2016-11-09 08:00","2016","11","09","08:00","7.9","","3.6","","74","","1","","22","","24.1","","100.81","","","","","","NA"
"2016-11-09 09:00","2016","11","09","09:00","7.6","","2.5","","70","","34","","22","","24.1","","100.86","","","","","","NA"
"2016-11-09 10:00","2016","11","09","10:00","7.3","","0.7","","63","","36","","25","","24.1","","100.94","","","","","","Mostly Cloudy"
"2016-11-09 11:00","2016","11","09","11:00","8.2","","0.2","","57","","35","","8","","24.1","","100.92","","","","","","NA"
"2016-11-09 12:00","2016","11","09","12:00","8.6","","-0.9","","51","","32","","13","","24.1","","100.92","","","","","","NA"
"2016-11-09 13:00","2016","11","09","13:00","8.8","","-1.9","","47","","31","","13","","24.1","","100.93","","","","","","Mainly Clear"
"2016-11-09 14:00","2016","11","09","14:00","8.5","","-1.3","","50","","1","","20","","24.1","","100.94","","","","","","NA"
"2016-11-09 15:00","2016","11","09","15:00","7.5","","-2.0","","51","","1","","23","","24.1","","100.97","","","","","","NA"
"2016-11-09 16:00","2016","11","09","16:00","6.2","","-2.7","","53","","35","","18","","24.1","","101.01","","","","","","Mainly Clear"
"2016-11-09 17:00","2016","11","09","17:00","5.6","","-3.5","","52","","33","","14","","24.1","","101.12","","","","","","NA"
"2016-11-09 18:00","2016","11","09","18:00","3.8","","-3.5","","59","","34","","24","","24.1","","101.22","","","","","","NA"
"2016-11-09 19:00","2016","11","09","19:00","2.3","","-3.8","","64","","32","","12","","24.1","","101.25","","","","","","Mainly Clear"
"2016-11-09 20:00","2016","11","09","20:00","1.2","","-4.5","","66","","30","","6","","24.1","","101.26","","","","","","NA"
"2016-11-09 21:00","2016","11","09","21:00","1.1","","-4.4","","67","","31","","9","","24.1","","101.31","","","","","","NA"
"2016-11-09 22:00","2016","11","09","22:00","0.0","","-4.8","","70","","30","","9","","24.1","","101.28","","","","-3","","Mostly Cloudy"
"2016-11-09 23:00","2016","11","09","23:00","-0.4","","-4.7","","73","","28","","10","","24.1","","101.26","","","","-4","","NA"
"2016-11-10 00:00","2016","11","10","00:00","-0.3","","-4.4","","74","","24","","7","","24.1","","101.23","","","","-3","","NA"
"2016-11-10 01:00","2016","11","10","01:00","-0.2","","-4.1","","75","","27","","8","","24.1","","101.21","","","","-3","","Mostly Cloudy"
"2016-11-10 02:00","2016","11","10","02:00","-0.3","","-3.9","","77","","27","","8","","24.1","","101.23","","","","-3","","NA"
"2016-11-10 03:00","2016","11","10","03:00","-1.2","","-4.2","","80","","25","","9","","24.1","","101.18","","","","-4","","NA"
"2016-11-10 04:00","2016","11","10","04:00","-0.9","","-4.3","","78","","25","","8","","24.1","","101.14","","","","-4","","Clear"
"2016-11-10 05:00","2016","11","10","05:00","-1.6","","-4.3","","82","","24","","13","","24.1","","101.09","","","","-6","","NA"
"2016-11-10 06:00","2016","11","10","06:00","-1.5","","-4.0","","83","","23","","12","","24.1","","101.03","","","","-6","","NA"
"2016-11-10 07:00","2016","11","10","07:00","-0.6","","-3.6","","80","","23","","17","","48.3","","100.97","","","","-6","","Cloudy"
"2016-11-10 08:00","2016","11","10","08:00","1.0","","-1.1","","86","","23","","19","","48.3","","100.90","","","","","","NA"
"2016-11-10 09:00","2016","11","10","09:00","2.4","","-1.6","","75","","22","","30","","48.3","","100.82","","","","","","NA"
"2016-11-10 10:00","2016","11","10","10:00","4.1","","-1.7","","66","","22","","36","","48.3","","100.70","","","","","","Cloudy"
"2016-11-10 11:00","2016","11","10","11:00","5.3","","-0.7","","65","","22","","33","","48.3","","100.54","","","","","","NA"
"2016-11-10 12:00","2016","11","10","12:00","7.4","","1.3","","65","","20","","25","","48.3","","100.32","","","","","","NA"
"2016-11-10 13:00","2016","11","10","13:00","8.5","","2.1","","64","","21","","30","","48.3","","100.10","","","","","","Cloudy"
"2016-11-10 14:00","2016","11","10","14:00","9.7","","3.5","","65","","20","","24","","48.3","","99.88","","","","","","NA"
"2016-11-10 15:00","2016","11","10","15:00","10.2","","3.3","","62","","22","","24","","48.3","","99.80","","","","","","NA"
"2016-11-10 16:00","2016","11","10","16:00","10.2","","3.1","","61","","22","","21","","48.3","","99.66","","","","","","Mostly Cloudy"
"2016-11-10 17:00","2016","11","10","17:00","10.8","","3.2","","59","","21","","25","","24.1","","99.55","","","","","","NA"
"2016-11-10 18:00","2016","11","10","18:00","11.1","","3.9","","61","","23","","27","","24.1","","99.49","","","","","","NA"
"2016-11-10 19:00","2016","11","10","19:00","11.5","","4.3","","61","","23","","28","","24.1","","99.42","","","","","","Mostly Cloudy"
"2016-11-10 20:00","2016","11","10","20:00","11.9","","4.7","","61","","24","","25","","24.1","","99.37","","","","","","NA"
"2016-11-10 21:00","2016","11","10","21:00","12.0","","4.8","","61","","23","","27","","24.1","","99.27","","","","","","NA"
"2016-11-10 22:00","2016","11","10","22:00","12.2","","5.0","","61","","24","","33","","24.1","","99.17","","","","","","Cloudy"
"2016-11-10 23:00","2016","11","10","23:00","12.0","","5.2","","63","","24","","33","","24.1","","99.11","","","","","","NA"
"2016-11-11 00:00","2016","11","11","00:00","11.8","","5.3","","64","","23","","34","","24.1","","99.02","","","","","","NA"
"2016-11-11 01:00","2016","11","11","01:00","11.8","","5.0","","63","","24","","35","","24.1","","98.94","","","","","","Cloudy"
"2016-11-11 02:00","2016","11","11","02:00","11.6","","4.8","","63","","24","","31","","24.1","","98.92","","","","","","NA"
"2016-11-11 03:00","2016","11","11","03:00","9.8","","6.5","","80","","25","","28","","24.1","","98.97","","","","","","Rain"
"2016-11-11 04:00","2016","11","11","04:00","9.4","","6.3","","81","","29","","35","","24.1","","99.08","","","","","","Rain"
"2016-11-11 05:00","2016","11","11","05:00","7.8","","3.3","","73","","31","","24","","24.1","","99.33","","","","","","NA"
"2016-11-11 06:00","2016","11","11","06:00","6.9","","1.6","","69","","30","","32","","24.1","","99.56","","","","","","NA"
"2016-11-11 07:00","2016","11","11","07:00","5.1","","-1.8","","61","","31","","24","","24.1","","99.83","","","","","","Mostly Cloudy"
"2016-11-11 08:00","2016","11","11","08:00","4.5","","-3.1","","58","","30","","29","","24.1","","100.06","","","","","","NA"
"2016-11-11 09:00","2016","11","11","09:00","4.4","","-3.9","","55","","30","","23","","24.1","","100.17","","","","","","NA"
"2016-11-11 10:00","2016","11","11","10:00","4.6","","-5.2","","49","","31","","34","","48.3","","100.26","","","","","","Mostly Cloudy"
"2016-11-11 11:00","2016","11","11","11:00","4.2","","-5.1","","51","","29","","37","","48.3","","100.36","","","","","","NA"
"2016-11-11 12:00","2016","11","11","12:00","5.2","","-5.2","","47","","29","","39","","48.3","","100.40","","","","","","NA"
"2016-11-11 13:00","2016","11","11","13:00","5.1","","-5.6","","46","","29","","40","","48.3","","100.49","","","","","","Mostly Cloudy"
"2016-11-11 14:00","2016","11","11","14:00","4.8","","-5.6","","47","","29","","34","","48.3","","100.59","","","","","","NA"
"2016-11-11 15:00","2016","11","11","15:00","4.2","","-6.4","","46","","31","","40","","48.3","","100.74","","","","","","NA"
"2016-11-11 16:00","2016","11","11","16:00","3.8","","-8.6","","40","","33","","43","","48.3","","100.90","","","","","","Mostly Cloudy"
"2016-11-11 17:00","2016","11","11","17:00","3.0","","-8.7","","42","","32","","33","","48.3","","101.09","","","","","","NA"
"2016-11-11 18:00","2016","11","11","18:00","2.7","","-9.0","","42","","32","","23","","24.1","","101.24","","","","","","NA"
"2016-11-11 19:00","2016","11","11","19:00","2.3","","-9.1","","43","","33","","19","","24.1","","101.39","","","","","","Clear"
"2016-11-11 20:00","2016","11","11","20:00","1.3","","-8.6","","48","","30","","14","","24.1","","101.48","","","","","","NA"
"2016-11-11 21:00","2016","11","11","21:00","1.5","","-8.9","","46","","31","","21","","24.1","","101.58","","","","","","NA"
"2016-11-11 22:00","2016","11","11","22:00","0.8","","-8.5","","50","","29","","14","","24.1","","101.66","","","","","","Clear"
"2016-11-11 23:00","2016","11","11","23:00","0.2","","-8.5","","52","","29","","11","","24.1","","101.70","","","","","","NA"
"2016-11-12 00:00","2016","11","12","00:00","0.0","","-8.5","","53","","26","","6","","24.1","","101.80","","","","-2","","NA"
"2016-11-12 01:00","2016","11","12","01:00","-0.3","","-7.8","","57","","30","","14","","24.1","","101.84","","","","-5","","Clear"
"2016-11-12 02:00","2016","11","12","02:00","-0.7","","-8.2","","57","","28","","10","","24.1","","101.93","","","","-4","","NA"
"2016-11-12 03:00","2016","11","12","03:00","-1.6","","-7.8","","63","","24","","9","","24.1","","101.92","","","","-5","","NA"
"2016-11-12 04:00","2016","11","12","04:00","-1.3","","-6.3","","69","","24","","10","","24.1","","101.91","","","","-5","","Mostly Cloudy"
"2016-11-12 05:00","2016","11","12","05:00","-0.7","","-5.0","","73","","23","","10","","24.1","","101.92","","","","-4","","NA"
"2016-11-12 06:00","2016","11","12","06:00","0.5","","-5.8","","63","","28","","17","","24.1","","101.93","","","","","","NA"
"2016-11-12 07:00","2016","11","12","07:00","0.3","","-6.6","","60","","27","","18","","24.1","","101.97","","","","","","Mainly Clear"
"2016-11-12 08:00","2016","11","12","08:00","0.5","","-5.5","","64","","25","","21","","48.3","","101.98","","","","","","NA"
"2016-11-12 09:00","2016","11","12","09:00","1.1","","-5.2","","63","","24","","29","","48.3","","101.96","","","","","","NA"
"2016-11-12 10:00","2016","11","12","10:00","1.5","","-5.4","","60","","25","","30","","48.3","","101.97","","","","","","Cloudy"
"2016-11-12 11:00","2016","11","12","11:00","2.8","","-6.4","","51","","25","","33","","48.3","","101.88","","","","","","NA"
"2016-11-12 12:00","2016","11","12","12:00","3.4","","-6.3","","49","","24","","34","","48.3","","101.76","","","","","","NA"
"2016-11-12 13:00","2016","11","12","13:00","3.6","","-6.4","","48","","23","","39","","48.3","","101.63","","","","","","Cloudy"
"2016-11-12 14:00","2016","11","12","14:00","3.9","","-5.3","","51","","24","","32","","48.3","","101.47","","","","","","NA"
"2016-11-12 15:00","2016","11","12","15:00","4.4","","-4.1","","54","","23","","40","","48.3","","101.28","","","","","","NA"
"2016-11-12 16:00","2016","11","12","16:00","4.6","","-3.2","","57","","23","","28","","48.3","","101.16","","","","","","Cloudy"
"2016-11-12 17:00","2016","11","12","17:00","4.3","","-3.7","","56","","24","","31","","24.1","","101.10","","","","","","NA"
"2016-11-12 18:00","2016","11","12","18:00","4.8","","-2.1","","61","","23","","31","","24.1","","100.98","","","","","","NA"
"2016-11-12 19:00","2016","11","12","19:00","5.5","","-0.3","","66","","23","","28","","24.1","","100.94","","","","","","Mostly Cloudy"
"2016-11-12 20:00","2016","11","12","20:00","6.2","","0.3","","66","","24","","39","","24.1","","100.90","","","","","","NA"
"2016-11-12 21:00","2016","11","12","21:00","6.5","","0.0","","63","","24","","32","","24.1","","100.88","","","","","","NA"
"2016-11-12 22:00","2016","11","12","22:00","7.0","","0.5","","63","","24","","27","","24.1","","100.90","","","","","","Cloudy"
"2016-11-12 23:00","2016","11","12","23:00","7.2","","0.9","","64","","23","","30","","24.1","","100.89","","","","","","NA"
"2016-11-13 00:00","2016","11","13","00:00","7.2","","0.4","","62","","24","","36","","24.1","","100.88","","","","","","NA"
"2016-11-13 01:00","2016","11","13","01:00","7.4","","-0.1","","59","","24","","32","","24.1","","100.90","","","","","","Cloudy"
"2016-11-13 02:00","2016","11","13","02:00","7.5","","-1.5","","53","","25","","34","","24.1","","100.87","","","","","","NA"
"2016-11-13 03:00","2016","11","13","03:00","7.2","","-1.7","","53","","24","","27","","24.1","","100.86","","","","","","NA"
"2016-11-13 04:00","2016","11","13","04:00","7.2","","-1.0","","56","","24","","32","","24.1","","100.83","","","","","","Cloudy"
"2016-11-13 05:00","2016","11","13","05:00","6.9","","-0.3","","60","","24","","26","","24.1","","100.89","","","","","","NA"
"2016-11-13 06:00","2016","11","13","06:00","7.0","","0.0","","61","","24","","30","","24.1","","100.93","","","","","","NA"
"2016-11-13 07:00","2016","11","13","07:00","6.3","","0.2","","65","","24","","25","","24.1","","100.94","","","","","","Mostly Cloudy"
"2016-11-13 08:00","2016","11","13","08:00","6.9","","0.8","","65","","24","","27","","48.3","","100.95","","","","","","NA"
"2016-11-13 09:00","2016","11","13","09:00","8.1","","1.5","","63","","24","","26","","48.3","","101.01","","","","","","NA"
"2016-11-13 10:00","2016","11","13","10:00","8.9","","1.8","","61","","22","","32","","48.3","","100.98","","","","","","Clear"
"2016-11-13 11:00","2016","11","13","11:00","9.7","","2.8","","62","","21","","36","","48.3","","100.91","","","","","","NA"
"2016-11-13 12:00","2016","11","13","12:00","10.7","","3.3","","60","","22","","32","","48.3","","100.84","","","","","","NA"
"2016-11-13 13:00","2016","11","13","13:00","10.8","","3.6","","61","","22","","29","","48.3","","100.80","","","","","","Mainly Clear"
"2016-11-13 14:00","2016","11","13","14:00","10.8","","3.4","","60","","22","","35","","48.3","","100.74","","","","","","NA"
"2016-11-13 15:00","2016","11","13","15:00","10.6","","3.0","","59","","22","","33","","48.3","","100.74","","","","","","NA"
"2016-11-13 16:00","2016","11","13","16:00","10.0","","3.5","","64","","23","","30","","48.3","","100.67","","","","","","Clear"
"2016-11-13 17:00","2016","11","13","17:00","9.2","","3.4","","67","","23","","31","","24.1","","100.71","","","","","","NA"
"2016-11-13 18:00","2016","11","13","18:00","8.5","","3.4","","70","","23","","30","","24.1","","100.71","","","","","","NA"
"2016-11-13 19:00","2016","11","13","19:00","8.1","","3.2","","71","","23","","28","","24.1","","100.67","","","","","","Clear"
"2016-11-13 20:00","2016","11","13","20:00","8.0","","3.3","","72","","23","","31","","24.1","","100.68","","","","","","NA"
"2016-11-13 21:00","2016","11","13","21:00","7.3","","2.8","","73","","24","","23","","24.1","","100.67","","","","","","NA"
"2016-11-13 22:00","2016","11","13","22:00","7.5","","3.4","","75","","22","","21","","24.1","","100.64","","","","","","Clear"
"2016-11-13 23:00","2016","11","13","23:00","7.3","","3.9","","79","","24","","18","","24.1","","100.63","","","","","","NA"
"2016-11-14 00:00","2016","11","14","00:00","7.4","","4.5","","82","","22","","18","","24.1","","100.64","","","","","","NA"
"2016-11-14 01:00","2016","11","14","01:00","7.6","","4.2","","79","","22","","19","","24.1","","100.64","","","","","","Mainly Clear"
"2016-11-14 02:00","2016","11","14","02:00","8.1","","3.4","","72","","23","","26","","24.1","","100.65","","","","","","NA"
"2016-11-14 03:00","2016","11","14","03:00","7.8","","3.1","","72","","22","","22","","24.1","","100.65","","","","","","NA"
"2016-11-14 04:00","2016","11","14","04:00","7.7","","3.0","","72","","23","","19","","24.1","","100.66","","","","","","Clear"
"2016-11-14 05:00","2016","11","14","05:00","7.6","","2.9","","72","","23","","17","","24.1","","100.66","","","","","","NA"
"2016-11-14 06:00","2016","11","14","06:00","8.1","","2.2","","66","","22","","27","","24.1","","100.67","","","","","","NA"
"2016-11-14 07:00","2016","11","14","07:00","7.8","","1.9","","66","","23","","22","","24.1","","100.75","","","","","","Clear"
"2016-11-14 08:00","2016","11","14","08:00","8.5","","1.4","","61","","24","","24","","48.3","","100.83","","","","","","NA"
"2016-11-14 09:00","2016","11","14","09:00","9.3","","1.5","","58","","25","","28","","48.3","","100.87","","","","","","NA"
"2016-11-14 10:00","2016","11","14","10:00","10.4","","1.3","","53","","26","","32","","48.3","","100.88","","","","","","Mostly Cloudy"
"2016-11-14 11:00","2016","11","14","11:00","11.2","","1.5","","51","","25","","24","","48.3","","100.90","","","","","","NA"
"2016-11-14 12:00","2016","11","14","12:00","11.9","","1.6","","49","","24","","20","","48.3","","100.85","","","","","","NA"
"2016-11-14 13:00","2016","11","14","13:00","12.4","","1.8","","48","","28","","9","","48.3","","100.87","","","","","","Mostly Cloudy"
"2016-11-14 14:00","2016","11","14","14:00","13.0","","2.6","","49","","24","","10","","48.3","","100.85","","","","","","NA"
"2016-11-14 15:00","2016","11","14","15:00","12.5","","2.7","","51","","20","","12","","48.3","","100.90","","","","","","NA"
"2016-11-14 16:00","2016","11","14","16:00","11.7","","2.2","","52","","22","","7","","48.3","","100.95","","","","","","Mainly Clear"
"2016-11-14 17:00","2016","11","14","17:00","9.3","","2.0","","60","","27","","3","","24.1","","101.01","","","","","","NA"
"2016-11-14 18:00","2016","11","14","18:00","7.5","","1.8","","67","","36","","2","","24.1","","101.04","","","","","","NA"
"2016-11-14 19:00","2016","11","14","19:00","8.3","","1.9","","64","","36","","5","","24.1","","101.09","","","","","","Mostly Cloudy"
"2016-11-14 20:00","2016","11","14","20:00","7.8","","2.7","","70","","12","","3","","24.1","","101.11","","","","","","NA"
"2016-11-14 21:00","2016","11","14","21:00","4.8","","1.8","","81","","36","","1","","24.1","","101.13","","","","","","NA"
"2016-11-14 22:00","2016","11","14","22:00","5.3","","2.5","","82","","36","","1","","24.1","","101.13","","","","","","Mostly Cloudy"
"2016-11-14 23:00","2016","11","14","23:00","6.4","","3.0","","79","","12","","4","","24.1","","101.11","","","","","","NA"
"2016-11-15 00:00","2016","11","15","00:00","6.5","","3.5","","81","","13","","4","","24.1","","101.13","","","","","","NA"
"2016-11-15 01:00","2016","11","15","01:00","4.7","","2.6","","86","","17","","3","","24.1","","101.16","","","","","","Mostly Cloudy"
"2016-11-15 02:00","2016","11","15","02:00","3.2","","1.6","","89","","2","","7","","24.1","","101.17","","","","","","NA"
"2016-11-15 03:00","2016","11","15","03:00","2.9","","1.0","","87","","3","","8","","24.1","","101.14","","","","","","NA"
"2016-11-15 04:00","2016","11","15","04:00","2.8","","1.0","","88","","2","","4","","24.1","","101.13","","","","","","Mostly Cloudy"
"2016-11-15 05:00","2016","11","15","05:00","3.0","","1.5","","90","","1","","5","","24.1","","101.15","","","","","","NA"
"2016-11-15 06:00","2016","11","15","06:00","3.6","","2.0","","89","","2","","11","","24.1","","101.14","","","","","","NA"
"2016-11-15 07:00","2016","11","15","07:00","3.9","","2.3","","89","","2","","14","","16.1","","101.19","","","","","","Cloudy"
"2016-11-15 08:00","2016","11","15","08:00","4.5","","3.0","","90","","2","","16","","16.1","","101.21","","","","","","NA"
"2016-11-15 09:00","2016","11","15","09:00","5.7","","3.4","","85","","2","","8","","16.1","","101.21","","","","","","NA"
"2016-11-15 10:00","2016","11","15","10:00","6.4","","3.4","","81","","1","","14","","24.1","","101.18","","","","","","Cloudy"
"2016-11-15 11:00","2016","11","15","11:00","8.1","","4.0","","75","","3","","16","","24.1","","101.11","","","","","","NA"
"2016-11-15 12:00","2016","11","15","12:00","9.3","","4.3","","71","","2","","14","","24.1","","101.06","","","","","","NA"
"2016-11-15 13:00","2016","11","15","13:00","11.1","","4.6","","64","","3","","10","","24.1","","101.00","","","","","","Mainly Clear"
"2016-11-15 14:00","2016","11","15","14:00","11.6","","3.7","","58","","3","","14","","24.1","","100.92","","","","","","NA"
"2016-11-15 15:00","2016","11","15","15:00","11.6","","3.9","","59","","2","","13","","24.1","","100.91","","","","","","NA"
"2016-11-15 16:00","2016","11","15","16:00","9.5","","2.8","","63","","4","","13","","24.1","","100.87","","","","","","Mostly Cloudy"
"2016-11-15 17:00","2016","11","15","17:00","8.1","","3.2","","71","","2","","12","","24.1","","100.87","","","","","","NA"
"2016-11-15 18:00","2016","11","15","18:00","8.8","","4.1","","72","","1","","13","","24.1","","100.86","","","","","","NA"
"2016-11-15 19:00","2016","11","15","19:00","8.8","","4.1","","72","","2","","23","","24.1","","100.79","","","","","","Cloudy"
"2016-11-15 20:00","2016","11","15","20:00","8.5","","4.2","","74","","1","","22","","24.1","","100.72","","","","","","NA"
"2016-11-15 21:00","2016","11","15","21:00","8.2","","4.2","","76","","2","","23","","24.1","","100.67","","","","","","NA"
"2016-11-15 22:00","2016","11","15","22:00","7.6","","4.9","","83","","3","","21","","24.1","","100.66","","","","","","Rain"
"2016-11-15 23:00","2016","11","15","23:00","7.2","","5.0","","86","","2","","20","","24.1","","100.58","","","","","","Rain"
"2016-11-16 00:00","2016","11","16","00:00","6.4","","4.9","","90","","2","","24","","24.1","","100.48","","","","","","Rain"
"2016-11-16 01:00","2016","11","16","01:00","6.9","","5.2","","89","","3","","24","","16.1","","100.42","","","","","","Rain"
"2016-11-16 02:00","2016","11","16","02:00","6.2","","5.2","","93","","3","","23","","8.1","","100.41","","","","","","Rain,Fog"
"2016-11-16 03:00","2016","11","16","03:00","6.2","","5.3","","94","","3","","26","","8.1","","100.33","","","","","","Rain,Fog"
"2016-11-16 04:00","2016","11","16","04:00","6.1","","5.4","","95","","3","","23","","9.7","","100.27","","","","","","Drizzle,Fog"
"2016-11-16 05:00","2016","11","16","05:00","6.2","","5.3","","94","","2","","18","","12.9","","100.21","","","","","","NA"
"2016-11-16 06:00","2016","11","16","06:00","6.4","","5.2","","92","","2","","18","","24.1","","100.20","","","","","","NA"
"2016-11-16 07:00","2016","11","16","07:00","6.3","","5.3","","93","","1","","14","","16.1","","100.20","","","","","","Cloudy"
"2016-11-16 08:00","2016","11","16","08:00","6.4","","5.2","","92","","2","","17","","16.1","","100.22","","","","","","NA"
"2016-11-16 09:00","2016","11","16","09:00","6.7","","5.5","","92","","35","","10","","16.1","","100.18","","","","","","NA"
"2016-11-16 10:00","2016","11","16","10:00","7.0","","5.8","","92","","35","","11","","16.1","","100.14","","","","","","Cloudy"
"2016-11-16 11:00","2016","11","16","11:00","7.2","","6.0","","92","","34","","7","","9.7","","100.10","","","","","","Fog"
"2016-11-16 12:00","2016","11","16","12:00","7.2","","6.0","","92","","29","","13","","9.7","","100.10","","","","","","Fog"
"2016-11-16 13:00","2016","11","16","13:00","7.1","","6.2","","94","","27","","12","","8.1","","100.10","","","","","","Drizzle,Fog"
"2016-11-16 14:00","2016","11","16","14:00","7.1","","6.4","","95","","26","","12","","4.0","","100.13","","","","","","Rain,Fog"
"2016-11-16 15:00","2016","11","16","15:00","7.3","","6.4","","94","","25","","12","","8.1","","100.20","","","","","","Drizzle,Fog"
"2016-11-16 16:00","2016","11","16","16:00","7.4","","6.7","","95","","25","","14","","9.7","","100.26","","","","","","Drizzle,Fog"
"2016-11-16 17:00","2016","11","16","17:00","7.5","","6.8","","95","","25","","14","","11.3","","100.32","","","","","","Drizzle"
"2016-11-16 18:00","2016","11","16","18:00","7.6","","6.7","","94","","25","","14","","19.3","","100.37","","","","","","Drizzle"
"2016-11-16 19:00","2016","11","16","19:00","7.7","","6.7","","93","","27","","13","","24.1","","100.39","","","","","","Cloudy"
"2016-11-16 20:00","2016","11","16","20:00","7.7","","6.3","","91","","27","","12","","24.1","","100.43","","","","","","NA"
"2016-11-16 21:00","2016","11","16","21:00","7.5","","6.0","","90","","26","","9","","24.1","","100.49","","","","","","NA"
"2016-11-16 22:00","2016","11","16","22:00","7.1","","5.7","","91","","27","","13","","24.1","","100.54","","","","","","Mostly Cloudy"
"2016-11-16 23:00","2016","11","16","23:00","7.1","","5.6","","90","","27","","14","","24.1","","100.59","","","","","","NA"
"2016-11-17 00:00","2016","11","17","00:00","6.9","","5.4","","90","","27","","11","","24.1","","100.64","","","","","","NA"
"2016-11-17 01:00","2016","11","17","01:00","5.9","","4.2","","89","","28","","9","","24.1","","100.68","","","","","","Mainly Clear"
"2016-11-17 02:00","2016","11","17","02:00","6.2","","4.0","","86","","30","","10","","24.1","","100.76","","","","","","NA"
"2016-11-17 03:00","2016","11","17","03:00","5.0","","3.7","","91","","27","","5","","24.1","","100.82","","","","","","NA"
"2016-11-17 04:00","2016","11","17","04:00","5.3","","3.5","","88","","28","","8","","24.1","","100.91","","","","","","Mainly Clear"
"2016-11-17 05:00","2016","11","17","05:00","3.1","","2.2","","94","","25","","11","","24.1","","101.00","","","","","","NA"
"2016-11-17 06:00","2016","11","17","06:00","4.7","","3.7","","93","","24","","7","","24.1","","101.08","","","","","","NA"
"2016-11-17 07:00","2016","11","17","07:00","4.4","","3.2","","92","","27","","13","","24.1","","101.17","","","","","","Mostly Cloudy"
"2016-11-17 08:00","2016","11","17","08:00","4.0","","2.8","","92","","26","","10","","24.1","","101.23","","","","","","NA"
"2016-11-17 09:00","2016","11","17","09:00","6.2","","4.2","","87","","27","","9","","24.1","","101.31","","","","","","NA"
"2016-11-17 10:00","2016","11","17","10:00","6.6","","4.3","","85","","28","","12","","24.1","","101.39","","","","","","Mostly Cloudy"
"2016-11-17 11:00","2016","11","17","11:00","8.5","","4.5","","76","","24","","8","","24.1","","101.37","","","","","","NA"
"2016-11-17 12:00","2016","11","17","12:00","9.1","","3.7","","69","","28","","8","","24.1","","101.36","","","","","","NA"
"2016-11-17 13:00","2016","11","17","13:00","9.6","","3.6","","66","","36","","1","","24.1","","101.34","","","","","","Mostly Cloudy"
"2016-11-17 14:00","2016","11","17","14:00","10.1","","4.1","","66","","20","","12","","24.1","","101.35","","","","","","NA"
"2016-11-17 15:00","2016","11","17","15:00","10.2","","5.2","","71","","22","","18","","24.1","","101.40","","","","","","NA"
"2016-11-17 16:00","2016","11","17","16:00","8.0","","5.0","","81","","22","","22","","24.1","","101.45","","","","","","Mainly Clear"
"2016-11-17 17:00","2016","11","17","17:00","6.7","","4.2","","84","","23","","15","","24.1","","101.51","","","","","","NA"
"2016-11-17 18:00","2016","11","17","18:00","6.0","","4.0","","87","","22","","14","","24.1","","101.56","","","","","","NA"
"2016-11-17 19:00","2016","11","17","19:00","5.6","","3.9","","89","","23","","14","","24.1","","101.57","","","","","","Clear"
"2016-11-17 20:00","2016","11","17","20:00","5.6","","3.9","","89","","22","","17","","24.1","","101.60","","","","","","NA"
"2016-11-17 21:00","2016","11","17","21:00","4.4","","3.1","","91","","29","","7","","24.1","","101.63","","","","","","NA"
"2016-11-17 22:00","2016","11","17","22:00","3.6","","2.6","","93","","26","","7","","24.1","","101.64","","","","","","Mainly Clear"
"2016-11-17 23:00","2016","11","17","23:00","2.7","","1.7","","93","","30","","9","","24.1","","101.62","","","","","","NA"
"2016-11-18 00:00","2016","11","18","00:00","2.7","","1.8","","94","","36","","2","","16.1","","101.63","","","","","","NA"
"2016-11-18 01:00","2016","11","18","01:00","1.6","","1.0","","96","","36","","2","","12.9","","101.67","","","","","","Clear"
"2016-11-18 02:00","2016","11","18","02:00","0.0","","-0.6","","96","","36","","3","","1.6","","101.68","","","","-1","","Fog"
"2016-11-18 03:00","2016","11","18","03:00","0.8","","0.4","","97","","33","","5","","3.2","","101.71","","","","","","Fog"
"2016-11-18 04:00","2016","11","18","04:00","0.0","","-0.4","","97","","34","","3","","4.8","","101.71","","","","-1","","Fog"
"2016-11-18 05:00","2016","11","18","05:00","0.2","","-0.2","","97","","3","","3","","6.4","","101.71","","","","","","Fog"
"2016-11-18 06:00","2016","11","18","06:00","0.2","","-0.4","","96","","36","","5","","6.4","","101.75","","","","","","Fog"
"2016-11-18 07:00","2016","11","18","07:00","1.2","","0.8","","97","","1","","8","","0.8","","101.76","","","","","","Fog"
"2016-11-18 08:00","2016","11","18","08:00","2.7","","2.3","","97","","36","","5","","0.4","","101.78","","","","","","Fog"
"2016-11-18 09:00","2016","11","18","09:00","3.5","","3.2","","98","","5","","5","","0.4","","101.73","","","","","","Fog"
"2016-11-18 10:00","2016","11","18","10:00","4.5","","4.2","","98","","11","","5","","0.4","","101.73","","","","","","Fog"
"2016-11-18 11:00","2016","11","18","11:00","5.5","","5.1","","97","","4","","5","","8.1","","101.70","","","","","","Fog"
"2016-11-18 12:00","2016","11","18","12:00","6.8","","5.3","","90","","1","","9","","6.4","","101.61","","","","","","Fog"
"2016-11-18 13:00","2016","11","18","13:00","7.8","","5.5","","85","","1","","13","","8.1","","101.55","","","","","","Haze"
"2016-11-18 14:00","2016","11","18","14:00","8.6","","5.4","","80","","2","","13","","9.7","","101.52","","","","","","Haze"
"2016-11-18 15:00","2016","11","18","15:00","7.2","","4.4","","82","","3","","20","","12.9","","101.52","","","","","","NA"
"2016-11-18 16:00","2016","11","18","16:00","6.4","","4.2","","86","","3","","18","","12.9","","101.52","","","","","","Mostly Cloudy"
"2016-11-18 17:00","2016","11","18","17:00","4.7","","3.4","","91","","4","","14","","9.7","","101.49","","","","","","Fog"
"2016-11-18 18:00","2016","11","18","18:00","4.6","","3.7","","94","","4","","13","","9.7","","101.46","","","","","","Fog"
"2016-11-18 19:00","2016","11","18","19:00","4.3","","3.4","","94","","3","","16","","8.1","","101.44","","","","","","Fog"
"2016-11-18 20:00","2016","11","18","20:00","5.1","","4.5","","96","","4","","18","","4.0","","101.40","","","","","","Fog"
"2016-11-18 21:00","2016","11","18","21:00","5.0","","4.4","","96","","2","","15","","3.2","","101.38","","","","","","Fog"
"2016-11-18 22:00","2016","11","18","22:00","4.7","","4.3","","97","","2","","21","","2.0","","101.36","","","","","","Fog"
"2016-11-18 23:00","2016","11","18","23:00","4.5","","4.1","","97","","4","","16","","3.2","","101.32","","","","","","Fog"
"2016-11-19 00:00","2016","11","19","00:00","3.8","","3.1","","95","","2","","16","","6.4","","101.29","","","","","","Fog"
"2016-11-19 01:00","2016","11","19","01:00","3.2","","2.3","","94","","2","","13","","6.4","","101.27","","","","","","Fog"
"2016-11-19 02:00","2016","11","19","02:00","2.6","","1.9","","95","","3","","16","","4.8","","101.18","","","","","","Fog"
"2016-11-19 03:00","2016","11","19","03:00","3.2","","2.6","","96","","4","","21","","4.0","","101.11","","","","","","Fog"
"2016-11-19 04:00","2016","11","19","04:00","2.4","","1.8","","96","","3","","16","","4.8","","101.08","","","","","","Fog"
"2016-11-19 05:00","2016","11","19","05:00","2.8","","2.1","","95","","3","","20","","4.8","","101.02","","","","","","Fog"
"2016-11-19 06:00","2016","11","19","06:00","2.7","","2.1","","96","","4","","21","","1.2","","100.99","","","","","","Fog"
"2016-11-19 07:00","2016","11","19","07:00","2.6","","2.2","","97","","5","","21","","0.4","","100.96","","","","","","Fog"
"2016-11-19 08:00","2016","11","19","08:00","2.5","","2.1","","97","","3","","27","","0.6","","100.89","","","","","","Fog"
"2016-11-19 09:00","2016","11","19","09:00","3.0","","2.6","","97","","3","","22","","2.0","","100.80","","","","","","Fog"
"2016-11-19 10:00","2016","11","19","10:00","3.9","","3.5","","97","","4","","24","","8.1","","100.70","","","","","","Fog"
"2016-11-19 11:00","2016","11","19","11:00","5.6","","3.9","","89","","3","","23","","16.1","","100.59","","","","","","NA"
"2016-11-19 12:00","2016","11","19","12:00","5.8","","3.3","","84","","3","","26","","16.1","","100.41","","","","","","NA"
"2016-11-19 13:00","2016","11","19","13:00","6.8","","3.8","","81","","3","","25","","19.3","","100.26","","","","","","Mainly Clear"
"2016-11-19 14:00","2016","11","19","14:00","8.5","","4.2","","74","","4","","18","","19.3","","100.13","","","","","","NA"
"2016-11-19 15:00","2016","11","19","15:00","9.3","","4.5","","72","","3","","23","","24.1","","100.02","","","","","","NA"
"2016-11-19 16:00","2016","11","19","16:00","9.0","","5.4","","78","","3","","19","","24.1","","99.93","","","","","","Mainly Clear"
"2016-11-19 17:00","2016","11","19","17:00","8.7","","5.8","","82","","3","","24","","24.1","","99.86","","","","","","NA"
"2016-11-19 18:00","2016","11","19","18:00","8.2","","5.5","","83","","3","","26","","24.1","","99.80","","","","","","NA"
"2016-11-19 19:00","2016","11","19","19:00","6.9","","4.7","","86","","5","","18","","24.1","","99.80","","","","","","Clear"
"2016-11-19 20:00","2016","11","19","20:00","6.9","","4.9","","87","","24","","13","","24.1","","99.89","","","","","","NA"
"2016-11-19 21:00","2016","11","19","21:00","8.5","","5.3","","80","","24","","20","","24.1","","99.88","","","","","","NA"
"2016-11-19 22:00","2016","11","19","22:00","8.4","","4.1","","74","","24","","32","","24.1","","99.84","","","","","","Cloudy"
"2016-11-19 23:00","2016","11","19","23:00","7.5","","3.6","","76","","24","","30","","24.1","","99.79","","","","","","NA"
"2016-11-20 00:00","2016","11","20","00:00","6.9","","2.4","","73","","24","","26","","24.1","","99.72","","","","","","NA"
"2016-11-20 01:00","2016","11","20","01:00","6.2","","1.9","","74","","25","","24","","24.1","","99.63","","","","","","Cloudy"
"2016-11-20 02:00","2016","11","20","02:00","5.7","","2.2","","78","","23","","19","","24.1","","99.55","","","","","","NA"
"2016-11-20 03:00","2016","11","20","03:00","5.3","","2.0","","79","","24","","22","","24.1","","99.46","","","","","","NA"
"2016-11-20 04:00","2016","11","20","04:00","5.1","","2.1","","81","","24","","20","","24.1","","99.37","","","","","","Cloudy"
"2016-11-20 05:00","2016","11","20","05:00","4.2","","2.7","","90","","24","","17","","8.1","","99.32","","","","","","Drizzle,Fog"
"2016-11-20 06:00","2016","11","20","06:00","3.6","","2.6","","93","","27","","15","","8.1","","99.25","","","","","","Drizzle,Fog"
"2016-11-20 07:00","2016","11","20","07:00","3.1","","1.9","","92","","27","","17","","9.7","","99.14","","","","","","Fog"
"2016-11-20 08:00","2016","11","20","08:00","2.8","","1.5","","91","","27","","13","","12.9","","99.11","","","","","","NA"
"2016-11-20 09:00","2016","11","20","09:00","2.7","","1.5","","92","","28","","12","","12.9","","98.98","","","","","","NA"
"2016-11-20 10:00","2016","11","20","10:00","2.6","","1.7","","94","","26","","10","","16.1","","98.86","","","","","","Rain"
"2016-11-20 11:00","2016","11","20","11:00","2.5","","1.6","","94","","25","","14","","12.9","","98.76","","","","","","Rain"
"2016-11-20 12:00","2016","11","20","12:00","2.6","","1.9","","95","","24","","16","","16.1","","98.69","","","","","","Rain"
"2016-11-20 13:00","2016","11","20","13:00","2.5","","1.6","","94","","26","","26","","16.1","","98.62","","","","","","Rain"
"2016-11-20 14:00","2016","11","20","14:00","2.2","","1.2","","93","","27","","18","","16.1","","98.58","","","","","","Rain"
"2016-11-20 15:00","2016","11","20","15:00","2.1","","1.1","","93","","26","","18","","16.1","","98.59","","","","","","Rain"
"2016-11-20 16:00","2016","11","20","16:00","1.4","","0.5","","94","","26","","21","","16.1","","98.55","","","","","","Rain"
"2016-11-20 17:00","2016","11","20","17:00","0.6","","-0.1","","95","","24","","22","","4.8","","98.53","","","","","","Rain,Snow"
"2016-11-20 18:00","2016","11","20","18:00","0.3","","-0.4","","95","","25","","19","","2.8","","98.54","","","","","","Snow"
"2016-11-20 19:00","2016","11","20","19:00","0.2","","-0.4","","96","","23","","23","","3.2","","98.53","","","","","","Snow"
"2016-11-20 20:00","2016","11","20","20:00","0.3","","-0.4","","95","","25","","22","","6.4","","98.52","","","","","","Snow"
"2016-11-20 21:00","2016","11","20","21:00","0.3","","-0.4","","95","","25","","29","","2.0","","98.51","","","","","","Snow"
"2016-11-20 22:00","2016","11","20","22:00","0.2","","-0.7","","94","","24","","28","","2.8","","98.49","","","","","","Snow"
"2016-11-20 23:00","2016","11","20","23:00","0.0","","-0.9","","94","","25","","29","","2.8","","98.49","","","","-6","","Snow"
"2016-11-21 00:00","2016","11","21","00:00","-0.2","","-1.3","","92","","25","","29","","4.0","","98.49","","","","-7","","Snow"
"2016-11-21 01:00","2016","11","21","01:00","-0.5","","-1.8","","91","","25","","30","","4.0","","98.50","","","","-7","","Snow"
"2016-11-21 02:00","2016","11","21","02:00","-0.8","","-2.2","","90","","25","","29","","6.4","","98.52","","","","-7","","Snow"
"2016-11-21 03:00","2016","11","21","03:00","-0.6","","-2.7","","86","","25","","36","","11.3","","98.54","","","","-8","","Snow"
"2016-11-21 04:00","2016","11","21","04:00","-1.0","","-2.7","","88","","25","","32","","11.3","","98.56","","","","-8","","Snow"
"2016-11-21 05:00","2016","11","21","05:00","-1.7","","-3.0","","91","","25","","36","","2.4","","98.60","","","","-9","","Snow,Blowing Snow"
"2016-11-21 06:00","2016","11","21","06:00","-2.1","","-3.4","","91","","25","","35","","2.0","","98.65","","","","-10","","Snow,Blowing Snow"
"2016-11-21 07:00","2016","11","21","07:00","-2.2","","-3.8","","89","","25","","36","","2.4","","98.71","","","","-10","","Snow,Blowing Snow"
"2016-11-21 08:00","2016","11","21","08:00","-2.1","","-4.0","","87","","25","","34","","4.8","","98.77","","","","-10","","Snow,Blowing Snow"
"2016-11-21 09:00","2016","11","21","09:00","-2.3","","-4.0","","88","","25","","36","","1.6","","98.82","","","","-10","","Snow,Blowing Snow"
"2016-11-21 10:00","2016","11","21","10:00","-2.2","","-3.9","","88","","24","","33","","2.4","","98.90","","","","-10","","Snow,Blowing Snow"
"2016-11-21 11:00","2016","11","21","11:00","-2.0","","-4.0","","86","","25","","35","","8.1","","98.90","","","","-10","","Snow,Blowing Snow"
"2016-11-21 12:00","2016","11","21","12:00","-1.7","","-3.4","","88","","26","","32","","2.0","","98.93","","","","-9","","Snow,Blowing Snow"
"2016-11-21 13:00","2016","11","21","13:00","-1.5","","-3.7","","85","","25","","31","","16.1","","98.98","","","","-9","","Snow"
"2016-11-21 14:00","2016","11","21","14:00","-1.8","","-3.7","","87","","25","","34","","8.1","","99.07","","","","-9","","Snow,Blowing Snow"
"2016-11-21 15:00","2016","11","21","15:00","-1.3","","-3.5","","85","","25","","29","","9.7","","99.18","","","","-8","","Snow,Blowing Snow"
"2016-11-21 16:00","2016","11","21","16:00","-1.4","","-3.3","","87","","26","","28","","12.9","","99.28","","","","-8","","Snow,Blowing Snow"
"2016-11-21 17:00","2016","11","21","17:00","-1.6","","-3.5","","87","","25","","25","","19.3","","99.38","","","","-8","","Snow"
"2016-11-21 18:00","2016","11","21","18:00","-1.2","","-3.7","","83","","26","","34","","24.1","","99.45","","","","-8","","Snow"
"2016-11-21 19:00","2016","11","21","19:00","-1.2","","-4.2","","80","","26","","30","","24.1","","99.51","","","","-8","","Cloudy"
"2016-11-21 20:00","2016","11","21","20:00","-1.4","","-4.3","","81","","26","","28","","24.1","","99.58","","","","-8","","NA"
"2016-11-21 21:00","2016","11","21","21:00","-1.8","","-4.2","","84","","24","","27","","24.1","","99.64","","","","-8","","Snow"
"2016-11-21 22:00","2016","11","21","22:00","-1.8","","-4.2","","84","","26","","26","","6.4","","99.68","","","","-8","","Snow,Blowing Snow"
"2016-11-21 23:00","2016","11","21","23:00","-1.7","","-4.7","","80","","26","","31","","9.7","","99.76","","","","-9","","Snow,Blowing Snow"
"2016-11-22 00:00","2016","11","22","00:00","-1.7","","-4.5","","81","","26","","28","","8.1","","99.82","","","","-8","","Snow,Blowing Snow"
"2016-11-22 01:00","2016","11","22","01:00","-1.6","","-4.6","","80","","26","","28","","9.7","","99.90","","","","-8","","Snow,Blowing Snow"
"2016-11-22 02:00","2016","11","22","02:00","-1.5","","-5.4","","75","","28","","30","","24.1","","99.99","","","","-8","","Snow,Blowing Snow"
"2016-11-22 03:00","2016","11","22","03:00","-1.7","","-5.6","","75","","27","","39","","24.1","","100.04","","","","-10","","Snow,Blowing Snow"
"2016-11-22 04:00","2016","11","22","04:00","-1.7","","-5.6","","75","","27","","25","","24.1","","100.16","","","","-8","","Snow,Blowing Snow"
"2016-11-22 05:00","2016","11","22","05:00","-1.8","","-5.8","","74","","26","","33","","24.1","","100.27","","","","-9","","Blowing Snow"
"2016-11-22 06:00","2016","11","22","06:00","-1.7","","-5.7","","74","","27","","30","","24.1","","100.40","","","","-9","","Blowing Snow"
"2016-11-22 07:00","2016","11","22","07:00","-1.8","","-6.0","","73","","27","","35","","24.1","","100.51","","","","-9","","Blowing Snow"
"2016-11-22 08:00","2016","11","22","08:00","-1.7","","-6.1","","72","","26","","30","","24.1","","100.60","","","","-9","","NA"
"2016-11-22 09:00","2016","11","22","09:00","-1.6","","-6.2","","71","","27","","26","","24.1","","100.69","","","","-8","","NA"
"2016-11-22 10:00","2016","11","22","10:00","-1.3","","-6.1","","70","","27","","23","","24.1","","100.78","","","","-7","","Cloudy"
"2016-11-22 11:00","2016","11","22","11:00","-0.8","","-6.2","","67","","28","","28","","24.1","","100.82","","","","-7","","NA"
"2016-11-22 12:00","2016","11","22","12:00","-0.8","","-6.0","","68","","26","","34","","24.1","","100.88","","","","-8","","NA"
"2016-11-22 13:00","2016","11","22","13:00","-0.8","","-6.0","","68","","28","","38","","24.1","","100.91","","","","-8","","Cloudy"
"2016-11-22 14:00","2016","11","22","14:00","-0.7","","-5.9","","68","","28","","41","","24.1","","101.00","","","","-8","","NA"
"2016-11-22 15:00","2016","11","22","15:00","-0.3","","-5.3","","69","","28","","28","","24.1","","101.11","","","","-7","","NA"
"2016-11-22 16:00","2016","11","22","16:00","-0.3","","-5.1","","70","","29","","26","","24.1","","101.20","","","","-6","","Cloudy"
"2016-11-22 17:00","2016","11","22","17:00","-0.3","","-4.9","","71","","27","","23","","24.1","","101.30","","","","-6","","Snow"
"2016-11-22 18:00","2016","11","22","18:00","-0.3","","-5.7","","67","","28","","28","","24.1","","101.38","","","","-7","","NA"
"2016-11-22 19:00","2016","11","22","19:00","-0.3","","-5.9","","66","","28","","28","","24.1","","101.45","","","","-7","","Snow"
"2016-11-22 20:00","2016","11","22","20:00","-0.1","","-5.9","","65","","29","","30","","24.1","","101.49","","","","-7","","Snow"
"2016-11-22 21:00","2016","11","22","21:00","-0.2","","-5.4","","68","","29","","29","","24.1","","101.54","","","","-7","","Snow"
"2016-11-22 22:00","2016","11","22","22:00","-0.3","","-4.8","","72","","29","","26","","24.1","","101.56","","","","-6","","Cloudy"
"2016-11-22 23:00","2016","11","22","23:00","-0.7","","-4.6","","75","","28","","18","","24.1","","101.60","","","","-6","","NA"
"2016-11-23 00:00","2016","11","23","00:00","-1.1","","-4.1","","80","","27","","25","","24.1","","101.63","","","","-7","","NA"
"2016-11-23 01:00","2016","11","23","01:00","-1.2","","-4.6","","78","","27","","21","","24.1","","101.66","","","","-7","","Mostly Cloudy"
"2016-11-23 02:00","2016","11","23","02:00","-1.2","","-4.9","","76","","27","","18","","24.1","","101.71","","","","-6","","NA"
"2016-11-23 03:00","2016","11","23","03:00","-0.9","","-4.3","","78","","26","","19","","24.1","","101.76","","","","-6","","NA"
"2016-11-23 04:00","2016","11","23","04:00","-1.0","","-4.4","","78","","27","","21","","24.1","","101.81","","","","-7","","Cloudy"
"2016-11-23 05:00","2016","11","23","05:00","-1.4","","-4.6","","79","","25","","20","","24.1","","101.87","","","","-7","","NA"
"2016-11-23 06:00","2016","11","23","06:00","-1.6","","-4.6","","80","","26","","20","","24.1","","101.92","","","","-7","","NA"
"2016-11-23 07:00","2016","11","23","07:00","-3.4","","-5.7","","84","","24","","18","","24.1","","101.96","","","","-9","","Mainly Clear"
"2016-11-23 08:00","2016","11","23","08:00","-3.5","","-6.0","","83","","24","","21","","24.1","","102.05","","","","-10","","NA"
"2016-11-23 09:00","2016","11","23","09:00","-3.0","","-6.0","","80","","24","","21","","24.1","","102.10","","","","-9","","NA"
"2016-11-23 10:00","2016","11","23","10:00","-2.1","","-5.4","","78","","23","","22","","24.1","","102.13","","","","-8","","Mainly Clear"
"2016-11-23 11:00","2016","11","23","11:00","-1.6","","-5.3","","76","","24","","25","","24.1","","102.12","","","","-8","","NA"
"2016-11-23 12:00","2016","11","23","12:00","-0.7","","-4.6","","75","","23","","23","","24.1","","102.09","","","","-7","","NA"
"2016-11-23 13:00","2016","11","23","13:00","-0.4","","-4.1","","76","","23","","21","","24.1","","102.10","","","","-6","","Mostly Cloudy"
"2016-11-23 14:00","2016","11","23","14:00","-0.3","","-4.2","","75","","24","","23","","24.1","","102.12","","","","-6","","NA"
"2016-11-23 15:00","2016","11","23","15:00","-0.6","","-4.5","","75","","24","","25","","24.1","","102.13","","","","-7","","NA"
"2016-11-23 16:00","2016","11","23","16:00","-1.2","","-4.6","","78","","23","","19","","24.1","","102.15","","","","-7","","Mainly Clear"
"2016-11-23 17:00","2016","11","23","17:00","-2.3","","-5.1","","81","","25","","18","","24.1","","102.20","","","","-8","","NA"
"2016-11-23 18:00","2016","11","23","18:00","-2.0","","-4.8","","81","","25","","21","","24.1","","102.27","","","","-8","","NA"
"2016-11-23 19:00","2016","11","23","19:00","-1.8","","-5.0","","79","","27","","17","","24.1","","102.28","","","","-7","","Cloudy"
"2016-11-23 20:00","2016","11","23","20:00","-1.6","","-4.6","","80","","22","","10","","24.1","","102.30","","","","-5","","NA"
"2016-11-23 21:00","2016","11","23","21:00","-1.9","","-4.7","","81","","23","","12","","24.1","","102.30","","","","-6","","NA"
"2016-11-23 22:00","2016","11","23","22:00","-2.0","","-4.8","","81","","22","","5","","24.1","","102.30","","","","-4","","Cloudy"
"2016-11-23 23:00","2016","11","23","23:00","-1.9","","-4.7","","81","","24","","4","","24.1","","102.34","","","","-3","","NA"
"2016-11-24 00:00","2016","11","24","00:00","-1.8","","-4.6","","81","","36","","2","","24.1","","102.33","","","","-3","","NA"
"2016-11-24 01:00","2016","11","24","01:00","-1.6","","-4.1","","83","","5","","4","","24.1","","102.30","","","","-3","","Cloudy"
"2016-11-24 02:00","2016","11","24","02:00","-1.5","","-3.9","","84","","2","","4","","24.1","","102.29","","","","-3","","NA"
"2016-11-24 03:00","2016","11","24","03:00","-1.5","","-3.7","","85","","10","","10","","24.1","","102.26","","","","-5","","NA"
"2016-11-24 04:00","2016","11","24","04:00","-1.3","","-3.7","","84","","10","","8","","24.1","","102.24","","","","-4","","Cloudy"
"2016-11-24 05:00","2016","11","24","05:00","-1.4","","-4.1","","82","","9","","11","","24.1","","102.26","","","","-5","","NA"
"2016-11-24 06:00","2016","11","24","06:00","-1.1","","-4.0","","81","","8","","12","","24.1","","102.26","","","","-5","","NA"
"2016-11-24 07:00","2016","11","24","07:00","-0.7","","-4.2","","77","","8","","16","","24.1","","102.25","","","","-5","","Cloudy"
"2016-11-24 08:00","2016","11","24","08:00","-0.6","","-4.5","","75","","8","","21","","24.1","","102.25","","","","-6","","NA"
"2016-11-24 09:00","2016","11","24","09:00","-0.4","","-4.1","","76","","8","","20","","24.1","","102.20","","","","-6","","NA"
"2016-11-24 10:00","2016","11","24","10:00","-0.3","","-4.0","","76","","8","","17","","19.3","","102.18","","","","-5","","Cloudy"
"2016-11-24 11:00","2016","11","24","11:00","-0.6","","-3.0","","84","","8","","14","","2.0","","102.12","","","","-5","","Snow"
"2016-11-24 12:00","2016","11","24","12:00","-0.8","","-2.2","","90","","7","","16","","1.2","","102.04","","","","-6","","Snow"
"2016-11-24 13:00","2016","11","24","13:00","-0.6","","-1.9","","91","","5","","18","","1.2","","101.98","","","","-6","","Snow"
"2016-11-24 14:00","2016","11","24","14:00","-0.4","","-1.8","","90","","5","","17","","3.2","","101.97","","","","-5","","Snow"
"2016-11-24 15:00","2016","11","24","15:00","-0.4","","-1.8","","90","","4","","21","","4.0","","101.97","","","","-6","","Snow"
"2016-11-24 16:00","2016","11","24","16:00","-0.2","","-1.6","","90","","4","","21","","12.9","","101.96","","","","-6","","Cloudy"
"2016-11-24 17:00","2016","11","24","17:00","0.0","","-1.4","","90","","5","","18","","24.1","","101.98","","","","-5","","NA"
"2016-11-24 18:00","2016","11","24","18:00","0.2","","-1.1","","91","","4","","21","","24.1","","102.00","","","","","","NA"
"2016-11-24 19:00","2016","11","24","19:00","0.2","","-1.1","","91","","4","","17","","6.4","","102.00","","","","","","Snow"
"2016-11-24 20:00","2016","11","24","20:00","0.2","","-0.8","","93","","4","","16","","3.6","","102.01","","","","","","Snow"
"2016-11-24 21:00","2016","11","24","21:00","0.2","","-0.7","","94","","4","","15","","4.8","","102.00","","","","","","Snow"
"2016-11-24 22:00","2016","11","24","22:00","0.4","","-0.6","","93","","4","","15","","8.1","","101.97","","","","","","Snow,Fog"
"2016-11-24 23:00","2016","11","24","23:00","0.4","","-0.6","","93","","4","","13","","8.1","","102.01","","","","","","Fog"
"2016-11-25 00:00","2016","11","25","00:00","0.6","","-0.4","","93","","4","","16","","8.1","","101.97","","","","","","Fog"
"2016-11-25 01:00","2016","11","25","01:00","0.6","","-0.3","","94","","5","","13","","8.1","","101.96","","","","","","Fog"
"2016-11-25 02:00","2016","11","25","02:00","0.5","","-0.2","","95","","4","","13","","4.8","","101.96","","","","","","Fog"
"2016-11-25 03:00","2016","11","25","03:00","0.5","","-0.1","","96","","2","","10","","4.0","","102.01","","","","","","Fog"
"2016-11-25 04:00","2016","11","25","04:00","0.3","","-0.3","","96","","2","","13","","2.0","","101.96","","","","","","Fog"
"2016-11-25 05:00","2016","11","25","05:00","0.2","","-0.2","","97","","3","","15","","2.0","","101.92","","","","","","Fog"
"2016-11-25 06:00","2016","11","25","06:00","0.3","","-0.1","","97","","2","","13","","1.6","","101.95","","","","","","Fog"
"2016-11-25 07:00","2016","11","25","07:00","0.3","","-0.1","","97","","2","","15","","1.2","","101.96","","","","","","Fog"
"2016-11-25 08:00","2016","11","25","08:00","0.4","","0.0","","97","","3","","14","","0.8","","101.96","","","","","","Fog"
"2016-11-25 09:00","2016","11","25","09:00","0.2","","-0.2","","97","","2","","17","","0.6","","101.93","","","","","","Snow,Fog"
"2016-11-25 10:00","2016","11","25","10:00","0.2","","-0.2","","97","","3","","14","","0.6","","101.90","","","","","","Snow,Fog"
"2016-11-25 11:00","2016","11","25","11:00","0.3","","-0.1","","97","","2","","16","","0.8","","101.79","","","","","","Snow,Fog"
"2016-11-25 12:00","2016","11","25","12:00","0.3","","-0.1","","97","","2","","15","","1.2","","101.75","","","","","","Snow,Fog"
"2016-11-25 13:00","2016","11","25","13:00","0.3","","-0.1","","97","","2","","12","","2.4","","101.68","","","","","","Snow,Fog"
"2016-11-25 14:00","2016","11","25","14:00","0.4","","0.0","","97","","35","","11","","6.4","","101.67","","","","","","Drizzle,Snow,Fog"
"2016-11-25 15:00","2016","11","25","15:00","0.5","","-0.2","","95","","1","","8","","6.4","","101.67","","","","","","Snow,Fog"
"2016-11-25 16:00","2016","11","25","16:00","0.5","","-0.4","","94","","2","","9","","9.7","","101.67","","","","","","Snow,Fog"
"2016-11-25 17:00","2016","11","25","17:00","0.7","","-0.2","","94","","1","","7","","16.1","","101.69","","","","","","Drizzle"
"2016-11-25 18:00","2016","11","25","18:00","0.8","","-0.1","","94","","36","","5","","16.1","","101.71","","","","","","NA"
"2016-11-25 19:00","2016","11","25","19:00","0.8","","0.1","","95","","35","","5","","12.9","","101.71","","","","","","Drizzle"
"2016-11-25 20:00","2016","11","25","20:00","0.7","","0.1","","96","","4","","3","","12.9","","101.66","","","","","","Drizzle"
"2016-11-25 21:00","2016","11","25","21:00","1.0","","0.4","","96","","36","","1","","12.9","","101.66","","","","","","Drizzle"
"2016-11-25 22:00","2016","11","25","22:00","1.1","","0.5","","96","","36","","1","","6.4","","101.64","","","","","","Fog"
"2016-11-25 23:00","2016","11","25","23:00","1.1","","0.5","","96","","36","","1","","4.8","","101.61","","","","","","Fog"
"2016-11-26 00:00","2016","11","26","00:00","1.2","","0.8","","97","","30","","4","","1.0","","101.59","","","","","","Fog"
"2016-11-26 01:00","2016","11","26","01:00","1.3","","0.9","","97","","13","","3","","0.8","","101.55","","","","","","Fog"
"2016-11-26 02:00","2016","11","26","02:00","1.2","","0.8","","97","","36","","3","","0.6","","101.57","","","","","","Fog"
"2016-11-26 03:00","2016","11","26","03:00","1.1","","0.7","","97","","36","","2","","2.4","","101.53","","","","","","Fog"
"2016-11-26 04:00","2016","11","26","04:00","1.4","","1.0","","97","","36","","2","","1.2","","101.51","","","","","","Fog"
"2016-11-26 05:00","2016","11","26","05:00","1.2","","0.8","","97","","24","","7","","2.8","","101.52","","","","","","Fog"
"2016-11-26 06:00","2016","11","26","06:00","1.3","","1.0","","98","","36","","2","","6.4","","101.52","","","","","","Fog"
"2016-11-26 07:00","2016","11","26","07:00","1.4","","1.0","","97","","36","","2","","6.4","","101.50","","","","","","Fog"
"2016-11-26 08:00","2016","11","26","08:00","1.4","","1.0","","97","","36","","3","","6.4","","101.50","","","","","","Rain,Fog"
"2016-11-26 09:00","2016","11","26","09:00","1.6","","1.2","","97","","29","","3","","2.4","","101.50","","","","","","Rain,Fog"
"2016-11-26 10:00","2016","11","26","10:00","1.9","","1.5","","97","","26","","5","","4.0","","101.49","","","","","","Rain,Fog"
"2016-11-26 11:00","2016","11","26","11:00","1.8","","1.2","","96","","26","","10","","12.9","","101.47","","","","","","Rain"
"2016-11-26 12:00","2016","11","26","12:00","2.0","","1.1","","94","","27","","10","","16.1","","101.42","","","","","","Rain"
"2016-11-26 13:00","2016","11","26","13:00","2.2","","1.2","","93","","26","","13","","19.3","","101.39","","","","","","Cloudy"
"2016-11-26 14:00","2016","11","26","14:00","2.2","","1.0","","92","","25","","13","","19.3","","101.37","","","","","","NA"
"2016-11-26 15:00","2016","11","26","15:00","2.3","","0.5","","88","","25","","13","","19.3","","101.42","","","","","","NA"
"2016-11-26 16:00","2016","11","26","16:00","2.1","","-0.7","","82","","25","","17","","24.1","","101.46","","","","","","Cloudy"
"2016-11-26 17:00","2016","11","26","17:00","1.7","","-0.9","","83","","24","","13","","24.1","","101.48","","","","","","NA"
"2016-11-26 18:00","2016","11","26","18:00","1.6","","-0.5","","86","","25","","13","","24.1","","101.48","","","","","","NA"
"2016-11-26 19:00","2016","11","26","19:00","1.3","","-0.9","","85","","25","","16","","24.1","","101.46","","","","","","Mostly Cloudy"
"2016-11-26 20:00","2016","11","26","20:00","0.8","","-1.1","","87","","26","","10","","24.1","","101.46","","","","","","NA"
"2016-11-26 21:00","2016","11","26","21:00","0.5","","-1.0","","90","","25","","12","","24.1","","101.46","","","","","","NA"
"2016-11-26 22:00","2016","11","26","22:00","0.9","","-0.9","","88","","26","","12","","24.1","","101.42","","","","","","Mostly Cloudy"
"2016-11-26 23:00","2016","11","26","23:00","0.7","","-1.2","","87","","26","","12","","24.1","","101.42","","","","","","NA"
"2016-11-27 00:00","2016","11","27","00:00","-0.4","","-1.5","","92","","24","","9","","24.1","","101.43","","","","-4","","NA"
"2016-11-27 01:00","2016","11","27","01:00","0.2","","-1.4","","89","","27","","9","","24.1","","101.40","","","","","","Mostly Cloudy"
"2016-11-27 02:00","2016","11","27","02:00","0.4","","-1.4","","88","","27","","12","","24.1","","101.41","","","","","","NA"
"2016-11-27 03:00","2016","11","27","03:00","0.4","","-1.5","","87","","27","","10","","24.1","","101.39","","","","","","NA"
"2016-11-27 04:00","2016","11","27","04:00","0.5","","-2.1","","83","","28","","12","","24.1","","101.39","","","","","","Cloudy"
"2016-11-27 05:00","2016","11","27","05:00","0.2","","-1.9","","86","","27","","8","","24.1","","101.41","","","","","","NA"
"2016-11-27 06:00","2016","11","27","06:00","0.0","","-2.1","","86","","28","","7","","24.1","","101.40","","","","-2","","NA"
"2016-11-27 07:00","2016","11","27","07:00","-0.2","","-1.6","","90","","27","","7","","24.1","","101.42","","","","-3","","Mostly Cloudy"
"2016-11-27 08:00","2016","11","27","08:00","0.4","","-1.4","","88","","29","","10","","24.1","","101.45","","","","","","NA"
"2016-11-27 09:00","2016","11","27","09:00","0.7","","-1.7","","84","","30","","9","","24.1","","101.43","","","","","","NA"
"2016-11-27 10:00","2016","11","27","10:00","1.3","","-1.6","","81","","27","","14","","24.1","","101.44","","","","","","Mostly Cloudy"
"2016-11-27 11:00","2016","11","27","11:00","1.5","","-1.9","","78","","25","","13","","24.1","","101.40","","","","","","NA"
"2016-11-27 12:00","2016","11","27","12:00","1.5","","-2.3","","76","","27","","15","","24.1","","101.34","","","","","","NA"
"2016-11-27 13:00","2016","11","27","13:00","1.6","","-2.2","","76","","27","","13","","24.1","","101.32","","","","","","Mostly Cloudy"
"2016-11-27 14:00","2016","11","27","14:00","1.8","","-2.0","","76","","23","","16","","24.1","","101.34","","","","","","NA"
"2016-11-27 15:00","2016","11","27","15:00","1.3","","-2.3","","77","","27","","15","","24.1","","101.36","","","","","","NA"
"2016-11-27 16:00","2016","11","27","16:00","1.1","","-2.7","","76","","27","","15","","24.1","","101.39","","","","","","Cloudy"
"2016-11-27 17:00","2016","11","27","17:00","1.0","","-2.9","","75","","28","","12","","24.1","","101.41","","","","","","NA"
"2016-11-27 18:00","2016","11","27","18:00","0.9","","-3.8","","71","","27","","17","","24.1","","101.46","","","","","","NA"
"2016-11-27 19:00","2016","11","27","19:00","0.6","","-3.9","","72","","28","","16","","24.1","","101.47","","","","","","Mostly Cloudy"
"2016-11-27 20:00","2016","11","27","20:00","0.2","","-4.3","","72","","28","","16","","24.1","","101.48","","","","","","NA"
"2016-11-27 21:00","2016","11","27","21:00","0.1","","-4.7","","70","","28","","17","","24.1","","101.50","","","","","","NA"
"2016-11-27 22:00","2016","11","27","22:00","-0.1","","-5.1","","69","","28","","18","","24.1","","101.51","","","","-5","","Cloudy"
"2016-11-27 23:00","2016","11","27","23:00","-0.1","","-5.3","","68","","29","","13","","24.1","","101.55","","","","-4","","NA"
"2016-11-28 00:00","2016","11","28","00:00","-0.2","","-5.6","","67","","29","","14","","24.1","","101.55","","","","-4","","NA"
"2016-11-28 01:00","2016","11","28","01:00","-0.4","","-5.6","","68","","30","","9","","24.1","","101.57","","","","-4","","Cloudy"
"2016-11-28 02:00","2016","11","28","02:00","-0.7","","-5.9","","68","","27","","10","","24.1","","101.58","","","","-4","","NA"
"2016-11-28 03:00","2016","11","28","03:00","-1.0","","-6.0","","69","","29","","10","","24.1","","101.56","","","","-5","","NA"
"2016-11-28 04:00","2016","11","28","04:00","-1.0","","-6.0","","69","","27","","12","","24.1","","101.61","","","","-5","","Cloudy"
"2016-11-28 05:00","2016","11","28","05:00","-1.0","","-6.4","","67","","31","","7","","24.1","","101.65","","","","-4","","NA"
"2016-11-28 06:00","2016","11","28","06:00","-1.0","","-5.8","","70","","28","","10","","24.1","","101.73","","","","-5","","NA"
"2016-11-28 07:00","2016","11","28","07:00","-1.5","","-5.0","","77","","26","","13","","48.3","","101.73","","","","-6","","Mostly Cloudy"
"2016-11-28 08:00","2016","11","28","08:00","-1.4","","-5.3","","75","","26","","15","","48.3","","101.79","","","","-6","","NA"
"2016-11-28 09:00","2016","11","28","09:00","-1.5","","-5.7","","73","","28","","12","","48.3","","101.82","","","","-6","","NA"
"2016-11-28 10:00","2016","11","28","10:00","-1.4","","-5.6","","73","","36","","2","","24.1","","101.87","","","","-2","","Cloudy"
"2016-11-28 11:00","2016","11","28","11:00","-1.4","","-5.5","","74","","24","","12","","24.1","","101.83","","","","-5","","NA"
"2016-11-28 12:00","2016","11","28","12:00","-1.1","","-5.7","","71","","24","","12","","24.1","","101.80","","","","-5","","NA"
"2016-11-28 13:00","2016","11","28","13:00","-0.9","","-5.9","","69","","30","","10","","24.1","","101.77","","","","-4","","Mostly Cloudy"
"2016-11-28 14:00","2016","11","28","14:00","-0.8","","-6.0","","68","","36","","3","","24.1","","101.72","","","","-2","","NA"
"2016-11-28 15:00","2016","11","28","15:00","-0.7","","-5.9","","68","","8","","10","","24.1","","101.67","","","","-4","","NA"
"2016-11-28 16:00","2016","11","28","16:00","-1.0","","-6.0","","69","","9","","6","","24.1","","101.74","","","","-3","","Mostly Cloudy"
"2016-11-28 17:00","2016","11","28","17:00","-1.7","","-5.7","","74","","9","","9","","24.1","","101.76","","","","-5","","NA"
"2016-11-28 18:00","2016","11","28","18:00","-1.7","","-5.2","","77","","9","","9","","24.1","","101.79","","","","-5","","NA"
"2016-11-28 19:00","2016","11","28","19:00","-1.8","","-5.3","","77","","6","","14","","24.1","","101.75","","","","-6","","Mostly Cloudy"
"2016-11-28 20:00","2016","11","28","20:00","-2.3","","-5.1","","81","","6","","12","","24.1","","101.75","","","","-7","","NA"
"2016-11-28 21:00","2016","11","28","21:00","-2.2","","-5.2","","80","","6","","16","","24.1","","101.75","","","","-7","","NA"
"2016-11-28 22:00","2016","11","28","22:00","-2.3","","-5.1","","81","","5","","18","","24.1","","101.66","","","","-8","","Clear"
"2016-11-28 23:00","2016","11","28","23:00","-2.2","","-4.9","","82","","5","","16","","24.1","","101.69","","","","-7","","NA"
"2016-11-29 00:00","2016","11","29","00:00","-1.6","","-4.6","","80","","5","","18","","24.1","","101.55","","","","-7","","NA"
"2016-11-29 01:00","2016","11","29","01:00","-1.6","","-4.4","","81","","4","","21","","24.1","","101.53","","","","-7","","Cloudy"
"2016-11-29 02:00","2016","11","29","02:00","-1.5","","-4.3","","81","","4","","22","","24.1","","101.56","","","","-7","","NA"
"2016-11-29 03:00","2016","11","29","03:00","-1.5","","-4.3","","81","","4","","22","","24.1","","101.48","","","","-7","","NA"
"2016-11-29 04:00","2016","11","29","04:00","-1.6","","-4.4","","81","","4","","21","","24.1","","101.38","","","","-7","","Cloudy"
"2016-11-29 05:00","2016","11","29","05:00","-1.5","","-4.3","","81","","4","","21","","24.1","","101.31","","","","-7","","NA"
"2016-11-29 06:00","2016","11","29","06:00","-1.3","","-4.2","","81","","4","","21","","24.1","","101.22","","","","-7","","NA"
"2016-11-29 07:00","2016","11","29","07:00","-0.9","","-3.9","","80","","4","","23","","24.1","","101.19","","","","-7","","Cloudy"
"2016-11-29 08:00","2016","11","29","08:00","-0.6","","-2.5","","87","","4","","26","","12.9","","101.09","","","","-7","","Freezing Rain"
"2016-11-29 09:00","2016","11","29","09:00","-0.3","","-1.6","","91","","4","","21","","4.0","","100.94","","","","-6","","Moderate Freezing Rain,Fog"
"2016-11-29 10:00","2016","11","29","10:00","0.3","","-0.6","","94","","5","","17","","3.2","","100.87","","","","","","Rain,Fog"
"2016-11-29 11:00","2016","11","29","11:00","2.0","","1.3","","95","","6","","16","","4.0","","100.78","","","","","","Rain,Fog"
"2016-11-29 12:00","2016","11","29","12:00","1.0","","0.4","","96","","3","","14","","4.8","","100.73","","","","","","Rain,Fog"
"2016-11-29 13:00","2016","11","29","13:00","1.5","","0.9","","96","","2","","15","","8.1","","100.63","","","","","","Rain,Fog"
"2016-11-29 14:00","2016","11","29","14:00","1.7","","1.1","","96","","2","","16","","2.4","","100.67","","","","","","Drizzle,Fog"
"2016-11-29 15:00","2016","11","29","15:00","2.0","","1.4","","96","","3","","16","","4.8","","100.63","","","","","","Drizzle,Fog"
"2016-11-29 16:00","2016","11","29","16:00","1.9","","1.3","","96","","2","","16","","4.0","","100.60","","","","","","Fog"
"2016-11-29 17:00","2016","11","29","17:00","1.7","","1.1","","96","","2","","16","","4.8","","100.65","","","","","","Drizzle,Fog"
"2016-11-29 18:00","2016","11","29","18:00","1.1","","0.5","","96","","1","","18","","6.4","","100.67","","","","","","Fog"
"2016-11-29 19:00","2016","11","29","19:00","1.4","","0.8","","96","","3","","23","","6.4","","100.59","","","","","","Fog"
"2016-11-29 20:00","2016","11","29","20:00","1.5","","0.9","","96","","1","","21","","4.0","","100.63","","","","","","Fog"
"2016-11-29 21:00","2016","11","29","21:00","1.4","","1.0","","97","","2","","16","","2.0","","100.63","","","","","","Fog"
"2016-11-29 22:00","2016","11","29","22:00","1.5","","1.1","","97","","1","","18","","1.6","","100.65","","","","","","Fog"
"2016-11-29 23:00","2016","11","29","23:00","1.4","","1.0","","97","","2","","18","","1.2","","100.69","","","","","","Fog"
"2016-11-30 00:00","2016","11","30","00:00","1.3","","0.9","","97","","2","","20","","1.0","","100.72","","","","","","Fog"
"2016-11-30 01:00","2016","11","30","01:00","1.3","","0.9","","97","","2","","15","","3.2","","100.73","","","","","","Drizzle,Fog"
"2016-11-30 02:00","2016","11","30","02:00","1.4","","1.0","","97","","3","","8","","1.6","","100.81","","","","","","Fog"
"2016-11-30 03:00","2016","11","30","03:00","1.4","","1.0","","97","","36","","13","","2.0","","100.84","","","","","","Fog"
"2016-11-30 04:00","2016","11","30","04:00","1.3","","0.9","","97","","3","","10","","1.2","","100.88","","","","","","Drizzle,Fog"
"2016-11-30 05:00","2016","11","30","05:00","1.4","","1.0","","97","","2","","9","","1.2","","100.94","","","","","","Drizzle,Fog"
"2016-11-30 06:00","2016","11","30","06:00","1.5","","1.1","","97","","2","","13","","1.2","","100.96","","","","","","Drizzle,Fog"
"2016-11-30 07:00","2016","11","30","07:00","1.5","","1.1","","97","","2","","18","","1.0","","100.97","","","","","","Drizzle,Fog"
"2016-11-30 08:00","2016","11","30","08:00","1.6","","1.2","","97","","3","","18","","1.0","","101.02","","","","","","Drizzle,Fog"
"2016-11-30 09:00","2016","11","30","09:00","2.1","","1.8","","98","","5","","16","","1.6","","100.99","","","","","","Fog"
"2016-11-30 10:00","2016","11","30","10:00","2.4","","2.0","","97","","6","","15","","4.8","","101.00","","","","","","Fog"
"2016-11-30 11:00","2016","11","30","11:00","2.9","","2.3","","96","","4","","18","","4.8","","100.90","","","","","","Fog"
"2016-11-30 12:00","2016","11","30","12:00","3.0","","2.4","","96","","3","","21","","4.8","","100.79","","","","","","Fog"
"2016-11-30 13:00","2016","11","30","13:00","3.2","","2.6","","96","","3","","27","","6.4","","100.72","","","","","","Fog"
"2016-11-30 14:00","2016","11","30","14:00","3.5","","2.9","","96","","4","","22","","6.4","","100.65","","","","","","Fog"
"2016-11-30 15:00","2016","11","30","15:00","3.7","","3.3","","97","","4","","25","","3.2","","100.64","","","","","","Fog"
"2016-11-30 16:00","2016","11","30","16:00","3.7","","3.3","","97","","4","","31","","3.2","","100.46","","","","","","Fog"
"2016-11-30 17:00","2016","11","30","17:00","4.2","","3.8","","97","","3","","31","","6.4","","100.40","","","","","","Fog"
"2016-11-30 18:00","2016","11","30","18:00","4.8","","4.2","","96","","4","","27","","12.9","","100.33","","","","","","Rain"
"2016-11-30 19:00","2016","11","30","19:00","5.0","","4.3","","95","","3","","22","","11.3","","100.30","","","","","","Rain"
"2016-11-30 20:00","2016","11","30","20:00","5.7","","5.0","","95","","4","","21","","11.3","","100.13","","","","","","Rain"
"2016-11-30 21:00","2016","11","30","21:00","7.7","","6.8","","94","","10","","19","","24.1","","99.99","","","","","","Rain"
"2016-11-30 22:00","2016","11","30","22:00","8.1","","6.4","","89","","10","","22","","19.3","","99.83","","","","","","Rain"
"2016-11-30 23:00","2016","11","30","23:00","7.5","","6.1","","91","","9","","26","","24.1","","99.71","","","","","","NA"
