"Station Name","MONTREAL INTL A"
"Province","QUEBEC"
"Latitude","45.47"
"Longitude","-73.74"
"Elevation","36.00"
"Climate Identifier","7025251"
"WMO Identifier","71627"
"TC Identifier","YUL"
"All times are specified in Local Standard Time (LST). Add 1 hour to adjust for Daylight Saving Time where and when it is observed."

"Legend"
"E","Estimated"
"M","Missing"
"NA","Not Available"

"Date/Time","Year","Month","Day","Time","Temp (°C)","Temp Flag","Dew Point Temp (°C)","Dew Point Temp Flag","Rel Hum (%)","Rel Hum Flag","Wind Dir (10s deg)","Wind Dir Flag","Wind Spd (km/h)","Wind Spd Flag","Visibility (km)","Visibility Flag","Stn Press (kPa)","Stn Press Flag","Hmdx","Hmdx Flag","Wind Chill","Wind Chill Flag","Weather"
"2014-12-01 00:00","2014","12","01","00:00","5.6","","4.6","","93","","14","","7","","12.9","","100.48","","","","","","NA"
"2014-12-01 01:00","2014","12","01","01:00","5.8","","4.6","","92","","13","","9","","9.7","","100.49","","","","","","Fog"
"2014-12-01 02:00","2014","12","01","02:00","5.5","","4.9","","96","","33","","3","","2.8","","100.59","","","","","","Drizzle,Fog"
"2014-12-01 03:00","2014","12","01","03:00","5.5","","5.2","","98","","28","","7","","4.8","","100.62","","","","","","Drizzle,Fog"
"2014-12-01 04:00","2014","12","01","04:00","6.2","","5.8","","97","","28","","15","","8.1","","100.70","","","","","","Drizzle,Fog"
"2014-12-01 05:00","2014","12","01","05:00","5.4","","4.1","","91","","28","","11","","16.1","","100.84","","","","","","NA"
"2014-12-01 06:00","2014","12","01","06:00","3.8","","1.4","","84","","29","","18","","24.1","","101.07","","","","","","NA"
"2014-12-01 07:00","2014","12","01","07:00","2.9","","0.1","","82","","28","","18","","24.1","","101.25","","","","","","Mostly Cloudy"
"2014-12-01 08:00","2014","12","01","08:00","1.8","","-2.5","","73","","28","","17","","24.1","","101.42","","","","","","NA"
"2014-12-01 09:00","2014","12","01","09:00","0.9","","-4.4","","68","","29","","19","","24.1","","101.54","","","","","","NA"
"2014-12-01 10:00","2014","12","01","10:00","0.4","","-5.6","","64","","28","","21","","24.1","","101.67","","","","","","Mostly Cloudy"
"2014-12-01 11:00","2014","12","01","11:00","-0.3","","-5.9","","66","","25","","28","","24.1","","101.72","","","","-7","","NA"
"2014-12-01 12:00","2014","12","01","12:00","0.2","","-7.4","","57","","29","","26","","24.1","","101.76","","","","","","NA"
"2014-12-01 13:00","2014","12","01","13:00","-0.2","","-8.4","","54","","27","","30","","48.3","","101.79","","","","-7","","Mostly Cloudy"
"2014-12-01 14:00","2014","12","01","14:00","0.0","","-9.2","","50","","26","","32","","48.3","","101.91","","","","-7","","NA"
"2014-12-01 15:00","2014","12","01","15:00","-0.6","","-10.6","","47","","28","","30","","48.3","","102.05","","","","-7","","NA"
"2014-12-01 16:00","2014","12","01","16:00","-1.5","","-12.3","","44","","30","","21","","24.1","","102.18","","","","-7","","Mainly Clear"
"2014-12-01 17:00","2014","12","01","17:00","-1.9","","-12.9","","43","","31","","13","","24.1","","102.26","","","","-6","","NA"
"2014-12-01 18:00","2014","12","01","18:00","-2.2","","-12.3","","46","","24","","5","","24.1","","102.37","","","","-4","","NA"
"2014-12-01 19:00","2014","12","01","19:00","-2.3","","-10.4","","54","","26","","7","","24.1","","102.47","","","","-5","","Mostly Cloudy"
"2014-12-01 20:00","2014","12","01","20:00","-2.4","","-7.2","","70","","27","","17","","24.1","","102.63","","","","-8","","Snow Showers"
"2014-12-01 21:00","2014","12","01","21:00","-2.5","","-9.5","","59","","29","","32","","24.1","","102.74","","","","-10","","Snow Showers"
"2014-12-01 22:00","2014","12","01","22:00","-4.0","","-11.8","","55","","30","","31","","24.1","","102.91","","","","-12","","Mainly Clear"
"2014-12-01 23:00","2014","12","01","23:00","-6.5","","-14.4","","54","","33","","14","","24.1","","103.13","","","","-12","","NA"
"2014-12-02 00:00","2014","12","02","00:00","-7.6","","-15.9","","52","","31","","17","","24.1","","103.28","","","","-14","","NA"
"2014-12-02 01:00","2014","12","02","01:00","-8.7","","-16.0","","56","","32","","15","","24.1","","103.42","","","","-15","","Clear"
"2014-12-02 02:00","2014","12","02","02:00","-10.4","","-18.5","","52","","30","","22","","24.1","","103.57","","","","-19","","NA"
"2014-12-02 03:00","2014","12","02","03:00","-11.2","","-19.2","","52","","32","","16","","24.1","","103.68","","","","-18","","NA"
"2014-12-02 04:00","2014","12","02","04:00","-12.6","","-21.7","","47","","34","","18","","24.1","","103.76","","","","-21","","Clear"
"2014-12-02 05:00","2014","12","02","05:00","-14.1","","-23.9","","44","","1","","22","","24.1","","103.83","","","","-23","","NA"
"2014-12-02 06:00","2014","12","02","06:00","-14.8","","-23.3","","49","","1","","15","","24.1","","103.89","","","","-23","","NA"
"2014-12-02 07:00","2014","12","02","07:00","-14.9","","-22.3","","54","","2","","14","","48.3","","103.96","","","","-22","","Clear"
"2014-12-02 08:00","2014","12","02","08:00","-14.4","","-21.0","","58","","2","","18","","48.3","","103.94","","","","-23","","NA"
"2014-12-02 09:00","2014","12","02","09:00","-13.1","","-19.7","","58","","5","","22","","24.1","","103.95","","","","-22","","NA"
"2014-12-02 10:00","2014","12","02","10:00","-12.6","","-20.3","","53","","6","","17","","24.1","","103.93","","","","-20","","Mainly Clear"
"2014-12-02 11:00","2014","12","02","11:00","-11.9","","-20.1","","51","","6","","16","","24.1","","103.85","","","","-19","","NA"
"2014-12-02 12:00","2014","12","02","12:00","-10.7","","-20.2","","46","","7","","19","","24.1","","103.73","","","","-19","","NA"
"2014-12-02 13:00","2014","12","02","13:00","-10.0","","-19.8","","45","","5","","16","","24.1","","103.63","","","","-17","","Mostly Cloudy"
"2014-12-02 14:00","2014","12","02","14:00","-9.3","","-18.4","","48","","6","","17","","24.1","","103.51","","","","-16","","NA"
"2014-12-02 15:00","2014","12","02","15:00","-9.8","","-18.9","","48","","4","","23","","48.3","","103.37","","","","-18","","NA"
"2014-12-02 16:00","2014","12","02","16:00","-10.0","","-18.8","","49","","5","","25","","48.3","","103.25","","","","-19","","Cloudy"
"2014-12-02 17:00","2014","12","02","17:00","-9.7","","-17.6","","53","","5","","19","","24.1","","103.17","","","","-17","","NA"
"2014-12-02 18:00","2014","12","02","18:00","-10.0","","-17.4","","55","","4","","22","","24.1","","103.06","","","","-18","","NA"
"2014-12-02 19:00","2014","12","02","19:00","-9.7","","-17.2","","55","","5","","21","","24.1","","102.90","","","","-18","","Cloudy"
"2014-12-02 20:00","2014","12","02","20:00","-9.0","","-16.3","","56","","4","","24","","24.1","","102.72","","","","-17","","Snow"
"2014-12-02 21:00","2014","12","02","21:00","-9.4","","-12.9","","76","","4","","24","","1.6","","102.57","","","","-18","","Snow"
"2014-12-02 22:00","2014","12","02","22:00","-9.0","","-11.1","","85","","4","","20","","1.6","","102.39","","","","-17","","Snow"
"2014-12-02 23:00","2014","12","02","23:00","-8.2","","-10.1","","86","","3","","23","","2.0","","102.21","","","","-16","","Snow"
"2014-12-03 00:00","2014","12","03","00:00","-5.4","","-6.8","","90","","7","","17","","2.4","","102.00","","","","-11","","Snow"
"2014-12-03 01:00","2014","12","03","01:00","-3.2","","-4.8","","89","","9","","16","","4.8","","101.83","","","","-9","","Snow"
"2014-12-03 02:00","2014","12","03","02:00","0.2","","-2.0","","85","","14","","22","","9.7","","101.67","","","","","","Snow"
"2014-12-03 03:00","2014","12","03","03:00","1.2","","-1.9","","80","","15","","26","","24.1","","101.48","","","","","","Snow"
"2014-12-03 04:00","2014","12","03","04:00","1.4","","-1.3","","82","","14","","24","","24.1","","101.33","","","","","","Snow"
"2014-12-03 05:00","2014","12","03","05:00","1.8","","-0.8","","83","","15","","26","","24.1","","101.21","","","","","","Rain,Snow"
"2014-12-03 06:00","2014","12","03","06:00","2.0","","-0.3","","85","","15","","18","","24.1","","101.11","","","","","","Rain"
"2014-12-03 07:00","2014","12","03","07:00","2.8","","0.5","","85","","15","","17","","24.1","","100.99","","","","","","Cloudy"
"2014-12-03 08:00","2014","12","03","08:00","2.8","","0.4","","84","","17","","15","","24.1","","100.93","","","","","","Drizzle"
"2014-12-03 09:00","2014","12","03","09:00","2.8","","0.7","","86","","18","","10","","24.1","","100.85","","","","","","NA"
"2014-12-03 10:00","2014","12","03","10:00","3.1","","1.6","","90","","19","","13","","4.8","","100.81","","","","","","Drizzle,Fog"
"2014-12-03 11:00","2014","12","03","11:00","3.1","","2.4","","95","","21","","18","","8.1","","100.73","","","","","","Rain,Fog"
"2014-12-03 12:00","2014","12","03","12:00","3.2","","2.2","","93","","23","","23","","11.3","","100.63","","","","","","Rain"
"2014-12-03 13:00","2014","12","03","13:00","3.3","","1.8","","90","","22","","23","","16.1","","100.57","","","","","","Cloudy"
"2014-12-03 14:00","2014","12","03","14:00","2.8","","1.3","","90","","24","","25","","8.1","","100.51","","","","","","Rain"
"2014-12-03 15:00","2014","12","03","15:00","1.8","","0.6","","92","","25","","18","","8.1","","100.49","","","","","","Rain,Snow,Fog"
"2014-12-03 16:00","2014","12","03","16:00","0.6","","-0.3","","94","","26","","14","","3.2","","100.49","","","","","","Snow"
"2014-12-03 17:00","2014","12","03","17:00","0.3","","-0.3","","96","","25","","18","","3.2","","100.54","","","","","","Snow"
"2014-12-03 18:00","2014","12","03","18:00","0.8","","-0.2","","93","","24","","28","","4.8","","100.60","","","","","","Snow"
"2014-12-03 19:00","2014","12","03","19:00","1.2","","-0.4","","89","","24","","29","","11.3","","100.69","","","","","","Snow"
"2014-12-03 20:00","2014","12","03","20:00","1.5","","-0.8","","85","","24","","37","","16.1","","100.72","","","","","","Snow Showers"
"2014-12-03 21:00","2014","12","03","21:00","1.0","","-1.7","","82","","25","","34","","24.1","","100.82","","","","","","NA"
"2014-12-03 22:00","2014","12","03","22:00","0.8","","-1.9","","82","","25","","35","","24.1","","100.92","","","","","","Mostly Cloudy"
"2014-12-03 23:00","2014","12","03","23:00","0.2","","-2.2","","84","","26","","36","","6.4","","101.03","","","","","","Snow Showers"
"2014-12-04 00:00","2014","12","04","00:00","0.2","","-4.8","","69","","25","","28","","24.1","","101.17","","","","","","NA"
"2014-12-04 01:00","2014","12","04","01:00","-0.1","","-3.5","","78","","25","","24","","24.1","","101.19","","","","-6","","Mostly Cloudy"
"2014-12-04 02:00","2014","12","04","02:00","-0.4","","-4.0","","77","","25","","29","","24.1","","101.22","","","","-7","","NA"
"2014-12-04 03:00","2014","12","04","03:00","-1.0","","-5.2","","73","","26","","42","","4.0","","101.28","","","","-9","","Snow Showers"
"2014-12-04 04:00","2014","12","04","04:00","-1.1","","-5.2","","74","","26","","28","","12.9","","101.33","","","","-8","","Cloudy"
"2014-12-04 05:00","2014","12","04","05:00","-1.6","","-8.8","","58","","28","","42","","24.1","","101.52","","","","-10","","Snow Showers"
"2014-12-04 06:00","2014","12","04","06:00","-3.8","","-13.0","","49","","27","","35","","24.1","","101.76","","","","-12","","NA"
"2014-12-04 07:00","2014","12","04","07:00","-5.0","","-13.7","","51","","29","","21","","24.1","","101.99","","","","-12","","Mainly Clear"
"2014-12-04 08:00","2014","12","04","08:00","-5.7","","-15.3","","47","","30","","26","","24.1","","102.19","","","","-13","","NA"
"2014-12-04 09:00","2014","12","04","09:00","-6.2","","-16.9","","43","","29","","32","","24.1","","102.38","","","","-15","","NA"
"2014-12-04 10:00","2014","12","04","10:00","-6.3","","-17.3","","42","","30","","25","","24.1","","102.52","","","","-14","","Clear"
"2014-12-04 11:00","2014","12","04","11:00","-6.5","","-15.8","","48","","29","","22","","24.1","","102.54","","","","-14","","NA"
"2014-12-04 12:00","2014","12","04","12:00","-6.4","","-16.0","","47","","29","","23","","48.3","","102.60","","","","-14","","NA"
"2014-12-04 13:00","2014","12","04","13:00","-6.4","","-16.5","","45","","28","","17","","48.3","","102.63","","","","-13","","Clear"
"2014-12-04 14:00","2014","12","04","14:00","-6.2","","-15.5","","48","","27","","16","","48.3","","102.69","","","","-12","","NA"
"2014-12-04 15:00","2014","12","04","15:00","-7.0","","-17.6","","43","","28","","21","","48.3","","102.79","","","","-14","","NA"
"2014-12-04 16:00","2014","12","04","16:00","-7.8","","-17.5","","46","","28","","17","","48.3","","102.87","","","","-14","","Mainly Clear"
"2014-12-04 17:00","2014","12","04","17:00","-8.5","","-17.4","","49","","31","","7","","24.1","","102.93","","","","-12","","NA"
"2014-12-04 18:00","2014","12","04","18:00","-8.9","","-17.6","","50","","31","","10","","24.1","","102.97","","","","-14","","NA"
"2014-12-04 19:00","2014","12","04","19:00","-9.4","","-17.8","","51","","34","","8","","24.1","","103.02","","","","-14","","Clear"
"2014-12-04 20:00","2014","12","04","20:00","-10.1","","-17.8","","54","","34","","10","","24.1","","103.05","","","","-15","","NA"
"2014-12-04 21:00","2014","12","04","21:00","-10.7","","-17.0","","60","","4","","7","","24.1","","103.12","","","","-15","","NA"
"2014-12-04 22:00","2014","12","04","22:00","-11.1","","-17.4","","60","","6","","5","","24.1","","103.17","","","","-14","","Clear"
"2014-12-04 23:00","2014","12","04","23:00","-10.6","","-16.8","","61","","11","","7","","24.1","","103.24","","","","-15","","NA"
"2014-12-05 00:00","2014","12","05","00:00","-10.6","","-16.2","","64","","10","","5","","24.1","","103.30","","","","-14","","NA"
"2014-12-05 01:00","2014","12","05","01:00","-10.5","","-16.9","","60","","8","","13","","24.1","","103.29","","","","-17","","Clear"
"2014-12-05 02:00","2014","12","05","02:00","-10.5","","-16.7","","61","","8","","9","","24.1","","103.32","","","","-15","","NA"
"2014-12-05 03:00","2014","12","05","03:00","-10.6","","-16.8","","61","","7","","10","","24.1","","103.34","","","","-16","","NA"
"2014-12-05 04:00","2014","12","05","04:00","-10.7","","-17.0","","60","","7","","12","","24.1","","103.33","","","","-17","","Clear"
"2014-12-05 05:00","2014","12","05","05:00","-10.8","","-16.7","","62","","7","","9","","24.1","","103.33","","","","-16","","NA"
"2014-12-05 06:00","2014","12","05","06:00","-12.7","","-15.8","","78","","1","","11","","24.1","","103.36","","","","-19","","NA"
"2014-12-05 07:00","2014","12","05","07:00","-13.1","","-16.2","","78","","2","","14","","48.3","","103.33","","","","-20","","Mostly Cloudy"
"2014-12-05 08:00","2014","12","05","08:00","-12.2","","-15.1","","79","","2","","14","","48.3","","103.37","","","","-19","","NA"
"2014-12-05 09:00","2014","12","05","09:00","-11.0","","-14.1","","78","","2","","13","","48.3","","103.35","","","","-17","","NA"
"2014-12-05 10:00","2014","12","05","10:00","-10.0","","-13.8","","74","","2","","17","","48.3","","103.34","","","","-17","","Mostly Cloudy"
"2014-12-05 11:00","2014","12","05","11:00","-8.5","","-13.4","","68","","2","","17","","48.3","","103.22","","","","-15","","NA"
"2014-12-05 12:00","2014","12","05","12:00","-6.1","","-14.5","","52","","5","","11","","24.1","","103.14","","","","-11","","NA"
"2014-12-05 13:00","2014","12","05","13:00","-5.1","","-13.5","","52","","7","","16","","24.1","","103.02","","","","-11","","Mostly Cloudy"
"2014-12-05 14:00","2014","12","05","14:00","-5.1","","-13.3","","53","","3","","16","","24.1","","102.96","","","","-11","","NA"
"2014-12-05 15:00","2014","12","05","15:00","-5.7","","-12.7","","58","","4","","16","","24.1","","102.90","","","","-12","","NA"
"2014-12-05 16:00","2014","12","05","16:00","-6.4","","-13.2","","59","","3","","25","","24.1","","102.85","","","","-14","","Cloudy"
"2014-12-05 17:00","2014","12","05","17:00","-6.3","","-12.4","","62","","4","","20","","24.1","","102.77","","","","-13","","NA"
"2014-12-05 18:00","2014","12","05","18:00","-6.2","","-12.0","","64","","4","","16","","24.1","","102.71","","","","-12","","NA"
"2014-12-05 19:00","2014","12","05","19:00","-6.1","","-11.3","","67","","4","","15","","24.1","","102.62","","","","-12","","Cloudy"
"2014-12-05 20:00","2014","12","05","20:00","-5.9","","-10.9","","68","","3","","15","","6.4","","102.55","","","","-12","","Snow"
"2014-12-05 21:00","2014","12","05","21:00","-6.7","","-9.0","","84","","3","","12","","2.4","","102.48","","","","-12","","Snow"
"2014-12-05 22:00","2014","12","05","22:00","-6.5","","-8.2","","88","","2","","14","","2.0","","102.40","","","","-12","","Snow"
"2014-12-05 23:00","2014","12","05","23:00","-6.9","","-8.6","","88","","2","","13","","4.8","","102.36","","","","-12","","Snow"
"2014-12-06 00:00","2014","12","06","00:00","-6.5","","-8.2","","88","","2","","13","","12.9","","102.29","","","","-12","","Snow"
"2014-12-06 01:00","2014","12","06","01:00","-5.8","","-7.3","","89","","36","","9","","16.1","","102.23","","","","-10","","Snow"
"2014-12-06 02:00","2014","12","06","02:00","-5.9","","-7.0","","92","","1","","12","","12.9","","102.24","","","","-11","","Freezing Drizzle,Snow"
"2014-12-06 03:00","2014","12","06","03:00","-5.5","","-6.6","","92","","36","","11","","4.8","","102.17","","","","-10","","Freezing Drizzle,Snow"
"2014-12-06 04:00","2014","12","06","04:00","-5.0","","-6.3","","91","","2","","8","","9.7","","102.11","","","","-9","","Snow"
"2014-12-06 05:00","2014","12","06","05:00","-5.0","","-6.3","","91","","36","","14","","16.1","","102.07","","","","-10","","Snow"
"2014-12-06 06:00","2014","12","06","06:00","-5.0","","-6.3","","91","","2","","16","","12.9","","102.05","","","","-11","","Snow"
"2014-12-06 07:00","2014","12","06","07:00","-4.7","","-5.5","","94","","1","","16","","1.6","","102.07","","","","-10","","Snow"
"2014-12-06 08:00","2014","12","06","08:00","-4.4","","-5.2","","94","","2","","14","","1.6","","102.07","","","","-10","","Freezing Drizzle,Snow,Fog"
"2014-12-06 09:00","2014","12","06","09:00","-4.1","","-4.9","","94","","1","","14","","3.2","","102.09","","","","-9","","Freezing Drizzle,Snow,Fog"
"2014-12-06 10:00","2014","12","06","10:00","-3.7","","-4.5","","94","","2","","13","","2.0","","102.08","","","","-9","","Freezing Drizzle,Snow,Fog"
"2014-12-06 11:00","2014","12","06","11:00","-2.8","","-3.6","","94","","35","","14","","2.8","","102.02","","","","-8","","Snow,Fog"
"2014-12-06 12:00","2014","12","06","12:00","-2.6","","-3.6","","93","","36","","10","","4.0","","101.99","","","","-6","","Snow,Fog"
"2014-12-06 13:00","2014","12","06","13:00","-2.0","","-3.1","","92","","35","","3","","4.0","","101.94","","","","-3","","Fog"
"2014-12-06 14:00","2014","12","06","14:00","-1.5","","-2.9","","90","","30","","4","","4.8","","101.95","","","","-3","","Fog"
"2014-12-06 15:00","2014","12","06","15:00","-1.3","","-2.6","","91","","28","","7","","4.0","","102.03","","","","-4","","Fog"
"2014-12-06 16:00","2014","12","06","16:00","-1.3","","-2.6","","91","","24","","4","","6.4","","102.06","","","","-3","","Fog"
"2014-12-06 17:00","2014","12","06","17:00","-1.4","","-2.5","","92","","25","","5","","6.4","","102.16","","","","-3","","Fog"
"2014-12-06 18:00","2014","12","06","18:00","-1.4","","-2.4","","93","","35","","4","","6.4","","102.25","","","","-3","","Snow,Fog"
"2014-12-06 19:00","2014","12","06","19:00","-1.3","","-2.3","","93","","30","","7","","6.4","","102.36","","","","-4","","Fog"
"2014-12-06 20:00","2014","12","06","20:00","-2.6","","-3.4","","94","","28","","8","","8.1","","102.44","","","","-6","","Fog"
"2014-12-06 21:00","2014","12","06","21:00","-2.7","","-4.1","","90","","29","","12","","12.9","","102.51","","","","-7","","NA"
"2014-12-06 22:00","2014","12","06","22:00","-2.6","","-4.9","","84","","30","","13","","19.3","","102.59","","","","-7","","Mostly Cloudy"
"2014-12-06 23:00","2014","12","06","23:00","-2.6","","-6.3","","76","","31","","16","","24.1","","102.67","","","","-8","","NA"
"2014-12-07 00:00","2014","12","07","00:00","-3.6","","-7.4","","75","","33","","14","","24.1","","102.74","","","","-9","","NA"
"2014-12-07 01:00","2014","12","07","01:00","-5.1","","-8.4","","78","","31","","12","","24.1","","102.85","","","","-10","","Mainly Clear"
"2014-12-07 02:00","2014","12","07","02:00","-6.4","","-10.3","","74","","34","","16","","24.1","","103.01","","","","-13","","NA"
"2014-12-07 03:00","2014","12","07","03:00","-7.8","","-12.5","","69","","35","","16","","24.1","","103.11","","","","-14","","NA"
"2014-12-07 04:00","2014","12","07","04:00","-8.8","","-13.3","","70","","33","","8","","24.1","","103.23","","","","-13","","Clear"
"2014-12-07 05:00","2014","12","07","05:00","-9.7","","-13.9","","72","","31","","10","","24.1","","103.37","","","","-15","","NA"
"2014-12-07 06:00","2014","12","07","06:00","-10.6","","-14.7","","72","","34","","11","","24.1","","103.50","","","","-16","","NA"
"2014-12-07 07:00","2014","12","07","07:00","-10.9","","-15.0","","72","","35","","8","","24.1","","103.60","","","","-16","","Clear"
"2014-12-07 08:00","2014","12","07","08:00","-11.7","","-15.0","","77","","33","","7","","24.1","","103.73","","","","-16","","NA"
"2014-12-07 09:00","2014","12","07","09:00","-10.3","","-15.1","","68","","35","","15","","24.1","","103.82","","","","-17","","NA"
"2014-12-07 10:00","2014","12","07","10:00","-10.1","","-16.7","","59","","2","","22","","48.3","","103.88","","","","-18","","Clear"
"2014-12-07 11:00","2014","12","07","11:00","-9.9","","-17.3","","55","","1","","17","","48.3","","103.84","","","","-17","","NA"
"2014-12-07 12:00","2014","12","07","12:00","-9.8","","-18.4","","50","","4","","20","","48.3","","103.82","","","","-18","","NA"
"2014-12-07 13:00","2014","12","07","13:00","-9.8","","-18.4","","50","","4","","17","","48.3","","103.78","","","","-17","","Clear"
"2014-12-07 14:00","2014","12","07","14:00","-9.7","","-19.8","","44","","5","","10","","48.3","","103.77","","","","-15","","NA"
"2014-12-07 15:00","2014","12","07","15:00","-9.7","","-19.3","","46","","5","","9","","48.3","","103.79","","","","-15","","NA"
"2014-12-07 16:00","2014","12","07","16:00","-10.0","","-20.7","","42","","13","","4","","48.3","","103.82","","","","-12","","Clear"
"2014-12-07 17:00","2014","12","07","17:00","-10.9","","-18.5","","54","","14","","10","","24.1","","103.88","","","","-16","","NA"
"2014-12-07 18:00","2014","12","07","18:00","-11.5","","-18.9","","55","","15","","15","","24.1","","103.95","","","","-19","","NA"
"2014-12-07 19:00","2014","12","07","19:00","-11.8","","-18.9","","56","","11","","9","","24.1","","103.98","","","","-17","","Clear"
"2014-12-07 20:00","2014","12","07","20:00","-11.8","","-18.5","","58","","11","","8","","24.1","","103.96","","","","-17","","NA"
"2014-12-07 21:00","2014","12","07","21:00","-12.4","","-19.5","","56","","12","","9","","24.1","","103.96","","","","-18","","NA"
"2014-12-07 22:00","2014","12","07","22:00","-12.5","","-19.2","","58","","12","","7","","24.1","","103.96","","","","-17","","Clear"
"2014-12-07 23:00","2014","12","07","23:00","-12.5","","-19.2","","58","","12","","9","","24.1","","103.94","","","","-18","","NA"
"2014-12-08 00:00","2014","12","08","00:00","-12.5","","-20.2","","53","","11","","8","","24.1","","103.93","","","","-17","","NA"
"2014-12-08 01:00","2014","12","08","01:00","-12.5","","-19.0","","59","","10","","6","","24.1","","103.90","","","","-16","","Clear"
"2014-12-08 02:00","2014","12","08","02:00","-12.3","","-20.3","","52","","7","","12","","24.1","","103.89","","","","-19","","NA"
"2014-12-08 03:00","2014","12","08","03:00","-12.6","","-20.8","","51","","7","","13","","24.1","","103.87","","","","-19","","NA"
"2014-12-08 04:00","2014","12","08","04:00","-12.7","","-21.6","","48","","8","","14","","24.1","","103.77","","","","-20","","Clear"
"2014-12-08 05:00","2014","12","08","05:00","-13.1","","-21.3","","51","","6","","10","","24.1","","103.77","","","","-19","","NA"
"2014-12-08 06:00","2014","12","08","06:00","-13.1","","-20.2","","56","","5","","13","","24.1","","103.70","","","","-20","","NA"
"2014-12-08 07:00","2014","12","08","07:00","-12.5","","-21.2","","49","","4","","17","","24.1","","103.68","","","","-20","","Mostly Cloudy"
"2014-12-08 08:00","2014","12","08","08:00","-13.2","","-18.8","","63","","1","","10","","48.3","","103.64","","","","-19","","NA"
"2014-12-08 09:00","2014","12","08","09:00","-13.0","","-17.9","","67","","2","","17","","48.3","","103.59","","","","-21","","NA"
"2014-12-08 10:00","2014","12","08","10:00","-12.0","","-17.3","","65","","3","","17","","48.3","","103.54","","","","-20","","Cloudy"
"2014-12-08 11:00","2014","12","08","11:00","-11.2","","-17.9","","58","","4","","18","","48.3","","103.43","","","","-19","","NA"
"2014-12-08 12:00","2014","12","08","12:00","-10.4","","-17.6","","56","","4","","23","","48.3","","103.30","","","","-19","","NA"
"2014-12-08 13:00","2014","12","08","13:00","-9.9","","-16.9","","57","","4","","15","","48.3","","103.22","","","","-17","","Cloudy"
"2014-12-08 14:00","2014","12","08","14:00","-9.3","","-15.9","","59","","3","","16","","48.3","","103.14","","","","-16","","NA"
"2014-12-08 15:00","2014","12","08","15:00","-9.1","","-15.7","","59","","4","","17","","48.3","","103.07","","","","-16","","NA"
"2014-12-08 16:00","2014","12","08","16:00","-9.0","","-15.0","","62","","4","","19","","48.3","","103.01","","","","-16","","Cloudy"
"2014-12-08 17:00","2014","12","08","17:00","-9.1","","-14.4","","66","","4","","17","","24.1","","102.96","","","","-16","","NA"
"2014-12-08 18:00","2014","12","08","18:00","-8.0","","-13.3","","66","","7","","15","","24.1","","102.95","","","","-14","","NA"
"2014-12-08 19:00","2014","12","08","19:00","-6.2","","-12.2","","63","","7","","12","","24.1","","102.90","","","","-11","","Cloudy"
"2014-12-08 20:00","2014","12","08","20:00","-3.6","","-10.9","","57","","15","","18","","24.1","","102.86","","","","-9","","NA"
"2014-12-08 21:00","2014","12","08","21:00","-3.2","","-9.5","","62","","16","","14","","24.1","","102.80","","","","-8","","NA"
"2014-12-08 22:00","2014","12","08","22:00","-3.0","","-8.5","","66","","15","","10","","24.1","","102.74","","","","-7","","Cloudy"
"2014-12-08 23:00","2014","12","08","23:00","-8.1","","-11.8","","75","","34","","13","","24.1","","102.71","","","","-14","","NA"
"2014-12-09 00:00","2014","12","09","00:00","-3.2","","-6.2","","80","","11","","18","","24.1","","102.55","","","","-9","","NA"
"2014-12-09 01:00","2014","12","09","01:00","-2.3","","-6.1","","75","","11","","16","","24.1","","102.48","","","","-7","","Mostly Cloudy"
"2014-12-09 02:00","2014","12","09","02:00","-2.3","","-6.0","","76","","12","","16","","24.1","","102.40","","","","-7","","NA"
"2014-12-09 03:00","2014","12","09","03:00","-1.9","","-5.4","","77","","11","","14","","24.1","","102.32","","","","-7","","NA"
"2014-12-09 04:00","2014","12","09","04:00","-1.9","","-5.2","","78","","9","","13","","24.1","","102.26","","","","-6","","Cloudy"
"2014-12-09 05:00","2014","12","09","05:00","-1.4","","-4.6","","79","","7","","10","","24.1","","102.27","","","","-5","","NA"
"2014-12-09 06:00","2014","12","09","06:00","-4.7","","-7.5","","81","","2","","15","","24.1","","102.27","","","","-10","","NA"
"2014-12-09 07:00","2014","12","09","07:00","-4.8","","-7.3","","83","","2","","16","","24.1","","102.20","","","","-11","","Mostly Cloudy"
"2014-12-09 08:00","2014","12","09","08:00","-4.1","","-6.4","","84","","3","","17","","24.1","","102.16","","","","-10","","NA"
"2014-12-09 09:00","2014","12","09","09:00","-2.9","","-5.4","","83","","1","","12","","24.1","","102.13","","","","-7","","NA"
"2014-12-09 10:00","2014","12","09","10:00","-3.4","","-5.9","","83","","1","","18","","24.1","","102.17","","","","-9","","Cloudy"
"2014-12-09 11:00","2014","12","09","11:00","-3.0","","-5.8","","81","","1","","20","","24.1","","102.04","","","","-9","","Snow"
"2014-12-09 12:00","2014","12","09","12:00","-2.4","","-4.4","","86","","3","","17","","16.1","","101.96","","","","-8","","Snow"
"2014-12-09 13:00","2014","12","09","13:00","-2.1","","-3.7","","89","","3","","21","","4.8","","101.90","","","","-8","","Snow"
"2014-12-09 14:00","2014","12","09","14:00","-2.3","","-3.7","","90","","1","","20","","2.0","","101.83","","","","-8","","Snow"
"2014-12-09 15:00","2014","12","09","15:00","-3.0","","-4.6","","89","","2","","24","","3.2","","101.79","","","","-10","","Snow"
"2014-12-09 16:00","2014","12","09","16:00","-2.8","","-4.2","","90","","3","","20","","3.2","","101.79","","","","-9","","Snow"
"2014-12-09 17:00","2014","12","09","17:00","-2.4","","-3.5","","92","","2","","22","","2.8","","101.68","","","","-9","","Snow"
"2014-12-09 18:00","2014","12","09","18:00","-1.9","","-3.0","","92","","2","","25","","4.8","","101.64","","","","-8","","Snow"
"2014-12-09 19:00","2014","12","09","19:00","-1.6","","-2.9","","91","","2","","26","","6.4","","101.56","","","","-8","","Snow"
"2014-12-09 20:00","2014","12","09","20:00","-1.2","","-2.5","","91","","2","","32","","4.8","","101.50","","","","-8","","Snow,Blowing Snow"
"2014-12-09 21:00","2014","12","09","21:00","-0.9","","-2.0","","92","","2","","33","","3.2","","101.42","","","","-8","","Snow"
"2014-12-09 22:00","2014","12","09","22:00","-0.6","","-1.7","","92","","2","","30","","2.8","","101.35","","","","-7","","Snow,Blowing Snow"
"2014-12-09 23:00","2014","12","09","23:00","-0.2","","-1.3","","92","","2","","29","","3.2","","101.31","","","","-7","","Snow,Blowing Snow"
"2014-12-10 00:00","2014","12","10","00:00","0.0","","-1.0","","93","","1","","37","","1.6","","101.19","","","","-7","","Snow,Blowing Snow"
"2014-12-10 01:00","2014","12","10","01:00","0.1","","-1.1","","92","","1","","39","","1.6","","101.12","","","","","","Snow,Blowing Snow"
"2014-12-10 02:00","2014","12","10","02:00","0.0","","-1.1","","92","","1","","38","","1.2","","101.05","","","","-7","","Snow,Blowing Snow"
"2014-12-10 03:00","2014","12","10","03:00","0.1","","-1.2","","91","","1","","35","","2.0","","101.03","","","","","","Snow,Blowing Snow"
"2014-12-10 04:00","2014","12","10","04:00","-0.2","","-1.5","","91","","1","","34","","3.2","","100.89","","","","-7","","Snow,Blowing Snow"
"2014-12-10 05:00","2014","12","10","05:00","-0.3","","-2.1","","88","","1","","32","","4.8","","100.93","","","","-7","","Snow,Blowing Snow"
"2014-12-10 06:00","2014","12","10","06:00","-0.2","","-2.1","","87","","36","","37","","6.4","","100.82","","","","-7","","Snow,Blowing Snow"
"2014-12-10 07:00","2014","12","10","07:00","-0.2","","-2.9","","82","","36","","28","","16.1","","100.87","","","","-7","","Snow,Blowing Snow"
"2014-12-10 08:00","2014","12","10","08:00","-0.3","","-2.1","","88","","1","","33","","2.0","","100.82","","","","-7","","Snow,Blowing Snow"
"2014-12-10 09:00","2014","12","10","09:00","-0.3","","-2.1","","88","","2","","46","","2.0","","100.81","","","","-8","","Snow,Blowing Snow"
"2014-12-10 10:00","2014","12","10","10:00","-0.4","","-1.8","","90","","2","","43","","2.0","","100.70","","","","-8","","Snow,Blowing Snow"
"2014-12-10 11:00","2014","12","10","11:00","-0.3","","-2.1","","88","","2","","42","","4.0","","100.70","","","","-8","","Snow,Blowing Snow"
"2014-12-10 12:00","2014","12","10","12:00","-0.4","","-1.7","","91","","2","","36","","1.6","","100.61","","","","-8","","Snow,Blowing Snow"
"2014-12-10 13:00","2014","12","10","13:00","-0.3","","-1.4","","92","","2","","33","","0.8","","100.53","","","","-7","","Snow,Blowing Snow"
"2014-12-10 14:00","2014","12","10","14:00","-0.1","","-1.1","","93","","2","","45","","0.6","","100.41","","","","-8","","Moderate Snow,Blowing Snow"
"2014-12-10 15:00","2014","12","10","15:00","-0.2","","-1.3","","92","","2","","37","","1.2","","100.39","","","","-7","","Snow,Blowing Snow"
"2014-12-10 16:00","2014","12","10","16:00","-0.3","","-1.3","","93","","2","","34","","0.8","","100.33","","","","-7","","Snow,Blowing Snow"
"2014-12-10 17:00","2014","12","10","17:00","-0.4","","-1.4","","93","","1","","32","","0.6","","100.28","","","","-7","","Moderate Snow,Blowing Snow"
"2014-12-10 18:00","2014","12","10","18:00","-0.5","","-1.5","","93","","2","","37","","0.8","","100.20","","","","-8","","Snow,Blowing Snow"
"2014-12-10 19:00","2014","12","10","19:00","-0.7","","-1.8","","92","","1","","35","","1.6","","100.04","","","","-8","","Snow,Blowing Snow"
"2014-12-10 20:00","2014","12","10","20:00","-0.8","","-1.9","","92","","1","","35","","0.8","","99.98","","","","-8","","Snow,Blowing Snow"
"2014-12-10 21:00","2014","12","10","21:00","-0.8","","-1.8","","93","","2","","38","","0.8","","99.88","","","","-8","","Moderate Snow,Blowing Snow"
"2014-12-10 22:00","2014","12","10","22:00","-0.8","","-1.9","","92","","2","","40","","1.2","","99.81","","","","-8","","Snow,Blowing Snow"
"2014-12-10 23:00","2014","12","10","23:00","-0.6","","-1.7","","92","","2","","37","","2.4","","99.77","","","","-8","","Snow,Blowing Snow"
"2014-12-11 00:00","2014","12","11","00:00","-0.6","","-1.7","","92","","3","","37","","1.6","","99.72","","","","-8","","Snow,Blowing Snow"
"2014-12-11 01:00","2014","12","11","01:00","-0.4","","-1.5","","92","","3","","41","","1.6","","99.67","","","","-8","","Snow,Blowing Snow"
"2014-12-11 02:00","2014","12","11","02:00","-0.1","","-1.2","","92","","3","","35","","2.4","","99.66","","","","-7","","Snow,Blowing Snow"
"2014-12-11 03:00","2014","12","11","03:00","-0.4","","-1.8","","90","","3","","41","","2.0","","99.67","","","","-8","","Snow,Blowing Snow"
"2014-12-11 04:00","2014","12","11","04:00","-0.6","","-1.7","","92","","3","","30","","2.0","","99.66","","","","-7","","Snow,Blowing Snow"
"2014-12-11 05:00","2014","12","11","05:00","-0.6","","-1.7","","92","","3","","34","","2.0","","99.64","","","","-8","","Snow,Blowing Snow"
"2014-12-11 06:00","2014","12","11","06:00","-0.5","","-1.5","","93","","2","","22","","2.0","","99.70","","","","-6","","Snow,Blowing Snow"
"2014-12-11 07:00","2014","12","11","07:00","-0.5","","-1.5","","93","","2","","24","","2.4","","99.73","","","","-6","","Snow,Blowing Snow"
"2014-12-11 08:00","2014","12","11","08:00","-0.4","","-1.7","","91","","2","","30","","2.8","","99.73","","","","-7","","Snow,Blowing Snow"
"2014-12-11 09:00","2014","12","11","09:00","-0.6","","-1.9","","91","","2","","19","","3.2","","99.79","","","","-6","","Snow"
"2014-12-11 10:00","2014","12","11","10:00","-0.4","","-2.0","","89","","2","","21","","9.7","","99.81","","","","-6","","Snow"
"2014-12-11 11:00","2014","12","11","11:00","-0.2","","-1.8","","89","","1","","16","","6.4","","99.81","","","","-5","","Snow"
"2014-12-11 12:00","2014","12","11","12:00","0.0","","-1.1","","92","","35","","9","","4.8","","99.81","","","","-3","","Snow"
"2014-12-11 13:00","2014","12","11","13:00","0.2","","-0.5","","95","","30","","8","","2.8","","99.85","","","","","","Drizzle,Snow,Fog"
"2014-12-11 14:00","2014","12","11","14:00","0.2","","-0.5","","95","","28","","11","","1.6","","99.88","","","","","","Snow"
"2014-12-11 15:00","2014","12","11","15:00","0.4","","-0.3","","95","","28","","12","","2.4","","99.93","","","","","","Snow"
"2014-12-11 16:00","2014","12","11","16:00","0.1","","-0.6","","95","","27","","15","","2.0","","99.98","","","","","","Snow"
"2014-12-11 17:00","2014","12","11","17:00","-0.2","","-0.9","","95","","26","","15","","4.8","","100.05","","","","-5","","Snow"
"2014-12-11 18:00","2014","12","11","18:00","-0.3","","-1.2","","94","","26","","19","","4.0","","100.10","","","","-5","","Snow"
"2014-12-11 19:00","2014","12","11","19:00","-0.4","","-1.3","","94","","26","","18","","4.8","","100.16","","","","-5","","Snow"
"2014-12-11 20:00","2014","12","11","20:00","-0.6","","-1.6","","93","","26","","19","","3.2","","100.23","","","","-6","","Snow"
"2014-12-11 21:00","2014","12","11","21:00","-1.2","","-2.2","","93","","25","","23","","4.0","","100.28","","","","-7","","Snow"
"2014-12-11 22:00","2014","12","11","22:00","-1.7","","-2.7","","93","","24","","21","","6.4","","100.34","","","","-8","","Snow"
"2014-12-11 23:00","2014","12","11","23:00","-2.3","","-3.4","","92","","23","","20","","3.2","","100.37","","","","-8","","Snow"
"2014-12-12 00:00","2014","12","12","00:00","-2.8","","-4.2","","90","","24","","25","","6.4","","100.40","","","","-10","","Snow"
"2014-12-12 01:00","2014","12","12","01:00","-3.1","","-4.5","","90","","24","","24","","12.9","","100.42","","","","-10","","Snow"
"2014-12-12 02:00","2014","12","12","02:00","-3.5","","-4.9","","90","","24","","23","","12.9","","100.50","","","","-10","","Snow"
"2014-12-12 03:00","2014","12","12","03:00","-3.5","","-4.9","","90","","24","","23","","19.3","","100.58","","","","-10","","Snow"
"2014-12-12 04:00","2014","12","12","04:00","-3.6","","-5.2","","89","","24","","24","","24.1","","100.58","","","","-10","","Snow"
"2014-12-12 05:00","2014","12","12","05:00","-3.7","","-5.3","","89","","24","","25","","8.1","","100.62","","","","-11","","Snow"
"2014-12-12 06:00","2014","12","12","06:00","-3.8","","-5.4","","89","","24","","22","","24.1","","100.69","","","","-10","","Snow"
"2014-12-12 07:00","2014","12","12","07:00","-4.0","","-5.7","","88","","24","","20","","24.1","","100.74","","","","-10","","Snow"
"2014-12-12 08:00","2014","12","12","08:00","-4.1","","-6.0","","87","","23","","22","","24.1","","100.78","","","","-11","","Snow"
"2014-12-12 09:00","2014","12","12","09:00","-4.2","","-6.1","","87","","24","","23","","16.1","","100.86","","","","-11","","Snow"
"2014-12-12 10:00","2014","12","12","10:00","-4.0","","-5.9","","87","","24","","20","","4.8","","100.91","","","","-10","","Snow"
"2014-12-12 11:00","2014","12","12","11:00","-3.7","","-5.6","","87","","23","","22","","9.7","","100.87","","","","-10","","Snow"
"2014-12-12 12:00","2014","12","12","12:00","-3.2","","-5.2","","86","","24","","24","","19.3","","100.83","","","","-10","","Snow"
"2014-12-12 13:00","2014","12","12","13:00","-3.2","","-5.4","","85","","23","","23","","24.1","","100.83","","","","-10","","Snow"
"2014-12-12 14:00","2014","12","12","14:00","-3.3","","-5.3","","86","","24","","23","","16.1","","100.85","","","","-10","","Snow"
"2014-12-12 15:00","2014","12","12","15:00","-3.3","","-5.3","","86","","25","","21","","4.0","","100.90","","","","-10","","Snow"
"2014-12-12 16:00","2014","12","12","16:00","-3.5","","-5.4","","87","","23","","22","","4.8","","100.94","","","","-10","","Snow"
"2014-12-12 17:00","2014","12","12","17:00","-3.6","","-5.5","","87","","24","","20","","9.7","","100.98","","","","-10","","Snow"
"2014-12-12 18:00","2014","12","12","18:00","-3.6","","-5.5","","87","","24","","23","","8.1","","101.03","","","","-10","","Snow"
"2014-12-12 19:00","2014","12","12","19:00","-3.5","","-5.4","","87","","24","","18","","16.1","","101.07","","","","-9","","Snow"
"2014-12-12 20:00","2014","12","12","20:00","-3.5","","-4.9","","90","","23","","15","","4.8","","101.06","","","","-9","","Snow"
"2014-12-12 21:00","2014","12","12","21:00","-3.2","","-4.8","","89","","24","","14","","8.1","","101.06","","","","-8","","Snow"
"2014-12-12 22:00","2014","12","12","22:00","-3.0","","-4.6","","89","","25","","16","","12.9","","101.09","","","","-8","","Snow"
"2014-12-12 23:00","2014","12","12","23:00","-2.8","","-4.5","","88","","23","","12","","19.3","","101.07","","","","-7","","Snow"
"2014-12-13 00:00","2014","12","13","00:00","-2.4","","-4.1","","88","","24","","12","","24.1","","101.02","","","","-7","","Snow"
"2014-12-13 01:00","2014","12","13","01:00","-1.7","","-3.6","","87","","25","","10","","24.1","","101.03","","","","-5","","Snow"
"2014-12-13 02:00","2014","12","13","02:00","-1.8","","-3.5","","88","","23","","11","","24.1","","101.07","","","","-6","","NA"
"2014-12-13 03:00","2014","12","13","03:00","-1.9","","-3.8","","87","","26","","16","","24.1","","101.09","","","","-7","","NA"
"2014-12-13 04:00","2014","12","13","04:00","-2.1","","-4.0","","87","","24","","13","","24.1","","101.07","","","","-7","","Cloudy"
"2014-12-13 05:00","2014","12","13","05:00","-2.6","","-4.3","","88","","25","","17","","24.1","","101.03","","","","-8","","NA"
"2014-12-13 06:00","2014","12","13","06:00","-4.4","","-6.1","","88","","24","","19","","24.1","","101.03","","","","-11","","NA"
"2014-12-13 07:00","2014","12","13","07:00","-5.5","","-7.0","","89","","24","","17","","24.1","","101.05","","","","-12","","Clear"
"2014-12-13 08:00","2014","12","13","08:00","-4.6","","-6.1","","89","","24","","14","","24.1","","101.04","","","","-10","","NA"
"2014-12-13 09:00","2014","12","13","09:00","-3.2","","-5.1","","87","","27","","21","","24.1","","101.08","","","","-9","","NA"
"2014-12-13 10:00","2014","12","13","10:00","-3.1","","-5.1","","86","","25","","26","","24.1","","101.08","","","","-10","","Cloudy"
"2014-12-13 11:00","2014","12","13","11:00","-3.4","","-5.3","","87","","24","","24","","24.1","","101.03","","","","-10","","NA"
"2014-12-13 12:00","2014","12","13","12:00","-3.3","","-5.2","","87","","24","","26","","24.1","","100.96","","","","-10","","NA"
"2014-12-13 13:00","2014","12","13","13:00","-3.3","","-5.2","","87","","25","","21","","24.1","","100.89","","","","-10","","Cloudy"
"2014-12-13 14:00","2014","12","13","14:00","-3.3","","-5.3","","86","","24","","24","","24.1","","100.83","","","","-10","","NA"
"2014-12-13 15:00","2014","12","13","15:00","-3.4","","-5.6","","85","","24","","21","","24.1","","100.84","","","","-10","","NA"
"2014-12-13 16:00","2014","12","13","16:00","-4.0","","-6.0","","86","","24","","26","","24.1","","100.83","","","","-11","","Mostly Cloudy"
"2014-12-13 17:00","2014","12","13","17:00","-4.2","","-6.2","","86","","24","","23","","24.1","","100.83","","","","-11","","NA"
"2014-12-13 18:00","2014","12","13","18:00","-4.4","","-6.6","","85","","24","","18","","24.1","","100.82","","","","-10","","NA"
"2014-12-13 19:00","2014","12","13","19:00","-4.8","","-6.8","","86","","24","","19","","24.1","","100.84","","","","-11","","Mostly Cloudy"
"2014-12-13 20:00","2014","12","13","20:00","-4.3","","-6.3","","86","","25","","20","","24.1","","100.83","","","","-11","","NA"
"2014-12-13 21:00","2014","12","13","21:00","-4.1","","-6.4","","84","","25","","21","","24.1","","100.82","","","","-11","","NA"
"2014-12-13 22:00","2014","12","13","22:00","-4.6","","-6.8","","85","","25","","16","","24.1","","100.79","","","","-10","","Mostly Cloudy"
"2014-12-13 23:00","2014","12","13","23:00","-4.2","","-6.2","","86","","25","","19","","24.1","","100.79","","","","-10","","NA"
"2014-12-14 00:00","2014","12","14","00:00","-3.9","","-5.9","","86","","24","","22","","24.1","","100.73","","","","-10","","NA"
"2014-12-14 01:00","2014","12","14","01:00","-4.4","","-6.6","","85","","26","","23","","24.1","","100.66","","","","-11","","Clear"
"2014-12-14 02:00","2014","12","14","02:00","-4.4","","-6.3","","87","","26","","16","","24.1","","100.71","","","","-10","","NA"
"2014-12-14 03:00","2014","12","14","03:00","-3.6","","-5.3","","88","","28","","13","","24.1","","100.70","","","","-8","","NA"
"2014-12-14 04:00","2014","12","14","04:00","-3.2","","-4.8","","89","","27","","11","","24.1","","100.69","","","","-7","","Mostly Cloudy"
"2014-12-14 05:00","2014","12","14","05:00","-2.6","","-4.2","","89","","28","","12","","24.1","","100.70","","","","-7","","NA"
"2014-12-14 06:00","2014","12","14","06:00","-2.5","","-4.1","","89","","28","","9","","19.3","","100.74","","","","-6","","NA"
"2014-12-14 07:00","2014","12","14","07:00","-2.5","","-4.2","","88","","27","","13","","19.3","","100.78","","","","-7","","Cloudy"
"2014-12-14 08:00","2014","12","14","08:00","-2.6","","-4.3","","88","","26","","14","","16.1","","100.82","","","","-7","","NA"
"2014-12-14 09:00","2014","12","14","09:00","-2.3","","-4.2","","87","","27","","17","","16.1","","100.84","","","","-8","","Snow Showers"
"2014-12-14 10:00","2014","12","14","10:00","-2.2","","-4.1","","87","","27","","17","","24.1","","100.83","","","","-8","","Cloudy"
"2014-12-14 11:00","2014","12","14","11:00","-2.2","","-4.2","","86","","26","","17","","24.1","","100.82","","","","-8","","NA"
"2014-12-14 12:00","2014","12","14","12:00","-2.2","","-4.5","","84","","26","","21","","24.1","","100.79","","","","-8","","NA"
"2014-12-14 13:00","2014","12","14","13:00","-1.7","","-4.2","","83","","27","","22","","24.1","","100.82","","","","-8","","Cloudy"
"2014-12-14 14:00","2014","12","14","14:00","-1.5","","-4.3","","81","","28","","22","","24.1","","100.83","","","","-7","","NA"
"2014-12-14 15:00","2014","12","14","15:00","-1.2","","-4.4","","79","","27","","16","","24.1","","100.85","","","","-6","","NA"
"2014-12-14 16:00","2014","12","14","16:00","-1.2","","-4.1","","81","","28","","7","","24.1","","100.89","","","","-4","","Cloudy"
"2014-12-14 17:00","2014","12","14","17:00","-1.0","","-3.7","","82","","28","","10","","24.1","","100.98","","","","-5","","NA"
"2014-12-14 18:00","2014","12","14","18:00","-1.3","","-4.7","","78","","29","","10","","24.1","","101.04","","","","-5","","NA"
"2014-12-14 19:00","2014","12","14","19:00","-1.4","","-4.9","","77","","31","","12","","24.1","","101.11","","","","-5","","Cloudy"
"2014-12-14 20:00","2014","12","14","20:00","-1.8","","-5.0","","79","","1","","13","","24.1","","101.16","","","","-6","","NA"
"2014-12-14 21:00","2014","12","14","21:00","-1.9","","-4.7","","81","","28","","6","","24.1","","101.21","","","","-4","","NA"
"2014-12-14 22:00","2014","12","14","22:00","-1.9","","-4.9","","80","","27","","4","","24.1","","101.24","","","","-3","","Snow Showers"
"2014-12-14 23:00","2014","12","14","23:00","-1.8","","-4.6","","81","","23","","7","","24.1","","101.25","","","","-4","","NA"
"2014-12-15 00:00","2014","12","15","00:00","-1.8","","-4.5","","82","","23","","5","","24.1","","101.26","","","","-4","","NA"
"2014-12-15 01:00","2014","12","15","01:00","-1.7","","-4.4","","82","","24","","6","","24.1","","101.27","","","","-4","","Cloudy"
"2014-12-15 02:00","2014","12","15","02:00","-1.8","","-4.5","","82","","22","","3","","24.1","","101.32","","","","-3","","NA"
"2014-12-15 03:00","2014","12","15","03:00","-1.8","","-4.2","","84","","22","","7","","24.1","","101.37","","","","-4","","NA"
"2014-12-15 04:00","2014","12","15","04:00","-1.7","","-3.9","","85","","27","","3","","24.1","","101.40","","","","-3","","Cloudy"
"2014-12-15 05:00","2014","12","15","05:00","-1.7","","-3.6","","87","","23","","3","","24.1","","101.43","","","","-3","","NA"
"2014-12-15 06:00","2014","12","15","06:00","-1.7","","-3.6","","87","","22","","4","","24.1","","101.47","","","","-3","","NA"
"2014-12-15 07:00","2014","12","15","07:00","-1.5","","-3.7","","85","","36","","3","","24.1","","101.49","","","","-3","","Cloudy"
"2014-12-15 08:00","2014","12","15","08:00","-1.4","","-3.6","","85","","31","","5","","24.1","","101.54","","","","-3","","Snow Showers"
"2014-12-15 09:00","2014","12","15","09:00","-1.0","","-3.5","","83","","26","","5","","24.1","","101.56","","","","-3","","Snow Showers"
"2014-12-15 10:00","2014","12","15","10:00","-0.7","","-4.1","","78","","28","","7","","24.1","","101.57","","","","-3","","Cloudy"
"2014-12-15 11:00","2014","12","15","11:00","-0.6","","-4.0","","78","","23","","9","","24.1","","101.56","","","","-4","","NA"
"2014-12-15 12:00","2014","12","15","12:00","-0.8","","-3.7","","81","","24","","5","","24.1","","101.51","","","","-2","","Snow Showers"
"2014-12-15 13:00","2014","12","15","13:00","-0.5","","-3.7","","79","","25","","10","","24.1","","101.48","","","","-4","","Cloudy"
"2014-12-15 14:00","2014","12","15","14:00","-0.4","","-3.8","","78","","27","","7","","24.1","","101.48","","","","-3","","NA"
"2014-12-15 15:00","2014","12","15","15:00","-0.4","","-3.6","","79","","28","","7","","24.1","","101.49","","","","-3","","NA"
"2014-12-15 16:00","2014","12","15","16:00","-0.6","","-3.5","","81","","30","","3","","24.1","","101.52","","","","-2","","Cloudy"
"2014-12-15 17:00","2014","12","15","17:00","-0.6","","-3.3","","82","","36","","1","","24.1","","101.54","","","","-1","","Snow Showers"
"2014-12-15 18:00","2014","12","15","18:00","-0.6","","-3.0","","84","","28","","5","","24.1","","101.56","","","","-2","","NA"
"2014-12-15 19:00","2014","12","15","19:00","-0.7","","-2.8","","86","","29","","5","","24.1","","101.61","","","","-2","","Snow"
"2014-12-15 20:00","2014","12","15","20:00","-0.4","","-2.8","","84","","0","","1","","24.1","","101.62","","","","-1","","NA"
"2014-12-15 21:00","2014","12","15","21:00","-0.3","","-2.8","","83","","19","","4","","24.1","","101.60","","","","-2","","Snow"
"2014-12-15 22:00","2014","12","15","22:00","-0.8","","-2.5","","88","","8","","3","","24.1","","101.53","","","","-2","","Cloudy"
"2014-12-15 23:00","2014","12","15","23:00","-0.6","","-2.7","","86","","0","","1","","24.1","","101.54","","","","-1","","NA"
"2014-12-16 00:00","2014","12","16","00:00","-0.2","","-2.6","","84","","13","","7","","24.1","","101.51","","","","-3","","NA"
"2014-12-16 01:00","2014","12","16","01:00","-0.8","","-2.4","","89","","13","","12","","24.1","","101.49","","","","-5","","Cloudy"
"2014-12-16 02:00","2014","12","16","02:00","-0.9","","-2.3","","90","","10","","10","","24.1","","101.50","","","","-4","","NA"
"2014-12-16 03:00","2014","12","16","03:00","-1.0","","-2.4","","90","","10","","10","","16.1","","101.45","","","","-5","","NA"
"2014-12-16 04:00","2014","12","16","04:00","-1.0","","-2.3","","91","","7","","11","","8.1","","101.43","","","","-5","","Fog"
"2014-12-16 05:00","2014","12","16","05:00","-1.2","","-2.3","","92","","9","","12","","6.4","","101.41","","","","-5","","Fog"
"2014-12-16 06:00","2014","12","16","06:00","-1.3","","-2.4","","92","","7","","14","","4.8","","101.41","","","","-6","","Snow,Fog"
"2014-12-16 07:00","2014","12","16","07:00","-1.1","","-2.7","","89","","8","","14","","12.9","","101.41","","","","-6","","Cloudy"
"2014-12-16 08:00","2014","12","16","08:00","-1.1","","-2.7","","89","","7","","17","","16.1","","101.39","","","","-6","","NA"
"2014-12-16 09:00","2014","12","16","09:00","-0.8","","-2.9","","86","","8","","19","","19.3","","101.42","","","","-6","","NA"
"2014-12-16 10:00","2014","12","16","10:00","-0.8","","-3.0","","85","","7","","21","","16.1","","101.38","","","","-6","","Cloudy"
"2014-12-16 11:00","2014","12","16","11:00","-0.6","","-2.8","","85","","7","","16","","16.1","","101.31","","","","-5","","NA"
"2014-12-16 12:00","2014","12","16","12:00","-0.8","","-2.5","","88","","5","","15","","12.9","","101.20","","","","-5","","NA"
"2014-12-16 13:00","2014","12","16","13:00","-0.7","","-2.4","","88","","4","","20","","11.3","","101.13","","","","-6","","Cloudy"
"2014-12-16 14:00","2014","12","16","14:00","-0.5","","-2.4","","87","","4","","18","","11.3","","101.10","","","","-6","","Freezing Drizzle"
"2014-12-16 15:00","2014","12","16","15:00","-0.4","","-2.3","","87","","4","","13","","11.3","","101.08","","","","-5","","Freezing Drizzle"
"2014-12-16 16:00","2014","12","16","16:00","-0.5","","-1.8","","91","","1","","11","","8.1","","101.10","","","","-4","","Freezing Drizzle,Fog"
"2014-12-16 17:00","2014","12","16","17:00","-0.8","","-1.7","","94","","3","","22","","6.4","","101.00","","","","-7","","Freezing Drizzle,Fog"
"2014-12-16 18:00","2014","12","16","18:00","-0.6","","-1.6","","93","","4","","21","","8.1","","100.98","","","","-6","","Fog"
"2014-12-16 19:00","2014","12","16","19:00","-0.3","","-1.3","","93","","4","","21","","8.1","","100.90","","","","-6","","Fog"
"2014-12-16 20:00","2014","12","16","20:00","0.1","","-0.8","","94","","4","","15","","6.4","","100.88","","","","","","Fog"
"2014-12-16 21:00","2014","12","16","21:00","0.3","","-0.7","","93","","2","","16","","6.4","","100.84","","","","","","Fog"
"2014-12-16 22:00","2014","12","16","22:00","0.4","","-0.6","","93","","4","","18","","4.8","","100.77","","","","","","Fog"
"2014-12-16 23:00","2014","12","16","23:00","0.4","","-0.6","","93","","3","","16","","6.4","","100.73","","","","","","Fog"
"2014-12-17 00:00","2014","12","17","00:00","0.6","","-0.4","","93","","4","","18","","4.8","","100.71","","","","","","Fog"
"2014-12-17 01:00","2014","12","17","01:00","0.5","","-0.4","","94","","3","","16","","4.8","","100.66","","","","","","Rain,Fog"
"2014-12-17 02:00","2014","12","17","02:00","0.4","","-0.3","","95","","3","","17","","4.8","","100.65","","","","","","Fog"
"2014-12-17 03:00","2014","12","17","03:00","0.2","","-0.5","","95","","3","","18","","3.6","","100.61","","","","","","Rain,Fog"
"2014-12-17 04:00","2014","12","17","04:00","0.2","","-0.4","","96","","3","","18","","3.2","","100.55","","","","","","Rain,Fog"
"2014-12-17 05:00","2014","12","17","05:00","-0.2","","-0.8","","96","","2","","16","","2.4","","100.52","","","","-5","","Freezing Rain,Fog"
"2014-12-17 06:00","2014","12","17","06:00","-0.1","","-0.7","","96","","2","","17","","2.4","","100.54","","","","-5","","Freezing Rain,Fog"
"2014-12-17 07:00","2014","12","17","07:00","0.0","","-0.6","","96","","2","","14","","2.4","","100.52","","","","-4","","Drizzle,Fog"
"2014-12-17 08:00","2014","12","17","08:00","-0.1","","-0.7","","96","","2","","16","","1.6","","100.52","","","","-5","","Freezing Rain,Fog"
"2014-12-17 09:00","2014","12","17","09:00","-0.1","","-0.7","","96","","2","","17","","1.6","","100.53","","","","-5","","Freezing Rain,Fog"
"2014-12-17 10:00","2014","12","17","10:00","-0.2","","-0.8","","96","","1","","16","","1.2","","100.51","","","","-5","","Freezing Drizzle,Fog"
"2014-12-17 11:00","2014","12","17","11:00","-0.1","","-0.7","","96","","2","","17","","1.6","","100.46","","","","-5","","Freezing Rain,Fog"
"2014-12-17 12:00","2014","12","17","12:00","0.0","","-0.6","","96","","2","","14","","1.2","","100.39","","","","-4","","Drizzle,Fog"
"2014-12-17 13:00","2014","12","17","13:00","0.1","","-0.5","","96","","2","","16","","1.6","","100.34","","","","","","Rain,Fog"
"2014-12-17 14:00","2014","12","17","14:00","0.2","","-0.4","","96","","36","","13","","2.8","","100.33","","","","","","Rain,Fog"
"2014-12-17 15:00","2014","12","17","15:00","0.1","","-0.6","","95","","2","","15","","6.4","","100.35","","","","","","Rain,Fog"
"2014-12-17 16:00","2014","12","17","16:00","0.1","","-0.5","","96","","1","","10","","2.0","","100.38","","","","","","Drizzle,Fog"
"2014-12-17 17:00","2014","12","17","17:00","0.2","","-0.4","","96","","1","","8","","3.2","","100.40","","","","","","Drizzle,Snow,Fog"
"2014-12-17 18:00","2014","12","17","18:00","0.2","","-0.4","","96","","36","","7","","4.8","","100.42","","","","","","Snow,Fog"
"2014-12-17 19:00","2014","12","17","19:00","0.2","","-0.4","","96","","34","","5","","6.4","","100.43","","","","","","Snow,Fog"
"2014-12-17 20:00","2014","12","17","20:00","0.2","","-0.4","","96","","33","","4","","6.4","","100.42","","","","","","Snow,Fog"
"2014-12-17 21:00","2014","12","17","21:00","0.3","","-0.3","","96","","32","","6","","4.8","","100.41","","","","","","Snow,Fog"
"2014-12-17 22:00","2014","12","17","22:00","0.1","","-0.3","","97","","35","","5","","2.4","","100.40","","","","","","Snow,Fog"
"2014-12-17 23:00","2014","12","17","23:00","0.0","","-0.4","","97","","34","","7","","1.2","","100.39","","","","-2","","Snow,Fog"
"2014-12-18 00:00","2014","12","18","00:00","-0.1","","-0.5","","97","","29","","6","","4.8","","100.36","","","","-2","","Snow,Fog"
"2014-12-18 01:00","2014","12","18","01:00","-0.1","","-0.5","","97","","31","","7","","4.8","","100.36","","","","-3","","Snow,Fog"
"2014-12-18 02:00","2014","12","18","02:00","-0.1","","-0.7","","96","","30","","8","","4.0","","100.39","","","","-3","","Snow,Fog"
"2014-12-18 03:00","2014","12","18","03:00","-0.1","","-0.7","","96","","29","","8","","6.4","","100.43","","","","-3","","Snow,Fog"
"2014-12-18 04:00","2014","12","18","04:00","-0.1","","-0.8","","95","","28","","8","","4.0","","100.45","","","","-3","","Snow,Fog"
"2014-12-18 05:00","2014","12","18","05:00","-0.1","","-0.7","","96","","28","","6","","3.2","","100.46","","","","-2","","Snow,Fog"
"2014-12-18 06:00","2014","12","18","06:00","-0.1","","-0.7","","96","","26","","8","","2.0","","100.49","","","","-3","","Snow,Fog"
"2014-12-18 07:00","2014","12","18","07:00","0.2","","-0.4","","96","","27","","10","","6.4","","100.53","","","","","","Snow,Fog"
"2014-12-18 08:00","2014","12","18","08:00","0.2","","-0.4","","96","","30","","8","","3.6","","100.58","","","","","","Snow,Fog"
"2014-12-18 09:00","2014","12","18","09:00","0.3","","-0.4","","95","","30","","10","","3.2","","100.66","","","","","","Snow,Fog"
"2014-12-18 10:00","2014","12","18","10:00","0.4","","-1.1","","90","","32","","15","","4.8","","100.72","","","","","","Snow,Fog"
"2014-12-18 11:00","2014","12","18","11:00","0.3","","-1.3","","89","","31","","11","","8.1","","100.72","","","","","","Snow,Fog"
"2014-12-18 12:00","2014","12","18","12:00","0.1","","-1.8","","87","","28","","19","","9.7","","100.71","","","","","","Snow,Fog"
"2014-12-18 13:00","2014","12","18","13:00","0.2","","-2.0","","85","","28","","17","","24.1","","100.70","","","","","","Snow"
"2014-12-18 14:00","2014","12","18","14:00","0.1","","-2.6","","82","","28","","19","","24.1","","100.73","","","","","","NA"
"2014-12-18 15:00","2014","12","18","15:00","-0.1","","-3.1","","80","","28","","22","","24.1","","100.75","","","","-6","","NA"
"2014-12-18 16:00","2014","12","18","16:00","-0.4","","-3.3","","81","","29","","14","","24.1","","100.81","","","","-5","","Cloudy"
"2014-12-18 17:00","2014","12","18","17:00","-0.7","","-3.7","","80","","28","","16","","24.1","","100.87","","","","-5","","NA"
"2014-12-18 18:00","2014","12","18","18:00","-0.9","","-3.9","","80","","27","","18","","24.1","","100.91","","","","-6","","NA"
"2014-12-18 19:00","2014","12","18","19:00","-1.1","","-4.0","","81","","27","","17","","24.1","","100.94","","","","-6","","Cloudy"
"2014-12-18 20:00","2014","12","18","20:00","-1.3","","-4.2","","81","","27","","18","","24.1","","100.97","","","","-7","","NA"
"2014-12-18 21:00","2014","12","18","21:00","-1.7","","-3.9","","85","","26","","15","","24.1","","100.97","","","","-7","","NA"
"2014-12-18 22:00","2014","12","18","22:00","-1.9","","-4.1","","85","","27","","13","","24.1","","100.96","","","","-6","","Snow"
"2014-12-18 23:00","2014","12","18","23:00","-2.2","","-4.4","","85","","26","","13","","24.1","","100.98","","","","-7","","Snow"
"2014-12-19 00:00","2014","12","19","00:00","-2.1","","-4.9","","81","","28","","15","","24.1","","100.98","","","","-7","","Snow"
"2014-12-19 01:00","2014","12","19","01:00","-2.4","","-5.7","","78","","30","","18","","24.1","","101.00","","","","-8","","Mostly Cloudy"
"2014-12-19 02:00","2014","12","19","02:00","-2.8","","-6.1","","78","","28","","15","","24.1","","101.04","","","","-8","","NA"
"2014-12-19 03:00","2014","12","19","03:00","-3.1","","-6.6","","77","","29","","14","","24.1","","101.07","","","","-8","","NA"
"2014-12-19 04:00","2014","12","19","04:00","-3.3","","-6.8","","77","","29","","15","","24.1","","101.08","","","","-8","","Mostly Cloudy"
"2014-12-19 05:00","2014","12","19","05:00","-3.6","","-6.7","","79","","29","","15","","24.1","","101.12","","","","-9","","NA"
"2014-12-19 06:00","2014","12","19","06:00","-3.9","","-7.0","","79","","29","","10","","24.1","","101.19","","","","-8","","NA"
"2014-12-19 07:00","2014","12","19","07:00","-4.2","","-7.5","","78","","28","","9","","24.1","","101.25","","","","-8","","Mostly Cloudy"
"2014-12-19 08:00","2014","12","19","08:00","-4.6","","-8.0","","77","","28","","15","","24.1","","101.34","","","","-10","","NA"
"2014-12-19 09:00","2014","12","19","09:00","-5.4","","-9.3","","74","","27","","21","","24.1","","101.41","","","","-12","","NA"
"2014-12-19 10:00","2014","12","19","10:00","-5.4","","-9.7","","72","","28","","21","","24.1","","101.51","","","","-12","","Mostly Cloudy"
"2014-12-19 11:00","2014","12","19","11:00","-4.9","","-9.0","","73","","26","","16","","24.1","","101.50","","","","-11","","NA"
"2014-12-19 12:00","2014","12","19","12:00","-4.6","","-9.5","","69","","26","","18","","24.1","","101.52","","","","-11","","NA"
"2014-12-19 13:00","2014","12","19","13:00","-4.8","","-9.8","","68","","26","","14","","24.1","","101.50","","","","-10","","Mainly Clear"
"2014-12-19 14:00","2014","12","19","14:00","-4.4","","-10.0","","65","","27","","16","","24.1","","101.52","","","","-10","","NA"
"2014-12-19 15:00","2014","12","19","15:00","-5.0","","-10.0","","68","","25","","18","","24.1","","101.57","","","","-11","","NA"
"2014-12-19 16:00","2014","12","19","16:00","-6.3","","-10.9","","70","","24","","16","","24.1","","101.65","","","","-12","","Clear"
"2014-12-19 17:00","2014","12","19","17:00","-6.6","","-11.0","","71","","24","","18","","24.1","","101.73","","","","-13","","NA"
"2014-12-19 18:00","2014","12","19","18:00","-6.8","","-11.0","","72","","24","","18","","24.1","","101.84","","","","-13","","NA"
"2014-12-19 19:00","2014","12","19","19:00","-7.4","","-11.4","","73","","25","","19","","24.1","","101.90","","","","-14","","Clear"
"2014-12-19 20:00","2014","12","19","20:00","-8.5","","-12.0","","76","","23","","14","","24.1","","101.92","","","","-15","","NA"
"2014-12-19 21:00","2014","12","19","21:00","-8.8","","-12.1","","77","","23","","13","","24.1","","101.94","","","","-15","","NA"
"2014-12-19 22:00","2014","12","19","22:00","-9.8","","-13.1","","77","","25","","12","","24.1","","101.97","","","","-16","","Clear"
"2014-12-19 23:00","2014","12","19","23:00","-9.9","","-12.7","","80","","27","","8","","24.1","","102.00","","","","-14","","NA"
"2014-12-20 00:00","2014","12","20","00:00","-10.1","","-12.6","","82","","26","","7","","24.1","","102.01","","","","-14","","NA"
"2014-12-20 01:00","2014","12","20","01:00","-11.1","","-13.2","","85","","24","","8","","24.1","","102.06","","","","-16","","Clear"
"2014-12-20 02:00","2014","12","20","02:00","-11.2","","-13.3","","85","","28","","5","","24.1","","102.10","","","","-14","","NA"
"2014-12-20 03:00","2014","12","20","03:00","-10.7","","-12.5","","87","","23","","3","","24.1","","102.13","","","","-13","","NA"
"2014-12-20 04:00","2014","12","20","04:00","-13.4","","-15.3","","86","","35","","3","","24.1","","102.13","","","","-15","","Clear"
"2014-12-20 05:00","2014","12","20","05:00","-12.6","","-14.5","","86","","35","","4","","24.1","","102.16","","","","-15","","NA"
"2014-12-20 06:00","2014","12","20","06:00","-12.7","","-14.7","","85","","36","","3","","24.1","","102.21","","","","-15","","NA"
"2014-12-20 07:00","2014","12","20","07:00","-13.1","","-15.0","","86","","33","","7","","24.1","","102.26","","","","-18","","Clear"
"2014-12-20 08:00","2014","12","20","08:00","-12.4","","-14.3","","86","","34","","5","","24.1","","102.32","","","","-16","","NA"
"2014-12-20 09:00","2014","12","20","09:00","-11.6","","-13.5","","86","","1","","9","","24.1","","102.38","","","","-17","","NA"
"2014-12-20 10:00","2014","12","20","10:00","-8.9","","-11.8","","80","","2","","10","","24.1","","102.40","","","","-14","","Clear"
"2014-12-20 11:00","2014","12","20","11:00","-7.8","","-11.0","","78","","1","","9","","24.1","","102.37","","","","-12","","NA"
"2014-12-20 12:00","2014","12","20","12:00","-7.9","","-11.6","","75","","2","","15","","19.3","","102.32","","","","-14","","NA"
"2014-12-20 13:00","2014","12","20","13:00","-8.1","","-11.8","","75","","2","","14","","19.3","","102.30","","","","-14","","Clear"
"2014-12-20 14:00","2014","12","20","14:00","-8.0","","-11.7","","75","","2","","9","","19.3","","102.31","","","","-13","","NA"
"2014-12-20 15:00","2014","12","20","15:00","-8.0","","-11.9","","74","","36","","10","","19.3","","102.31","","","","-13","","NA"
"2014-12-20 16:00","2014","12","20","16:00","-8.6","","-11.8","","78","","3","","12","","16.1","","102.31","","","","-14","","Mainly Clear"
"2014-12-20 17:00","2014","12","20","17:00","-10.7","","-12.8","","85","","5","","11","","16.1","","102.33","","","","-16","","NA"
"2014-12-20 18:00","2014","12","20","18:00","-11.3","","-13.3","","85","","5","","15","","16.1","","102.33","","","","-18","","NA"
"2014-12-20 19:00","2014","12","20","19:00","-11.9","","-13.8","","86","","5","","11","","19.3","","102.35","","","","-18","","Mainly Clear"
"2014-12-20 20:00","2014","12","20","20:00","-12.1","","-14.1","","85","","4","","10","","19.3","","102.39","","","","-18","","NA"
"2014-12-20 21:00","2014","12","20","21:00","-12.2","","-14.1","","86","","3","","13","","19.3","","102.40","","","","-19","","NA"
"2014-12-20 22:00","2014","12","20","22:00","-11.6","","-13.8","","84","","3","","12","","6.4","","102.41","","","","-18","","Fog"
"2014-12-20 23:00","2014","12","20","23:00","-11.8","","-13.7","","86","","5","","17","","6.4","","102.40","","","","-19","","Fog"
"2014-12-21 00:00","2014","12","21","00:00","-10.9","","-12.4","","89","","5","","11","","6.4","","102.40","","","","-17","","Fog"
"2014-12-21 01:00","2014","12","21","01:00","-10.3","","-11.9","","88","","1","","7","","6.4","","102.40","","","","-14","","Snow,Fog"
"2014-12-21 02:00","2014","12","21","02:00","-9.8","","-11.3","","89","","2","","10","","6.4","","102.43","","","","-15","","Snow,Fog"
"2014-12-21 03:00","2014","12","21","03:00","-9.6","","-11.1","","89","","36","","10","","6.4","","102.43","","","","-15","","Fog"
"2014-12-21 04:00","2014","12","21","04:00","-9.2","","-10.8","","88","","3","","9","","6.4","","102.40","","","","-14","","Snow,Fog"
"2014-12-21 05:00","2014","12","21","05:00","-9.1","","-10.9","","87","","2","","12","","6.4","","102.38","","","","-15","","Snow,Fog"
"2014-12-21 06:00","2014","12","21","06:00","-9.1","","-10.9","","87","","3","","13","","8.1","","102.41","","","","-15","","Fog"
"2014-12-21 07:00","2014","12","21","07:00","-8.9","","-10.5","","88","","6","","13","","6.4","","102.45","","","","-15","","Snow,Fog"
"2014-12-21 08:00","2014","12","21","08:00","-8.7","","-10.8","","85","","4","","15","","2.4","","102.46","","","","-15","","Snow,Fog"
"2014-12-21 09:00","2014","12","21","09:00","-8.7","","-10.5","","87","","3","","14","","8.1","","102.50","","","","-15","","Snow,Fog"
"2014-12-21 10:00","2014","12","21","10:00","-8.4","","-10.5","","85","","2","","11","","4.8","","102.52","","","","-14","","Snow,Fog"
"2014-12-21 11:00","2014","12","21","11:00","-8.0","","-10.7","","81","","1","","13","","16.1","","102.50","","","","-14","","Snow"
"2014-12-21 12:00","2014","12","21","12:00","-7.8","","-10.8","","79","","36","","11","","16.1","","102.46","","","","-13","","Snow"
"2014-12-21 13:00","2014","12","21","13:00","-7.7","","-10.7","","79","","3","","11","","16.1","","102.42","","","","-13","","Snow"
"2014-12-21 14:00","2014","12","21","14:00","-7.5","","-10.5","","79","","4","","10","","19.3","","102.39","","","","-12","","Snow"
"2014-12-21 15:00","2014","12","21","15:00","-7.2","","-10.3","","79","","6","","10","","16.1","","102.43","","","","-12","","Snow"
"2014-12-21 16:00","2014","12","21","16:00","-7.5","","-10.2","","81","","9","","8","","16.1","","102.45","","","","-12","","Snow"
"2014-12-21 17:00","2014","12","21","17:00","-7.6","","-10.3","","81","","7","","9","","16.1","","102.45","","","","-12","","Snow"
"2014-12-21 18:00","2014","12","21","18:00","-7.6","","-10.5","","80","","4","","13","","19.3","","102.49","","","","-13","","Snow"
"2014-12-21 19:00","2014","12","21","19:00","-7.7","","-10.6","","80","","4","","12","","24.1","","102.54","","","","-13","","Cloudy"
"2014-12-21 20:00","2014","12","21","20:00","-7.9","","-10.9","","79","","5","","13","","24.1","","102.54","","","","-14","","NA"
"2014-12-21 21:00","2014","12","21","21:00","-8.0","","-11.0","","79","","5","","14","","24.1","","102.54","","","","-14","","NA"
"2014-12-21 22:00","2014","12","21","22:00","-8.0","","-11.0","","79","","3","","12","","24.1","","102.57","","","","-13","","Cloudy"
"2014-12-21 23:00","2014","12","21","23:00","-8.7","","-11.7","","79","","5","","15","","19.3","","102.57","","","","-15","","NA"
"2014-12-22 00:00","2014","12","22","00:00","-8.2","","-10.9","","81","","5","","14","","16.1","","102.56","","","","-14","","NA"
"2014-12-22 01:00","2014","12","22","01:00","-8.7","","-11.1","","83","","4","","13","","16.1","","102.54","","","","-15","","Mostly Cloudy"
"2014-12-22 02:00","2014","12","22","02:00","-8.3","","-10.9","","82","","4","","18","","16.1","","102.56","","","","-15","","NA"
"2014-12-22 03:00","2014","12","22","03:00","-8.1","","-10.7","","82","","4","","17","","16.1","","102.57","","","","-15","","NA"
"2014-12-22 04:00","2014","12","22","04:00","-7.9","","-10.2","","84","","4","","16","","16.1","","102.53","","","","-14","","Cloudy"
"2014-12-22 05:00","2014","12","22","05:00","-7.8","","-10.4","","82","","3","","17","","19.3","","102.54","","","","-14","","NA"
"2014-12-22 06:00","2014","12","22","06:00","-7.8","","-10.4","","82","","2","","15","","19.3","","102.60","","","","-14","","NA"
"2014-12-22 07:00","2014","12","22","07:00","-7.6","","-9.9","","84","","2","","14","","19.3","","102.59","","","","-14","","Cloudy"
"2014-12-22 08:00","2014","12","22","08:00","-7.7","","-9.8","","85","","4","","16","","12.9","","102.60","","","","-14","","NA"
"2014-12-22 09:00","2014","12","22","09:00","-7.3","","-9.6","","84","","5","","18","","4.8","","102.58","","","","-14","","Snow,Fog"
"2014-12-22 10:00","2014","12","22","10:00","-6.8","","-9.2","","83","","5","","14","","6.4","","102.61","","","","-13","","Snow,Fog"
"2014-12-22 11:00","2014","12","22","11:00","-6.6","","-8.9","","84","","5","","11","","6.4","","102.56","","","","-12","","Snow,Fog"
"2014-12-22 12:00","2014","12","22","12:00","-6.4","","-8.8","","83","","3","","12","","8.1","","102.50","","","","-12","","Snow,Fog"
"2014-12-22 13:00","2014","12","22","13:00","-6.2","","-8.8","","82","","2","","14","","9.7","","102.44","","","","-12","","Fog"
"2014-12-22 14:00","2014","12","22","14:00","-6.3","","-8.6","","84","","3","","22","","9.7","","102.38","","","","-14","","Snow,Fog"
"2014-12-22 15:00","2014","12","22","15:00","-6.3","","-8.4","","85","","4","","28","","12.9","","102.29","","","","-14","","NA"
"2014-12-22 16:00","2014","12","22","16:00","-6.8","","-9.1","","84","","5","","16","","12.9","","102.35","","","","-13","","Mostly Cloudy"
"2014-12-22 17:00","2014","12","22","17:00","-7.6","","-9.7","","85","","4","","18","","12.9","","102.36","","","","-14","","NA"
"2014-12-22 18:00","2014","12","22","18:00","-7.1","","-9.4","","84","","4","","14","","16.1","","102.31","","","","-13","","NA"
"2014-12-22 19:00","2014","12","22","19:00","-6.7","","-8.7","","86","","3","","19","","16.1","","102.27","","","","-14","","Cloudy"
"2014-12-22 20:00","2014","12","22","20:00","-6.8","","-8.9","","85","","3","","21","","16.1","","102.24","","","","-14","","NA"
"2014-12-22 21:00","2014","12","22","21:00","-6.6","","-8.9","","84","","3","","15","","16.1","","102.25","","","","-13","","NA"
"2014-12-22 22:00","2014","12","22","22:00","-6.5","","-8.9","","83","","36","","16","","16.1","","102.20","","","","-13","","Cloudy"
"2014-12-22 23:00","2014","12","22","23:00","-6.1","","-8.4","","84","","4","","18","","16.1","","102.14","","","","-13","","NA"
"2014-12-23 00:00","2014","12","23","00:00","-5.8","","-8.1","","84","","4","","12","","16.1","","102.06","","","","-11","","NA"
"2014-12-23 01:00","2014","12","23","01:00","-5.7","","-7.8","","85","","4","","16","","16.1","","102.03","","","","-12","","Cloudy"
"2014-12-23 02:00","2014","12","23","02:00","-4.9","","-6.9","","86","","4","","17","","16.1","","102.04","","","","-11","","NA"
"2014-12-23 03:00","2014","12","23","03:00","-4.4","","-6.4","","86","","4","","17","","16.1","","102.03","","","","-10","","NA"
"2014-12-23 04:00","2014","12","23","04:00","-4.4","","-6.3","","87","","3","","13","","2.8","","102.01","","","","-9","","Snow"
"2014-12-23 05:00","2014","12","23","05:00","-4.2","","-5.6","","90","","3","","17","","3.2","","101.96","","","","-10","","Snow"
"2014-12-23 06:00","2014","12","23","06:00","-3.7","","-5.0","","91","","2","","17","","2.8","","101.93","","","","-9","","Snow"
"2014-12-23 07:00","2014","12","23","07:00","-3.5","","-4.6","","92","","2","","16","","2.4","","101.92","","","","-9","","Snow"
"2014-12-23 08:00","2014","12","23","08:00","-2.8","","-3.9","","92","","2","","17","","3.6","","101.90","","","","-8","","Freezing Rain,Ice Pellets"
"2014-12-23 09:00","2014","12","23","09:00","-1.3","","-2.3","","93","","4","","13","","4.8","","101.89","","","","-6","","Freezing Rain,Fog"
"2014-12-23 10:00","2014","12","23","10:00","-0.6","","-1.7","","92","","3","","14","","4.8","","101.88","","","","-5","","Freezing Rain,Fog"
"2014-12-23 11:00","2014","12","23","11:00","0.7","","-0.5","","92","","5","","15","","6.4","","101.78","","","","","","Drizzle,Fog"
"2014-12-23 12:00","2014","12","23","12:00","1.2","","-0.1","","91","","6","","14","","6.4","","101.67","","","","","","Fog"
"2014-12-23 13:00","2014","12","23","13:00","1.8","","0.0","","88","","5","","14","","11.3","","101.61","","","","","","Cloudy"
"2014-12-23 14:00","2014","12","23","14:00","1.6","","0.0","","89","","4","","14","","6.4","","101.58","","","","","","Drizzle,Fog"
"2014-12-23 15:00","2014","12","23","15:00","1.4","","0.1","","91","","5","","21","","6.4","","101.59","","","","","","Drizzle,Fog"
"2014-12-23 16:00","2014","12","23","16:00","1.3","","0.0","","91","","4","","19","","12.9","","101.59","","","","","","Drizzle"
"2014-12-23 17:00","2014","12","23","17:00","1.2","","0.1","","92","","4","","20","","12.9","","101.58","","","","","","NA"
"2014-12-23 18:00","2014","12","23","18:00","1.2","","0.1","","92","","4","","20","","12.9","","101.57","","","","","","Drizzle"
"2014-12-23 19:00","2014","12","23","19:00","1.2","","0.2","","93","","5","","14","","6.4","","101.55","","","","","","Drizzle,Fog"
"2014-12-23 20:00","2014","12","23","20:00","2.9","","1.6","","91","","7","","16","","9.7","","101.52","","","","","","Drizzle,Fog"
"2014-12-23 21:00","2014","12","23","21:00","3.0","","1.7","","91","","8","","18","","6.4","","101.53","","","","","","Rain,Fog"
"2014-12-23 22:00","2014","12","23","22:00","2.7","","1.7","","93","","7","","18","","4.8","","101.44","","","","","","Drizzle,Fog"
"2014-12-23 23:00","2014","12","23","23:00","2.7","","1.8","","94","","7","","14","","6.4","","101.41","","","","","","NA"
"2014-12-24 00:00","2014","12","24","00:00","2.5","","1.8","","95","","9","","13","","6.4","","101.36","","","","","","Drizzle,Fog"
"2014-12-24 01:00","2014","12","24","01:00","2.8","","2.1","","95","","8","","16","","9.7","","101.30","","","","","","Drizzle,Fog"
"2014-12-24 02:00","2014","12","24","02:00","2.8","","2.1","","95","","9","","15","","8.1","","101.20","","","","","","Drizzle,Fog"
"2014-12-24 03:00","2014","12","24","03:00","3.2","","2.0","","92","","9","","9","","24.1","","101.14","","","","","","NA"
"2014-12-24 04:00","2014","12","24","04:00","3.3","","1.7","","89","","9","","12","","24.1","","101.10","","","","","","Cloudy"
"2014-12-24 05:00","2014","12","24","05:00","4.0","","2.0","","87","","8","","11","","24.1","","101.12","","","","","","NA"
"2014-12-24 06:00","2014","12","24","06:00","3.8","","1.8","","87","","7","","14","","24.1","","100.98","","","","","","NA"
"2014-12-24 07:00","2014","12","24","07:00","4.6","","2.5","","86","","11","","19","","24.1","","100.86","","","","","","Mostly Cloudy"
"2014-12-24 08:00","2014","12","24","08:00","4.5","","2.7","","88","","10","","12","","16.1","","100.77","","","","","","Rain"
"2014-12-24 09:00","2014","12","24","09:00","4.5","","3.3","","92","","12","","16","","19.3","","100.70","","","","","","Rain"
"2014-12-24 10:00","2014","12","24","10:00","4.7","","3.7","","93","","12","","17","","16.1","","100.65","","","","","","Rain"
"2014-12-24 11:00","2014","12","24","11:00","4.8","","3.9","","94","","12","","14","","16.1","","100.49","","","","","","Rain"
"2014-12-24 12:00","2014","12","24","12:00","5.2","","4.3","","94","","15","","27","","12.9","","100.37","","","","","","Rain"
"2014-12-24 13:00","2014","12","24","13:00","5.8","","4.9","","94","","13","","23","","8.1","","100.16","","","","","","Rain,Fog"
"2014-12-24 14:00","2014","12","24","14:00","5.6","","4.4","","92","","14","","21","","12.9","","100.09","","","","","","Rain"
"2014-12-24 15:00","2014","12","24","15:00","5.2","","4.5","","95","","14","","21","","12.9","","99.97","","","","","","Rain"
"2014-12-24 16:00","2014","12","24","16:00","5.5","","4.6","","94","","13","","17","","11.3","","99.96","","","","","","Rain"
"2014-12-24 17:00","2014","12","24","17:00","5.5","","4.8","","95","","11","","17","","24.1","","99.81","","","","","","Rain"
"2014-12-24 18:00","2014","12","24","18:00","5.2","","4.6","","96","","11","","19","","24.1","","99.67","","","","","","Rain"
"2014-12-24 19:00","2014","12","24","19:00","5.2","","4.5","","95","","12","","19","","24.1","","99.54","","","","","","Rain"
"2014-12-24 20:00","2014","12","24","20:00","5.3","","4.6","","95","","11","","15","","19.3","","99.38","","","","","","Rain"
"2014-12-24 21:00","2014","12","24","21:00","5.4","","4.7","","95","","10","","7","","24.1","","99.28","","","","","","NA"
"2014-12-24 22:00","2014","12","24","22:00","5.9","","5.3","","96","","8","","10","","24.1","","99.20","","","","","","Mostly Cloudy"
"2014-12-24 23:00","2014","12","24","23:00","3.7","","3.3","","97","","1","","12","","24.1","","99.11","","","","","","NA"
"2014-12-25 00:00","2014","12","25","00:00","2.5","","2.1","","97","","4","","13","","24.1","","98.95","","","","","","NA"
"2014-12-25 01:00","2014","12","25","01:00","5.3","","5.0","","98","","10","","14","","24.1","","98.75","","","","","","Cloudy"
"2014-12-25 02:00","2014","12","25","02:00","6.0","","5.6","","97","","14","","14","","9.7","","98.65","","","","","","Fog"
"2014-12-25 03:00","2014","12","25","03:00","7.1","","6.7","","97","","15","","22","","24.1","","98.60","","","","","","NA"
"2014-12-25 04:00","2014","12","25","04:00","7.3","","6.7","","96","","22","","36","","12.9","","98.74","","","","","","Rain Showers"
"2014-12-25 05:00","2014","12","25","05:00","7.1","","4.9","","86","","23","","41","","24.1","","98.72","","","","","","Rain"
"2014-12-25 06:00","2014","12","25","06:00","6.1","","1.1","","70","","23","","64","","24.1","","98.81","","","","","","NA"
"2014-12-25 07:00","2014","12","25","07:00","5.4","","0.8","","72","","23","","42","","24.1","","98.87","","","","","","Mostly Cloudy"
"2014-12-25 08:00","2014","12","25","08:00","5.1","","0.5","","72","","22","","47","","24.1","","98.89","","","","","","NA"
"2014-12-25 09:00","2014","12","25","09:00","5.5","","0.3","","69","","22","","57","","24.1","","98.99","","","","","","NA"
"2014-12-25 10:00","2014","12","25","10:00","5.7","","0.5","","69","","23","","52","","24.1","","99.06","","","","","","Mostly Cloudy"
"2014-12-25 11:00","2014","12","25","11:00","6.0","","0.1","","66","","23","","54","","24.1","","99.10","","","","","","NA"
"2014-12-25 12:00","2014","12","25","12:00","6.3","","0.4","","66","","24","","52","","24.1","","99.16","","","","","","NA"
"2014-12-25 13:00","2014","12","25","13:00","6.0","","0.1","","66","","24","","49","","24.1","","99.24","","","","","","Mostly Cloudy"
"2014-12-25 14:00","2014","12","25","14:00","5.8","","0.2","","67","","24","","48","","24.1","","99.40","","","","","","NA"
"2014-12-25 15:00","2014","12","25","15:00","5.5","","0.5","","70","","25","","37","","16.1","","99.61","","","","","","Rain Showers"
"2014-12-25 16:00","2014","12","25","16:00","3.7","","1.1","","83","","25","","37","","24.1","","99.79","","","","","","Mainly Clear"
"2014-12-25 17:00","2014","12","25","17:00","4.5","","0.1","","73","","24","","50","","24.1","","99.97","","","","","","Rain Showers"
"2014-12-25 18:00","2014","12","25","18:00","4.3","","-0.1","","73","","24","","43","","24.1","","100.15","","","","","","NA"
"2014-12-25 19:00","2014","12","25","19:00","4.3","","-2.8","","60","","25","","46","","24.1","","100.34","","","","","","Mostly Cloudy"
"2014-12-25 20:00","2014","12","25","20:00","3.7","","-1.7","","68","","24","","41","","24.1","","100.47","","","","","","NA"
"2014-12-25 21:00","2014","12","25","21:00","3.8","","-2.0","","66","","24","","35","","24.1","","100.54","","","","","","NA"
"2014-12-25 22:00","2014","12","25","22:00","3.7","","-1.5","","69","","23","","48","","24.1","","100.60","","","","","","Mostly Cloudy"
"2014-12-25 23:00","2014","12","25","23:00","3.7","","-1.9","","67","","24","","42","","24.1","","100.68","","","","","","NA"
"2014-12-26 00:00","2014","12","26","00:00","3.9","","-1.7","","67","","24","","40","","24.1","","100.76","","","","","","NA"
"2014-12-26 01:00","2014","12","26","01:00","3.7","","-1.7","","68","","25","","36","","24.1","","100.80","","","","","","Mostly Cloudy"
"2014-12-26 02:00","2014","12","26","02:00","3.7","","-1.9","","67","","24","","43","","24.1","","100.90","","","","","","NA"
"2014-12-26 03:00","2014","12","26","03:00","3.7","","-1.7","","68","","25","","39","","24.1","","101.02","","","","","","NA"
"2014-12-26 04:00","2014","12","26","04:00","3.5","","-1.5","","70","","25","","39","","24.1","","101.05","","","","","","Mostly Cloudy"
"2014-12-26 05:00","2014","12","26","05:00","3.2","","-1.2","","73","","24","","41","","24.1","","101.12","","","","","","NA"
"2014-12-26 06:00","2014","12","26","06:00","3.2","","-1.2","","73","","25","","35","","24.1","","101.17","","","","","","NA"
"2014-12-26 07:00","2014","12","26","07:00","2.8","","-1.2","","75","","24","","27","","24.1","","101.28","","","","","","Mostly Cloudy"
"2014-12-26 08:00","2014","12","26","08:00","2.9","","-1.1","","75","","24","","22","","24.1","","101.39","","","","","","NA"
"2014-12-26 09:00","2014","12","26","09:00","4.0","","-1.0","","70","","25","","30","","24.1","","101.48","","","","","","NA"
"2014-12-26 10:00","2014","12","26","10:00","3.9","","-1.1","","70","","24","","28","","24.1","","101.51","","","","","","Cloudy"
"2014-12-26 11:00","2014","12","26","11:00","4.1","","-0.7","","71","","24","","25","","24.1","","101.50","","","","","","NA"
"2014-12-26 12:00","2014","12","26","12:00","4.2","","-0.8","","70","","24","","24","","24.1","","101.45","","","","","","NA"
"2014-12-26 13:00","2014","12","26","13:00","4.4","","-0.6","","70","","24","","21","","24.1","","101.40","","","","","","Cloudy"
"2014-12-26 14:00","2014","12","26","14:00","3.8","","-0.8","","72","","22","","24","","24.1","","101.39","","","","","","NA"
"2014-12-26 15:00","2014","12","26","15:00","4.0","","-0.8","","71","","23","","21","","24.1","","101.43","","","","","","NA"
"2014-12-26 16:00","2014","12","26","16:00","3.8","","-1.0","","71","","23","","20","","24.1","","101.44","","","","","","Cloudy"
"2014-12-26 17:00","2014","12","26","17:00","3.1","","-0.9","","75","","22","","13","","24.1","","101.42","","","","","","NA"
"2014-12-26 18:00","2014","12","26","18:00","3.6","","-0.8","","73","","23","","20","","24.1","","101.47","","","","","","NA"
"2014-12-26 19:00","2014","12","26","19:00","3.6","","-0.4","","75","","23","","19","","24.1","","101.48","","","","","","Cloudy"
"2014-12-26 20:00","2014","12","26","20:00","4.0","","-0.4","","73","","25","","21","","24.1","","101.47","","","","","","NA"
"2014-12-26 21:00","2014","12","26","21:00","3.6","","-0.2","","76","","25","","19","","24.1","","101.50","","","","","","NA"
"2014-12-26 22:00","2014","12","26","22:00","3.5","","0.2","","79","","24","","18","","24.1","","101.47","","","","","","Cloudy"
"2014-12-26 23:00","2014","12","26","23:00","3.3","","0.4","","81","","23","","16","","24.1","","101.48","","","","","","NA"
"2014-12-27 00:00","2014","12","27","00:00","3.0","","0.4","","83","","24","","14","","24.1","","101.45","","","","","","NA"
"2014-12-27 01:00","2014","12","27","01:00","1.4","","-0.4","","88","","24","","14","","24.1","","101.44","","","","","","Clear"
"2014-12-27 02:00","2014","12","27","02:00","1.0","","-0.5","","90","","25","","14","","24.1","","101.49","","","","","","NA"
"2014-12-27 03:00","2014","12","27","03:00","1.7","","0.1","","89","","23","","14","","24.1","","101.52","","","","","","NA"
"2014-12-27 04:00","2014","12","27","04:00","1.7","","0.1","","89","","23","","16","","24.1","","101.54","","","","","","Mostly Cloudy"
"2014-12-27 05:00","2014","12","27","05:00","1.3","","0.0","","91","","","","0","","24.1","","101.59","","","","","","NA"
"2014-12-27 06:00","2014","12","27","06:00","1.6","","0.1","","90","","15","","3","","24.1","","101.64","","","","","","NA"
"2014-12-27 07:00","2014","12","27","07:00","1.8","","0.3","","90","","22","","10","","24.1","","101.66","","","","","","Cloudy"
"2014-12-27 08:00","2014","12","27","08:00","1.7","","0.2","","90","","22","","9","","24.1","","101.70","","","","","","NA"
"2014-12-27 09:00","2014","12","27","09:00","2.2","","0.7","","90","","22","","6","","24.1","","101.72","","","","","","NA"
"2014-12-27 10:00","2014","12","27","10:00","2.7","","0.8","","87","","21","","4","","24.1","","101.73","","","","","","Cloudy"
"2014-12-27 11:00","2014","12","27","11:00","3.3","","1.2","","86","","21","","15","","16.1","","101.67","","","","","","NA"
"2014-12-27 12:00","2014","12","27","12:00","3.3","","1.0","","85","","23","","11","","16.1","","101.57","","","","","","NA"
"2014-12-27 13:00","2014","12","27","13:00","3.5","","0.9","","83","","20","","9","","19.3","","101.45","","","","","","Cloudy"
"2014-12-27 14:00","2014","12","27","14:00","3.7","","1.1","","83","","36","","3","","24.1","","101.40","","","","","","NA"
"2014-12-27 15:00","2014","12","27","15:00","3.9","","0.9","","81","","18","","6","","19.3","","101.34","","","","","","NA"
"2014-12-27 16:00","2014","12","27","16:00","3.4","","1.0","","84","","11","","4","","24.1","","101.29","","","","","","Cloudy"
"2014-12-27 17:00","2014","12","27","17:00","4.0","","1.2","","82","","12","","10","","24.1","","101.25","","","","","","Rain Showers"
"2014-12-27 18:00","2014","12","27","18:00","4.1","","1.7","","84","","12","","13","","24.1","","101.14","","","","","","NA"
"2014-12-27 19:00","2014","12","27","19:00","4.0","","1.2","","82","","13","","16","","24.1","","101.00","","","","","","Rain Showers"
"2014-12-27 20:00","2014","12","27","20:00","4.0","","1.7","","85","","14","","18","","24.1","","100.83","","","","","","Rain Showers"
"2014-12-27 21:00","2014","12","27","21:00","4.3","","2.2","","86","","14","","13","","24.1","","100.63","","","","","","NA"
"2014-12-27 22:00","2014","12","27","22:00","5.2","","2.4","","82","","15","","26","","24.1","","100.48","","","","","","Cloudy"
"2014-12-27 23:00","2014","12","27","23:00","5.5","","2.7","","82","","16","","21","","24.1","","100.37","","","","","","NA"
"2014-12-28 00:00","2014","12","28","00:00","6.0","","2.8","","80","","20","","12","","19.3","","100.30","","","","","","NA"
"2014-12-28 01:00","2014","12","28","01:00","7.4","","5.1","","85","","22","","33","","19.3","","100.22","","","","","","Rain Showers"
"2014-12-28 02:00","2014","12","28","02:00","8.2","","5.2","","81","","23","","29","","24.1","","100.14","","","","","","NA"
"2014-12-28 03:00","2014","12","28","03:00","7.6","","4.9","","83","","23","","21","","24.1","","100.07","","","","","","NA"
"2014-12-28 04:00","2014","12","28","04:00","7.7","","5.5","","86","","22","","34","","24.1","","99.96","","","","","","Rain Showers"
"2014-12-28 05:00","2014","12","28","05:00","7.2","","5.7","","90","","23","","36","","24.1","","99.98","","","","","","Rain"
"2014-12-28 06:00","2014","12","28","06:00","7.3","","5.0","","85","","26","","31","","24.1","","100.02","","","","","","NA"
"2014-12-28 07:00","2014","12","28","07:00","5.7","","1.4","","74","","27","","32","","24.1","","100.11","","","","","","Mainly Clear"
"2014-12-28 08:00","2014","12","28","08:00","4.8","","-0.2","","70","","26","","28","","24.1","","100.21","","","","","","NA"
"2014-12-28 09:00","2014","12","28","09:00","4.6","","-0.6","","69","","25","","37","","24.1","","100.31","","","","","","NA"
"2014-12-28 10:00","2014","12","28","10:00","4.8","","-0.8","","67","","27","","38","","24.1","","100.41","","","","","","Mainly Clear"
"2014-12-28 11:00","2014","12","28","11:00","3.8","","-1.4","","69","","26","","35","","24.1","","100.39","","","","","","NA"
"2014-12-28 12:00","2014","12","28","12:00","4.2","","-2.0","","64","","25","","34","","48.3","","100.42","","","","","","NA"
"2014-12-28 13:00","2014","12","28","13:00","3.6","","-3.0","","62","","27","","34","","24.1","","100.47","","","","","","Mostly Cloudy"
"2014-12-28 14:00","2014","12","28","14:00","2.9","","-3.5","","63","","26","","25","","24.1","","100.58","","","","","","NA"
"2014-12-28 15:00","2014","12","28","15:00","2.3","","-4.9","","59","","25","","27","","24.1","","100.72","","","","","","NA"
"2014-12-28 16:00","2014","12","28","16:00","2.0","","-5.9","","56","","26","","22","","24.1","","100.75","","","","","","Mostly Cloudy"
"2014-12-28 17:00","2014","12","28","17:00","1.5","","-6.1","","57","","25","","24","","24.1","","100.82","","","","","","NA"
"2014-12-28 18:00","2014","12","28","18:00","1.1","","-6.7","","56","","26","","28","","24.1","","100.91","","","","","","NA"
"2014-12-28 19:00","2014","12","28","19:00","-0.2","","-7.7","","57","","27","","21","","24.1","","101.00","","","","-6","","Clear"
"2014-12-28 20:00","2014","12","28","20:00","-0.9","","-8.6","","56","","26","","17","","24.1","","101.08","","","","-6","","NA"
"2014-12-28 21:00","2014","12","28","21:00","-2.0","","-8.8","","60","","26","","11","","24.1","","101.10","","","","-6","","NA"
"2014-12-28 22:00","2014","12","28","22:00","-2.6","","-8.5","","64","","24","","7","","24.1","","101.10","","","","-5","","Mainly Clear"
"2014-12-28 23:00","2014","12","28","23:00","-1.3","","-7.5","","63","","22","","16","","24.1","","101.07","","","","-6","","NA"
"2014-12-29 00:00","2014","12","29","00:00","-0.9","","-7.1","","63","","21","","16","","24.1","","101.02","","","","-6","","NA"
"2014-12-29 01:00","2014","12","29","01:00","-1.2","","-7.0","","65","","25","","21","","24.1","","101.05","","","","-7","","Clear"
"2014-12-29 02:00","2014","12","29","02:00","-1.5","","-7.9","","62","","25","","21","","24.1","","101.12","","","","-7","","NA"
"2014-12-29 03:00","2014","12","29","03:00","-0.8","","-8.3","","57","","28","","31","","24.1","","101.19","","","","-8","","NA"
"2014-12-29 04:00","2014","12","29","04:00","-2.6","","-13.3","","44","","28","","34","","24.1","","101.25","","","","-10","","Mainly Clear"
"2014-12-29 05:00","2014","12","29","05:00","-4.4","","-16.7","","38","","29","","30","","24.1","","101.40","","","","-12","","NA"
"2014-12-29 06:00","2014","12","29","06:00","-5.9","","-15.3","","48","","28","","25","","24.1","","101.55","","","","-13","","NA"
"2014-12-29 07:00","2014","12","29","07:00","-6.8","","-14.6","","54","","28","","27","","24.1","","101.64","","","","-15","","NA"
"2014-12-29 08:00","2014","12","29","08:00","-7.9","","-17.4","","47","","31","","17","","24.1","","101.71","","","","-15","","NA"
"2014-12-29 09:00","2014","12","29","09:00","-7.6","","-16.1","","51","","28","","19","","48.3","","101.85","","","","-15","","NA"
"2014-12-29 10:00","2014","12","29","10:00","-7.0","","-16.5","","47","","28","","18","","48.3","","101.89","","","","-14","","Mainly Clear"
"2014-12-29 11:00","2014","12","29","11:00","-7.2","","-17.2","","45","","28","","17","","48.3","","101.89","","","","-14","","NA"
"2014-12-29 12:00","2014","12","29","12:00","-6.4","","-16.8","","44","","27","","23","","48.3","","101.85","","","","-14","","NA"
"2014-12-29 13:00","2014","12","29","13:00","-6.8","","-18.3","","40","","27","","24","","48.3","","101.83","","","","-14","","Mainly Clear"
"2014-12-29 14:00","2014","12","29","14:00","-6.4","","-17.1","","43","","29","","25","","48.3","","101.80","","","","-14","","NA"
"2014-12-29 15:00","2014","12","29","15:00","-6.5","","-17.2","","43","","27","","23","","48.3","","101.86","","","","-14","","NA"
"2014-12-29 16:00","2014","12","29","16:00","-7.1","","-17.2","","45","","27","","25","","48.3","","101.91","","","","-15","","Mostly Cloudy"
"2014-12-29 17:00","2014","12","29","17:00","-7.4","","-16.4","","49","","26","","16","","24.1","","101.94","","","","-14","","NA"
"2014-12-29 18:00","2014","12","29","18:00","-7.7","","-15.7","","53","","25","","18","","24.1","","101.98","","","","-15","","NA"
"2014-12-29 19:00","2014","12","29","19:00","-7.9","","-15.7","","54","","25","","16","","24.1","","102.02","","","","-14","","Mainly Clear"
"2014-12-29 20:00","2014","12","29","20:00","-8.1","","-15.6","","55","","28","","15","","24.1","","102.04","","","","-14","","NA"
"2014-12-29 21:00","2014","12","29","21:00","-8.1","","-15.9","","54","","28","","14","","24.1","","102.07","","","","-14","","NA"
"2014-12-29 22:00","2014","12","29","22:00","-8.6","","-16.3","","54","","31","","17","","24.1","","102.13","","","","-15","","Clear"
"2014-12-29 23:00","2014","12","29","23:00","-9.4","","-18.0","","50","","31","","15","","24.1","","102.17","","","","-16","","NA"
"2014-12-30 00:00","2014","12","30","00:00","-10.3","","-18.6","","51","","31","","17","","24.1","","102.22","","","","-18","","NA"
"2014-12-30 01:00","2014","12","30","01:00","-11.1","","-20.6","","46","","30","","14","","24.1","","102.26","","","","-18","","Clear"
"2014-12-30 02:00","2014","12","30","02:00","-11.8","","-20.8","","48","","31","","9","","24.1","","102.34","","","","-17","","NA"
"2014-12-30 03:00","2014","12","30","03:00","-12.4","","-21.6","","47","","32","","10","","24.1","","102.37","","","","-18","","NA"
"2014-12-30 04:00","2014","12","30","04:00","-13.2","","-22.6","","46","","30","","10","","24.1","","102.41","","","","-19","","Clear"
"2014-12-30 05:00","2014","12","30","05:00","-13.5","","-23.1","","45","","31","","9","","24.1","","102.47","","","","-19","","NA"
"2014-12-30 06:00","2014","12","30","06:00","-14.0","","-21.7","","53","","28","","11","","24.1","","102.50","","","","-20","","NA"
"2014-12-30 07:00","2014","12","30","07:00","-14.1","","-22.4","","50","","30","","12","","24.1","","102.55","","","","-21","","Clear"
"2014-12-30 08:00","2014","12","30","08:00","-14.3","","-21.9","","53","","30","","14","","48.3","","102.61","","","","-22","","NA"
"2014-12-30 09:00","2014","12","30","09:00","-14.0","","-21.9","","52","","29","","17","","48.3","","102.64","","","","-22","","NA"
"2014-12-30 10:00","2014","12","30","10:00","-13.1","","-22.2","","47","","29","","14","","48.3","","102.67","","","","-20","","Clear"
"2014-12-30 11:00","2014","12","30","11:00","-12.4","","-22.1","","45","","25","","25","","48.3","","102.63","","","","-22","","NA"
"2014-12-30 12:00","2014","12","30","12:00","-12.1","","-22.3","","43","","25","","22","","48.3","","102.53","","","","-21","","NA"
"2014-12-30 13:00","2014","12","30","13:00","-11.9","","-22.4","","42","","26","","25","","48.3","","102.42","","","","-21","","Clear"
"2014-12-30 14:00","2014","12","30","14:00","-10.9","","-20.9","","44","","26","","22","","48.3","","102.39","","","","-19","","NA"
"2014-12-30 15:00","2014","12","30","15:00","-10.8","","-20.8","","44","","27","","26","","48.3","","102.40","","","","-20","","NA"
"2014-12-30 16:00","2014","12","30","16:00","-11.3","","-21.6","","43","","26","","25","","48.3","","102.40","","","","-20","","Clear"
"2014-12-30 17:00","2014","12","30","17:00","-11.6","","-20.8","","47","","25","","19","","24.1","","102.38","","","","-20","","NA"
"2014-12-30 18:00","2014","12","30","18:00","-11.5","","-20.5","","48","","25","","23","","24.1","","102.38","","","","-20","","NA"
"2014-12-30 19:00","2014","12","30","19:00","-12.0","","-20.0","","52","","24","","14","","24.1","","102.35","","","","-19","","Clear"
"2014-12-30 20:00","2014","12","30","20:00","-11.8","","-19.6","","53","","25","","16","","24.1","","102.36","","","","-19","","NA"
"2014-12-30 21:00","2014","12","30","21:00","-11.5","","-19.3","","53","","26","","16","","24.1","","102.34","","","","-19","","NA"
"2014-12-30 22:00","2014","12","30","22:00","-12.3","","-19.2","","57","","32","","8","","24.1","","102.33","","","","-17","","Mainly Clear"
"2014-12-30 23:00","2014","12","30","23:00","-12.9","","-20.6","","53","","31","","6","","24.1","","102.30","","","","-17","","NA"
"2014-12-31 00:00","2014","12","31","00:00","-13.3","","-21.2","","52","","32","","10","","24.1","","102.22","","","","-19","","NA"
"2014-12-31 01:00","2014","12","31","01:00","-13.9","","-20.7","","57","","36","","1","","24.1","","102.12","","","","-15","","Mainly Clear"
"2014-12-31 02:00","2014","12","31","02:00","-14.2","","-20.0","","62","","35","","4","","24.1","","102.12","","","","-17","","NA"
"2014-12-31 03:00","2014","12","31","03:00","-14.4","","-19.6","","65","","36","","1","","24.1","","102.09","","","","-15","","NA"
"2014-12-31 04:00","2014","12","31","04:00","-14.4","","-19.8","","64","","29","","7","","24.1","","102.06","","","","-19","","Mainly Clear"
"2014-12-31 05:00","2014","12","31","05:00","-13.6","","-18.9","","65","","23","","4","","24.1","","101.97","","","","-16","","NA"
"2014-12-31 06:00","2014","12","31","06:00","-13.2","","-19.4","","60","","28","","5","","24.1","","101.97","","","","-17","","NA"
"2014-12-31 07:00","2014","12","31","07:00","-13.7","","-19.0","","65","","28","","5","","24.1","","101.96","","","","-17","","Mainly Clear"
"2014-12-31 08:00","2014","12","31","08:00","-12.8","","-17.2","","70","","24","","12","","24.1","","101.98","","","","-19","","NA"
"2014-12-31 09:00","2014","12","31","09:00","-11.0","","-14.8","","74","","24","","20","","24.1","","101.99","","","","-19","","NA"
"2014-12-31 10:00","2014","12","31","10:00","-10.2","","-16.4","","61","","25","","34","","48.3","","102.00","","","","-20","","Mainly Clear"
"2014-12-31 11:00","2014","12","31","11:00","-9.4","","-18.5","","48","","26","","27","","48.3","","101.96","","","","-18","","NA"
"2014-12-31 12:00","2014","12","31","12:00","-8.9","","-18.3","","47","","25","","23","","48.3","","101.87","","","","-17","","NA"
"2014-12-31 13:00","2014","12","31","13:00","-7.9","","-17.9","","45","","25","","20","","48.3","","101.73","","","","-15","","Mainly Clear"
"2014-12-31 14:00","2014","12","31","14:00","-7.1","","-17.4","","44","","25","","29","","48.3","","101.65","","","","-16","","NA"
"2014-12-31 15:00","2014","12","31","15:00","-7.1","","-16.4","","48","","24","","19","","48.3","","101.60","","","","-14","","NA"
"2014-12-31 16:00","2014","12","31","16:00","-7.1","","-16.4","","48","","24","","22","","48.3","","101.51","","","","-15","","Mainly Clear"
"2014-12-31 17:00","2014","12","31","17:00","-7.1","","-15.9","","50","","23","","24","","24.1","","101.42","","","","-15","","NA"
"2014-12-31 18:00","2014","12","31","18:00","-6.6","","-14.7","","53","","22","","22","","24.1","","101.36","","","","-14","","NA"
"2014-12-31 19:00","2014","12","31","19:00","-6.5","","-13.9","","56","","20","","30","","24.1","","101.26","","","","-15","","Mostly Cloudy"
"2014-12-31 20:00","2014","12","31","20:00","-6.6","","-12.3","","64","","20","","27","","24.1","","101.15","","","","-15","","NA"
"2014-12-31 21:00","2014","12","31","21:00","-6.4","","-11.4","","68","","21","","40","","24.1","","101.08","","","","-16","","NA"
"2014-12-31 22:00","2014","12","31","22:00","-6.3","","-11.5","","67","","23","","33","","24.1","","100.99","","","","-15","","Cloudy"
"2014-12-31 23:00","2014","12","31","23:00","-6.8","","-15.3","","51","","24","","31","","24.1","","100.91","","","","-15","","NA"
