"Station Name","MONTREAL INTL A"
"Province","QUEBEC"
"Latitude","45.47"
"Longitude","-73.74"
"Elevation","36.00"
"Climate Identifier","7025251"
"WMO Identifier","71627"
"TC Identifier","YUL"
"All times are specified in Local Standard Time (LST). Add 1 hour to adjust for Daylight Saving Time where and when it is observed."

"Legend"
"E","Estimated"
"M","Missing"
"NA","Not Available"

"Date/Time","Year","Month","Day","Time","Temp (°C)","Temp Flag","Dew Point Temp (°C)","Dew Point Temp Flag","Rel Hum (%)","Rel Hum Flag","Wind Dir (10s deg)","Wind Dir Flag","Wind Spd (km/h)","Wind Spd Flag","Visibility (km)","Visibility Flag","Stn Press (kPa)","Stn Press Flag","Hmdx","Hmdx Flag","Wind Chill","Wind Chill Flag","Weather"
"2017-03-01 00:00","2017","03","01","00:00","6.2","","0.1","","65","","13","","14","","24.1","","100.50","","","","","","NA"
"2017-03-01 01:00","2017","03","01","01:00","7.2","","0.4","","62","","14","","18","","24.1","","100.42","","","","","","Cloudy"
"2017-03-01 02:00","2017","03","01","02:00","6.2","","1.7","","73","","6","","3","","24.1","","100.33","","","","","","Rain"
"2017-03-01 03:00","2017","03","01","03:00","4.9","","2.8","","86","","3","","11","","24.1","","100.15","","","","","","Rain"
"2017-03-01 04:00","2017","03","01","04:00","2.3","","1.0","","91","","3","","15","","24.1","","100.05","","","","","","Rain"
"2017-03-01 05:00","2017","03","01","05:00","2.3","","1.0","","91","","2","","14","","24.1","","99.91","","","","","","NA"
"2017-03-01 06:00","2017","03","01","06:00","2.5","","1.2","","91","","1","","12","","24.1","","99.79","","","","","","Rain"
"2017-03-01 07:00","2017","03","01","07:00","2.0","","1.1","","94","","3","","17","","6.4","","99.64","","","","","","Rain,Fog"
"2017-03-01 08:00","2017","03","01","08:00","2.1","","1.4","","95","","2","","16","","2.8","","99.54","","","","","","Moderate Rain,Fog"
"2017-03-01 09:00","2017","03","01","09:00","2.5","","1.9","","96","","4","","18","","2.4","","99.31","","","","","","Moderate Rain,Fog"
"2017-03-01 10:00","2017","03","01","10:00","3.4","","2.8","","96","","3","","13","","2.0","","99.11","","","","","","Rain,Fog"
"2017-03-01 11:00","2017","03","01","11:00","3.8","","3.2","","96","","36","","11","","6.4","","98.92","","","","","","Fog"
"2017-03-01 12:00","2017","03","01","12:00","4.2","","3.6","","96","","2","","15","","4.8","","98.76","","","","","","Fog"
"2017-03-01 13:00","2017","03","01","13:00","3.8","","3.1","","95","","36","","10","","4.8","","98.61","","","","","","Rain,Fog"
"2017-03-01 14:00","2017","03","01","14:00","3.5","","2.9","","96","","32","","19","","3.2","","98.62","","","","","","Rain,Fog"
"2017-03-01 15:00","2017","03","01","15:00","4.4","","3.8","","96","","5","","10","","16.1","","98.53","","","","","","NA"
"2017-03-01 16:00","2017","03","01","16:00","4.9","","4.0","","94","","23","","10","","11.3","","98.56","","","","","","Cloudy"
"2017-03-01 17:00","2017","03","01","17:00","4.2","","3.6","","96","","19","","4","","8.1","","98.48","","","","","","Fog"
"2017-03-01 18:00","2017","03","01","18:00","4.2","","3.6","","96","","36","","3","","9.7","","98.45","","","","","","Fog"
"2017-03-01 19:00","2017","03","01","19:00","4.6","","4.0","","96","","4","","10","","8.1","","98.47","","","","","","Rain,Fog"
"2017-03-01 20:00","2017","03","01","20:00","3.5","","2.9","","96","","2","","14","","2.4","","98.41","","","","","","Rain,Fog"
"2017-03-01 21:00","2017","03","01","21:00","3.8","","3.4","","97","","4","","14","","6.4","","98.37","","","","","","Drizzle,Fog"
"2017-03-01 22:00","2017","03","01","22:00","3.4","","2.8","","96","","3","","20","","9.7","","98.29","","","","","","Fog"
"2017-03-01 23:00","2017","03","01","23:00","3.2","","2.5","","95","","6","","8","","12.9","","98.23","","","","","","NA"
"2017-03-02 00:00","2017","03","02","00:00","2.8","","2.1","","95","","4","","6","","9.7","","98.26","","","","","","Rain,Fog"
"2017-03-02 01:00","2017","03","02","01:00","5.5","","4.2","","91","","25","","36","","12.9","","98.31","","","","","","Mostly Cloudy"
"2017-03-02 02:00","2017","03","02","02:00","3.2","","1.4","","88","","25","","43","","24.1","","98.42","","","","","","NA"
"2017-03-02 03:00","2017","03","02","03:00","1.8","","-0.5","","85","","25","","38","","24.1","","98.47","","","","","","NA"
"2017-03-02 04:00","2017","03","02","04:00","0.5","","-2.4","","81","","24","","33","","24.1","","98.58","","","","","","Mainly Clear"
"2017-03-02 05:00","2017","03","02","05:00","-1.0","","-3.9","","81","","26","","21","","24.1","","98.75","","","","-7","","NA"
"2017-03-02 06:00","2017","03","02","06:00","-2.8","","-6.0","","79","","27","","34","","9.7","","98.87","","","","-11","","Snow"
"2017-03-02 07:00","2017","03","02","07:00","-5.5","","-8.9","","77","","27","","39","","24.1","","99.01","","","","-15","","Snow"
"2017-03-02 08:00","2017","03","02","08:00","-7.3","","-10.5","","78","","27","","36","","2.4","","99.27","","","","-17","","Snow,Blowing Snow"
"2017-03-02 09:00","2017","03","02","09:00","-8.2","","-13.3","","67","","27","","36","","6.4","","99.49","","","","-18","","Snow,Blowing Snow"
"2017-03-02 10:00","2017","03","02","10:00","-8.5","","-15.2","","59","","28","","41","","24.1","","99.73","","","","-19","","Snow,Blowing Snow"
"2017-03-02 11:00","2017","03","02","11:00","-8.4","","-14.3","","63","","27","","39","","6.4","","99.90","","","","-19","","Snow,Blowing Snow"
"2017-03-02 12:00","2017","03","02","12:00","-8.5","","-14.8","","61","","27","","40","","24.1","","100.06","","","","-19","","Snow,Blowing Snow"
"2017-03-02 13:00","2017","03","02","13:00","-7.8","","-14.5","","59","","27","","46","","24.1","","100.17","","","","-18","","Mostly Cloudy"
"2017-03-02 14:00","2017","03","02","14:00","-7.1","","-15.4","","52","","26","","43","","24.1","","100.30","","","","-17","","NA"
"2017-03-02 15:00","2017","03","02","15:00","-6.4","","-15.7","","48","","26","","44","","48.3","","100.42","","","","-16","","NA"
"2017-03-02 16:00","2017","03","02","16:00","-5.7","","-15.6","","46","","25","","43","","48.3","","100.54","","","","-15","","Mostly Cloudy"
"2017-03-02 17:00","2017","03","02","17:00","-5.8","","-15.7","","46","","26","","33","","48.3","","100.70","","","","-14","","NA"
"2017-03-02 18:00","2017","03","02","18:00","-6.4","","-15.5","","49","","26","","30","","24.1","","100.88","","","","-15","","NA"
"2017-03-02 19:00","2017","03","02","19:00","-7.1","","-14.7","","55","","25","","25","","24.1","","101.06","","","","-15","","Mostly Cloudy"
"2017-03-02 20:00","2017","03","02","20:00","-7.8","","-14.5","","59","","26","","22","","24.1","","101.18","","","","-15","","NA"
"2017-03-02 21:00","2017","03","02","21:00","-7.7","","-15.7","","53","","28","","29","","24.1","","101.30","","","","-16","","NA"
"2017-03-02 22:00","2017","03","02","22:00","-8.5","","-16.0","","55","","28","","26","","24.1","","101.40","","","","-17","","Mostly Cloudy"
"2017-03-02 23:00","2017","03","02","23:00","-9.3","","-16.6","","56","","29","","26","","24.1","","101.47","","","","-18","","NA"
"2017-03-03 00:00","2017","03","03","00:00","-9.9","","-16.7","","58","","28","","24","","24.1","","101.51","","","","-18","","NA"
"2017-03-03 01:00","2017","03","03","01:00","-10.1","","-16.9","","58","","29","","15","","24.1","","101.54","","","","-17","","Mostly Cloudy"
"2017-03-03 02:00","2017","03","03","02:00","-10.6","","-17.4","","58","","28","","21","","24.1","","101.56","","","","-19","","NA"
"2017-03-03 03:00","2017","03","03","03:00","-11.3","","-17.6","","60","","28","","16","","24.1","","101.58","","","","-19","","NA"
"2017-03-03 04:00","2017","03","03","04:00","-11.8","","-18.1","","60","","27","","14","","24.1","","101.66","","","","-19","","Clear"
"2017-03-03 05:00","2017","03","03","05:00","-12.5","","-18.8","","60","","27","","12","","24.1","","101.71","","","","-19","","NA"
"2017-03-03 06:00","2017","03","03","06:00","-12.9","","-19.1","","60","","28","","17","","24.1","","101.75","","","","-21","","NA"
"2017-03-03 07:00","2017","03","03","07:00","-13.1","","-19.5","","59","","28","","16","","24.1","","101.85","","","","-21","","Clear"
"2017-03-03 08:00","2017","03","03","08:00","-12.4","","-19.5","","56","","29","","14","","48.3","","101.95","","","","-19","","NA"
"2017-03-03 09:00","2017","03","03","09:00","-12.0","","-19.5","","54","","26","","17","","48.3","","102.00","","","","-20","","NA"
"2017-03-03 10:00","2017","03","03","10:00","-11.1","","-19.6","","50","","28","","16","","48.3","","101.98","","","","-18","","Mostly Cloudy"
"2017-03-03 11:00","2017","03","03","11:00","-10.9","","-20.4","","46","","28","","17","","48.3","","101.99","","","","-18","","NA"
"2017-03-03 12:00","2017","03","03","12:00","-10.2","","-20.6","","43","","26","","7","","48.3","","101.99","","","","-14","","NA"
"2017-03-03 13:00","2017","03","03","13:00","-9.0","","-18.4","","47","","28","","13","","48.3","","101.94","","","","-15","","Cloudy"
"2017-03-03 14:00","2017","03","03","14:00","-8.5","","-17.9","","47","","26","","17","","48.3","","101.91","","","","-15","","NA"
"2017-03-03 15:00","2017","03","03","15:00","-8.1","","-17.3","","48","","28","","18","","48.3","","101.93","","","","-15","","NA"
"2017-03-03 16:00","2017","03","03","16:00","-8.6","","-18.0","","47","","31","","26","","48.3","","101.97","","","","-17","","Cloudy"
"2017-03-03 17:00","2017","03","03","17:00","-9.1","","-15.9","","58","","28","","24","","24.1","","102.09","","","","-17","","NA"
"2017-03-03 18:00","2017","03","03","18:00","-9.8","","-18.6","","49","","30","","23","","24.1","","102.20","","","","-18","","NA"
"2017-03-03 19:00","2017","03","03","19:00","-11.2","","-21.5","","43","","32","","24","","24.1","","102.33","","","","-20","","Clear"
"2017-03-03 20:00","2017","03","03","20:00","-12.2","","-22.4","","43","","30","","22","","24.1","","102.44","","","","-21","","NA"
"2017-03-03 21:00","2017","03","03","21:00","-13.2","","-24.2","","40","","31","","26","","24.1","","102.56","","","","-23","","NA"
"2017-03-03 22:00","2017","03","03","22:00","-13.7","","-23.3","","45","","29","","15","","24.1","","102.64","","","","-21","","Clear"
"2017-03-03 23:00","2017","03","03","23:00","-14.0","","-22.6","","49","","27","","17","","24.1","","102.66","","","","-22","","NA"
"2017-03-04 00:00","2017","03","04","00:00","-14.1","","-21.7","","53","","28","","16","","24.1","","102.68","","","","-22","","NA"
"2017-03-04 01:00","2017","03","04","01:00","-14.2","","-21.2","","56","","27","","17","","24.1","","102.66","","","","-22","","Clear"
"2017-03-04 02:00","2017","03","04","02:00","-14.4","","-20.8","","59","","26","","11","","24.1","","102.65","","","","-21","","NA"
"2017-03-04 03:00","2017","03","04","03:00","-14.3","","-20.5","","60","","27","","14","","24.1","","102.63","","","","-22","","NA"
"2017-03-04 04:00","2017","03","04","04:00","-14.5","","-20.5","","61","","30","","22","","24.1","","102.62","","","","-24","","Snow"
"2017-03-04 05:00","2017","03","04","05:00","-15.6","","-21.5","","61","","31","","22","","24.1","","102.65","","","","-25","","NA"
"2017-03-04 06:00","2017","03","04","06:00","-16.5","","-22.6","","60","","32","","24","","24.1","","102.72","","","","-27","","NA"
"2017-03-04 07:00","2017","03","04","07:00","-17.2","","-24.0","","56","","32","","26","","24.1","","102.86","","","","-28","","Mainly Clear"
"2017-03-04 08:00","2017","03","04","08:00","-17.2","","-24.9","","52","","36","","21","","24.1","","103.00","","","","-27","","NA"
"2017-03-04 09:00","2017","03","04","09:00","-17.2","","-25.3","","50","","33","","19","","24.1","","103.11","","","","-27","","NA"
"2017-03-04 10:00","2017","03","04","10:00","-17.1","","-26.4","","45","","29","","19","","24.1","","103.20","","","","-27","","Mainly Clear"
"2017-03-04 11:00","2017","03","04","11:00","-16.7","","-28.9","","35","","34","","16","","24.1","","103.27","","","","-25","","NA"
"2017-03-04 12:00","2017","03","04","12:00","-15.8","","-27.4","","37","","26","","29","","24.1","","103.26","","","","-27","","NA"
"2017-03-04 13:00","2017","03","04","13:00","-14.6","","-26.0","","38","","26","","25","","48.3","","103.22","","","","-25","","Clear"
"2017-03-04 14:00","2017","03","04","14:00","-13.3","","-25.5","","36","","27","","24","","48.3","","103.16","","","","-23","","NA"
"2017-03-04 15:00","2017","03","04","15:00","-12.7","","-24.9","","36","","30","","34","","48.3","","103.18","","","","-24","","NA"
"2017-03-04 16:00","2017","03","04","16:00","-12.6","","-25.1","","35","","29","","32","","48.3","","103.18","","","","-23","","Clear"
"2017-03-04 17:00","2017","03","04","17:00","-12.6","","-24.8","","36","","29","","25","","48.3","","103.24","","","","-22","","NA"
"2017-03-04 18:00","2017","03","04","18:00","-13.3","","-24.5","","39","","29","","26","","48.3","","103.28","","","","-23","","NA"
"2017-03-04 19:00","2017","03","04","19:00","-13.8","","-24.2","","42","","28","","21","","24.1","","103.34","","","","-23","","Clear"
"2017-03-04 20:00","2017","03","04","20:00","-14.3","","-24.1","","44","","28","","21","","24.1","","103.36","","","","-24","","NA"
"2017-03-04 21:00","2017","03","04","21:00","-14.6","","-23.6","","47","","27","","23","","24.1","","103.42","","","","-24","","NA"
"2017-03-04 22:00","2017","03","04","22:00","-14.9","","-23.2","","50","","28","","20","","24.1","","103.44","","","","-24","","Clear"
"2017-03-04 23:00","2017","03","04","23:00","-15.3","","-22.9","","53","","27","","14","","24.1","","103.45","","","","-23","","NA"
"2017-03-05 00:00","2017","03","05","00:00","-15.6","","-22.7","","55","","27","","20","","24.1","","103.46","","","","-25","","NA"
"2017-03-05 01:00","2017","03","05","01:00","-16.0","","-22.9","","56","","27","","14","","24.1","","103.49","","","","-24","","Clear"
"2017-03-05 02:00","2017","03","05","02:00","-16.1","","-23.0","","56","","28","","14","","24.1","","103.52","","","","-24","","NA"
"2017-03-05 03:00","2017","03","05","03:00","-16.6","","-23.3","","57","","27","","12","","24.1","","103.52","","","","-24","","NA"
"2017-03-05 04:00","2017","03","05","04:00","-16.7","","-22.8","","60","","26","","11","","24.1","","103.60","","","","-24","","Clear"
"2017-03-05 05:00","2017","03","05","05:00","-16.9","","-22.8","","61","","27","","11","","24.1","","103.66","","","","-24","","NA"
"2017-03-05 06:00","2017","03","05","06:00","-17.4","","-23.1","","62","","26","","18","","24.1","","103.70","","","","-27","","NA"
"2017-03-05 07:00","2017","03","05","07:00","-17.1","","-22.6","","63","","25","","10","","48.3","","103.74","","","","-24","","Clear"
"2017-03-05 08:00","2017","03","05","08:00","-16.1","","-22.8","","57","","26","","12","","48.3","","103.78","","","","-23","","NA"
"2017-03-05 09:00","2017","03","05","09:00","-14.4","","-22.2","","52","","26","","13","","48.3","","103.79","","","","-22","","NA"
"2017-03-05 10:00","2017","03","05","10:00","-13.2","","-23.6","","42","","24","","7","","48.3","","103.76","","","","-18","","Clear"
"2017-03-05 11:00","2017","03","05","11:00","-11.9","","-23.9","","37","","24","","5","","48.3","","103.69","","","","-15","","NA"
"2017-03-05 12:00","2017","03","05","12:00","-10.1","","-23.2","","34","","29","","7","","48.3","","103.60","","","","-14","","NA"
"2017-03-05 13:00","2017","03","05","13:00","-9.2","","-24.6","","28","","31","","9","","48.3","","103.49","","","","-14","","Clear"
"2017-03-05 14:00","2017","03","05","14:00","-7.6","","-20.3","","36","","21","","16","","48.3","","103.38","","","","-14","","NA"
"2017-03-05 15:00","2017","03","05","15:00","-7.0","","-20.1","","35","","19","","18","","48.3","","103.29","","","","-14","","NA"
"2017-03-05 16:00","2017","03","05","16:00","-6.4","","-17.9","","40","","21","","15","","48.3","","103.22","","","","-12","","Clear"
"2017-03-05 17:00","2017","03","05","17:00","-6.5","","-19.0","","37","","23","","14","","48.3","","103.18","","","","-12","","NA"
"2017-03-05 18:00","2017","03","05","18:00","-7.2","","-19.3","","38","","26","","17","","48.3","","103.20","","","","-14","","NA"
"2017-03-05 19:00","2017","03","05","19:00","-8.3","","-18.8","","43","","29","","9","","24.1","","103.22","","","","-13","","Clear"
"2017-03-05 20:00","2017","03","05","20:00","-8.6","","-17.8","","48","","25","","6","","24.1","","103.18","","","","-12","","NA"
"2017-03-05 21:00","2017","03","05","21:00","-9.2","","-18.8","","46","","23","","8","","24.1","","103.17","","","","-14","","NA"
"2017-03-05 22:00","2017","03","05","22:00","-9.6","","-19.2","","46","","25","","7","","24.1","","103.15","","","","-14","","Clear"
"2017-03-05 23:00","2017","03","05","23:00","-10.2","","-20.3","","44","","27","","7","","24.1","","103.12","","","","-14","","NA"
"2017-03-06 00:00","2017","03","06","00:00","-10.0","","-21.5","","39","","36","","2","","24.1","","103.07","","","","-11","","NA"
"2017-03-06 01:00","2017","03","06","01:00","-10.9","","-19.9","","48","","1","","4","","24.1","","103.05","","","","-13","","Mainly Clear"
"2017-03-06 02:00","2017","03","06","02:00","-10.7","","-19.0","","51","","5","","4","","24.1","","103.05","","","","-13","","NA"
"2017-03-06 03:00","2017","03","06","03:00","-12.1","","-17.8","","63","","3","","5","","24.1","","103.02","","","","-15","","NA"
"2017-03-06 04:00","2017","03","06","04:00","-10.7","","-16.5","","63","","36","","1","","24.1","","102.99","","","","-11","","Mostly Cloudy"
"2017-03-06 05:00","2017","03","06","05:00","-10.2","","-15.4","","66","","36","","5","","24.1","","103.00","","","","-13","","NA"
"2017-03-06 06:00","2017","03","06","06:00","-9.1","","-14.4","","66","","3","","6","","24.1","","102.98","","","","-12","","NA"
"2017-03-06 07:00","2017","03","06","07:00","-8.0","","-15.3","","56","","11","","10","","48.3","","102.98","","","","-13","","Mostly Cloudy"
"2017-03-06 08:00","2017","03","06","08:00","-6.9","","-15.2","","52","","9","","14","","48.3","","102.92","","","","-13","","NA"
"2017-03-06 09:00","2017","03","06","09:00","-6.1","","-14.9","","50","","8","","15","","48.3","","102.94","","","","-12","","NA"
"2017-03-06 10:00","2017","03","06","10:00","-4.5","","-15.3","","43","","10","","20","","48.3","","102.87","","","","-11","","Mostly Cloudy"
"2017-03-06 11:00","2017","03","06","11:00","-3.5","","-15.6","","39","","7","","17","","48.3","","102.84","","","","-9","","NA"
"2017-03-06 12:00","2017","03","06","12:00","-2.1","","-16.7","","32","","10","","14","","48.3","","102.76","","","","-7","","NA"
"2017-03-06 13:00","2017","03","06","13:00","-1.0","","-17.4","","28","","10","","16","","48.3","","102.64","","","","-6","","Mostly Cloudy"
"2017-03-06 14:00","2017","03","06","14:00","-0.1","","-16.6","","28","","7","","26","","48.3","","102.51","","","","-6","","NA"
"2017-03-06 15:00","2017","03","06","15:00","0.3","","-13.8","","34","","7","","17","","48.3","","102.44","","","","","","NA"
"2017-03-06 16:00","2017","03","06","16:00","0.1","","-14.8","","32","","8","","18","","48.3","","102.42","","","","","","Cloudy"
"2017-03-06 17:00","2017","03","06","17:00","-0.1","","-12.8","","38","","6","","14","","48.3","","102.42","","","","-4","","NA"
"2017-03-06 18:00","2017","03","06","18:00","-1.8","","-10.9","","50","","4","","23","","48.3","","102.38","","","","-8","","NA"
"2017-03-06 19:00","2017","03","06","19:00","-2.5","","-11.1","","52","","4","","20","","24.1","","102.35","","","","-8","","Cloudy"
"2017-03-06 20:00","2017","03","06","20:00","-2.8","","-9.7","","59","","3","","19","","16.1","","102.36","","","","-9","","Freezing Rain,Ice Pellets"
"2017-03-06 21:00","2017","03","06","21:00","-2.2","","-6.4","","73","","5","","18","","8.1","","102.24","","","","-8","","Freezing Rain,Fog"
"2017-03-06 22:00","2017","03","06","22:00","-2.6","","-5.4","","81","","4","","12","","9.7","","102.29","","","","-7","","Freezing Rain,Fog"
"2017-03-06 23:00","2017","03","06","23:00","-2.4","","-4.9","","83","","3","","17","","24.1","","102.18","","","","-8","","Freezing Rain"
"2017-03-07 00:00","2017","03","07","00:00","-2.5","","-4.2","","88","","1","","14","","24.1","","102.13","","","","-7","","Freezing Rain"
"2017-03-07 01:00","2017","03","07","01:00","-2.1","","-3.7","","89","","1","","12","","24.1","","102.06","","","","-6","","Freezing Rain"
"2017-03-07 02:00","2017","03","07","02:00","-2.4","","-4.1","","88","","1","","20","","24.1","","101.98","","","","-8","","Freezing Rain"
"2017-03-07 03:00","2017","03","07","03:00","-2.5","","-3.9","","90","","3","","18","","24.1","","101.87","","","","-8","","Freezing Rain"
"2017-03-07 04:00","2017","03","07","04:00","-1.4","","-3.0","","89","","4","","14","","24.1","","101.81","","","","-6","","Freezing Rain"
"2017-03-07 05:00","2017","03","07","05:00","-0.1","","-3.0","","81","","2","","11","","24.1","","101.76","","","","-4","","NA"
"2017-03-07 06:00","2017","03","07","06:00","-0.6","","-2.3","","88","","5","","13","","24.1","","101.69","","","","-5","","NA"
"2017-03-07 07:00","2017","03","07","07:00","1.5","","-3.6","","69","","9","","10","","24.1","","101.62","","","","","","Cloudy"
"2017-03-07 08:00","2017","03","07","08:00","2.1","","-4.2","","63","","12","","8","","24.1","","101.57","","","","","","NA"
"2017-03-07 09:00","2017","03","07","09:00","2.3","","-3.8","","64","","10","","11","","24.1","","101.56","","","","","","NA"
"2017-03-07 10:00","2017","03","07","10:00","2.2","","-2.0","","74","","13","","9","","24.1","","101.46","","","","","","Cloudy"
"2017-03-07 11:00","2017","03","07","11:00","2.6","","-0.5","","80","","13","","14","","24.1","","101.34","","","","","","NA"
"2017-03-07 12:00","2017","03","07","12:00","2.9","","0.3","","83","","13","","16","","19.3","","101.24","","","","","","NA"
"2017-03-07 13:00","2017","03","07","13:00","3.1","","1.3","","88","","12","","9","","9.7","","101.14","","","","","","Rain,Fog"
"2017-03-07 14:00","2017","03","07","14:00","3.8","","1.4","","84","","12","","11","","16.1","","101.04","","","","","","NA"
"2017-03-07 15:00","2017","03","07","15:00","4.0","","1.9","","86","","12","","13","","24.1","","100.97","","","","","","NA"
"2017-03-07 16:00","2017","03","07","16:00","4.1","","2.5","","89","","13","","18","","19.3","","100.90","","","","","","Rain"
"2017-03-07 17:00","2017","03","07","17:00","4.2","","3.0","","92","","14","","20","","6.4","","100.86","","","","","","Rain,Fog"
"2017-03-07 18:00","2017","03","07","18:00","4.4","","3.2","","92","","13","","25","","8.1","","100.77","","","","","","Rain,Fog"
"2017-03-07 19:00","2017","03","07","19:00","4.6","","3.6","","93","","15","","27","","6.4","","100.74","","","","","","Rain,Fog"
"2017-03-07 20:00","2017","03","07","20:00","4.8","","3.9","","94","","15","","25","","8.1","","100.68","","","","","","Rain,Fog"
"2017-03-07 21:00","2017","03","07","21:00","4.8","","4.2","","96","","14","","22","","9.7","","100.64","","","","","","Rain,Fog"
"2017-03-07 22:00","2017","03","07","22:00","5.3","","4.6","","95","","14","","16","","8.1","","100.56","","","","","","Drizzle,Fog"
"2017-03-07 23:00","2017","03","07","23:00","5.3","","4.4","","94","","14","","12","","9.7","","100.47","","","","","","Drizzle,Fog"
"2017-03-08 00:00","2017","03","08","00:00","5.7","","4.7","","93","","15","","11","","9.7","","100.38","","","","","","Drizzle,Fog"
"2017-03-08 01:00","2017","03","08","01:00","4.8","","4.2","","96","","6","","3","","2.0","","100.37","","","","","","Rain,Fog"
"2017-03-08 02:00","2017","03","08","02:00","4.4","","4.0","","97","","30","","13","","4.8","","100.33","","","","","","Rain,Fog"
"2017-03-08 03:00","2017","03","08","03:00","2.6","","2.2","","97","","27","","14","","6.4","","100.42","","","","","","Rain,Fog"
"2017-03-08 04:00","2017","03","08","04:00","3.9","","2.9","","93","","26","","25","","11.3","","100.60","","","","","","Rain"
"2017-03-08 05:00","2017","03","08","05:00","3.7","","1.9","","88","","25","","21","","16.1","","100.67","","","","","","Rain"
"2017-03-08 06:00","2017","03","08","06:00","3.1","","1.6","","90","","25","","23","","24.1","","100.73","","","","","","Rain"
"2017-03-08 07:00","2017","03","08","07:00","2.5","","1.2","","91","","23","","18","","24.1","","100.69","","","","","","Cloudy"
"2017-03-08 08:00","2017","03","08","08:00","2.8","","1.3","","90","","22","","20","","24.1","","100.73","","","","","","Rain"
"2017-03-08 09:00","2017","03","08","09:00","3.8","","2.5","","91","","20","","15","","24.1","","100.60","","","","","","NA"
"2017-03-08 10:00","2017","03","08","10:00","5.0","","2.5","","84","","21","","20","","48.3","","100.50","","","","","","Clear"
"2017-03-08 11:00","2017","03","08","11:00","6.8","","3.1","","77","","22","","21","","48.3","","100.40","","","","","","NA"
"2017-03-08 12:00","2017","03","08","12:00","8.2","","2.5","","67","","22","","29","","48.3","","100.28","","","","","","NA"
"2017-03-08 13:00","2017","03","08","13:00","9.1","","0.6","","55","","21","","20","","48.3","","100.10","","","","","","Clear"
"2017-03-08 14:00","2017","03","08","14:00","10.2","","-1.5","","44","","22","","28","","24.1","","99.93","","","","","","NA"
"2017-03-08 15:00","2017","03","08","15:00","7.7","","1.1","","63","","20","","30","","48.3","","99.93","","","","","","NA"
"2017-03-08 16:00","2017","03","08","16:00","8.8","","-5.8","","35","","22","","55","","48.3","","99.90","","","","","","Mainly Clear"
"2017-03-08 17:00","2017","03","08","17:00","7.8","","-5.6","","38","","23","","40","","48.3","","99.87","","","","","","NA"
"2017-03-08 18:00","2017","03","08","18:00","6.5","","-4.6","","45","","23","","32","","48.3","","99.89","","","","","","NA"
"2017-03-08 19:00","2017","03","08","19:00","6.0","","-3.6","","50","","25","","22","","24.1","","99.95","","","","","","Mostly Cloudy"
"2017-03-08 20:00","2017","03","08","20:00","5.1","","-1.8","","61","","23","","27","","24.1","","99.99","","","","","","NA"
"2017-03-08 21:00","2017","03","08","21:00","3.9","","-1.9","","66","","23","","25","","24.1","","100.01","","","","","","NA"
"2017-03-08 22:00","2017","03","08","22:00","3.4","","-1.6","","70","","23","","24","","24.1","","100.05","","","","","","Mostly Cloudy"
"2017-03-08 23:00","2017","03","08","23:00","3.3","","-2.5","","66","","24","","30","","24.1","","100.01","","","","","","Snow Showers"
"2017-03-09 00:00","2017","03","09","00:00","2.9","","-3.0","","65","","27","","25","","24.1","","100.00","","","","","","NA"
"2017-03-09 01:00","2017","03","09","01:00","1.6","","-2.2","","76","","25","","23","","24.1","","100.03","","","","","","Snow Showers"
"2017-03-09 02:00","2017","03","09","02:00","0.6","","-4.1","","71","","25","","31","","16.1","","100.11","","","","","","Snow Showers"
"2017-03-09 03:00","2017","03","09","03:00","0.4","","-8.9","","50","","26","","42","","24.1","","100.12","","","","","","NA"
"2017-03-09 04:00","2017","03","09","04:00","-0.6","","-10.1","","49","","27","","34","","24.1","","100.20","","","","-8","","Cloudy"
"2017-03-09 05:00","2017","03","09","05:00","-0.8","","-10.8","","47","","26","","32","","24.1","","100.25","","","","-8","","NA"
"2017-03-09 06:00","2017","03","09","06:00","-1.4","","-12.2","","44","","27","","35","","24.1","","100.36","","","","-9","","Snow Showers"
"2017-03-09 07:00","2017","03","09","07:00","-2.5","","-11.3","","51","","27","","39","","24.1","","100.47","","","","-11","","Cloudy"
"2017-03-09 08:00","2017","03","09","08:00","-2.5","","-13.2","","44","","26","","43","","24.1","","100.56","","","","-11","","NA"
"2017-03-09 09:00","2017","03","09","09:00","-2.9","","-14.4","","41","","27","","40","","24.1","","100.65","","","","-11","","NA"
"2017-03-09 10:00","2017","03","09","10:00","-2.3","","-14.5","","39","","27","","36","","24.1","","100.68","","","","-10","","Mostly Cloudy"
"2017-03-09 11:00","2017","03","09","11:00","-2.1","","-13.7","","41","","27","","42","","24.1","","100.71","","","","-10","","NA"
"2017-03-09 12:00","2017","03","09","12:00","-1.7","","-13.6","","40","","27","","35","","24.1","","100.70","","","","-9","","NA"
"2017-03-09 13:00","2017","03","09","13:00","-1.7","","-13.6","","40","","26","","44","","24.1","","100.72","","","","-10","","Mostly Cloudy"
"2017-03-09 14:00","2017","03","09","14:00","-1.4","","-13.4","","40","","26","","46","","24.1","","100.77","","","","-10","","NA"
"2017-03-09 15:00","2017","03","09","15:00","-1.4","","-13.7","","39","","26","","54","","48.3","","100.81","","","","-10","","NA"
"2017-03-09 16:00","2017","03","09","16:00","-1.1","","-13.7","","38","","29","","32","","48.3","","100.85","","","","-8","","Mainly Clear"
"2017-03-09 17:00","2017","03","09","17:00","-1.4","","-14.0","","38","","27","","39","","48.3","","100.90","","","","-9","","NA"
"2017-03-09 18:00","2017","03","09","18:00","-2.0","","-13.9","","40","","28","","19","","48.3","","100.95","","","","-8","","NA"
"2017-03-09 19:00","2017","03","09","19:00","-2.4","","-13.7","","42","","28","","17","","24.1","","101.03","","","","-8","","Clear"
"2017-03-09 20:00","2017","03","09","20:00","-3.1","","-13.7","","44","","30","","10","","24.1","","101.09","","","","-7","","NA"
"2017-03-09 21:00","2017","03","09","21:00","-3.8","","-14.4","","44","","30","","10","","24.1","","101.16","","","","-8","","NA"
"2017-03-09 22:00","2017","03","09","22:00","-3.9","","-15.6","","40","","29","","8","","24.1","","101.21","","","","-7","","Mainly Clear"
"2017-03-09 23:00","2017","03","09","23:00","-4.2","","-15.6","","41","","30","","5","","24.1","","101.20","","","","-6","","NA"
"2017-03-10 00:00","2017","03","10","00:00","-5.1","","-14.5","","48","","35","","3","","24.1","","101.14","","","","-6","","NA"
"2017-03-10 01:00","2017","03","10","01:00","-5.7","","-12.3","","60","","5","","4","","24.1","","101.12","","","","-8","","Mainly Clear"
"2017-03-10 02:00","2017","03","10","02:00","-5.3","","-14.2","","50","","5","","8","","24.1","","101.05","","","","-9","","NA"
"2017-03-10 03:00","2017","03","10","03:00","-6.1","","-13.8","","55","","5","","23","","24.1","","101.01","","","","-13","","NA"
"2017-03-10 04:00","2017","03","10","04:00","-7.1","","-14.9","","54","","5","","23","","24.1","","100.97","","","","-15","","Mostly Cloudy"
"2017-03-10 05:00","2017","03","10","05:00","-7.5","","-14.9","","56","","5","","26","","24.1","","100.96","","","","-16","","NA"
"2017-03-10 06:00","2017","03","10","06:00","-8.3","","-14.4","","62","","5","","23","","24.1","","100.98","","","","-16","","NA"
"2017-03-10 07:00","2017","03","10","07:00","-8.3","","-14.4","","62","","4","","21","","16.1","","101.00","","","","-16","","Cloudy"
"2017-03-10 08:00","2017","03","10","08:00","-8.4","","-14.3","","63","","6","","26","","12.9","","101.04","","","","-17","","Snow"
"2017-03-10 09:00","2017","03","10","09:00","-8.2","","-14.7","","60","","3","","27","","9.7","","101.01","","","","-17","","Snow"
"2017-03-10 10:00","2017","03","10","10:00","-8.7","","-11.9","","78","","2","","25","","2.4","","100.98","","","","-17","","Snow,Blowing Snow"
"2017-03-10 11:00","2017","03","10","11:00","-8.7","","-12.5","","74","","2","","21","","4.0","","100.95","","","","-16","","Snow"
"2017-03-10 12:00","2017","03","10","12:00","-8.1","","-13.8","","64","","1","","23","","9.7","","100.89","","","","-16","","Snow"
"2017-03-10 13:00","2017","03","10","13:00","-7.8","","-13.3","","65","","3","","17","","12.9","","100.83","","","","-14","","Snow"
"2017-03-10 14:00","2017","03","10","14:00","-7.2","","-14.8","","55","","33","","4","","24.1","","100.76","","","","-9","","NA"
"2017-03-10 15:00","2017","03","10","15:00","-6.6","","-14.0","","56","","36","","1","","24.1","","100.73","","","","-7","","NA"
"2017-03-10 16:00","2017","03","10","16:00","-6.7","","-13.2","","60","","31","","13","","16.1","","100.71","","","","-12","","Snow Showers"
"2017-03-10 17:00","2017","03","10","17:00","-7.3","","-13.2","","63","","30","","22","","24.1","","100.74","","","","-15","","NA"
"2017-03-10 18:00","2017","03","10","18:00","-8.1","","-18.6","","43","","32","","23","","24.1","","100.80","","","","-16","","NA"
"2017-03-10 19:00","2017","03","10","19:00","-9.3","","-21.5","","37","","32","","32","","24.1","","100.89","","","","-19","","Clear"
"2017-03-10 20:00","2017","03","10","20:00","-10.4","","-22.8","","36","","32","","25","","24.1","","101.00","","","","-19","","NA"
"2017-03-10 21:00","2017","03","10","21:00","-12.1","","-25.4","","33","","31","","29","","24.1","","101.14","","","","-22","","NA"
"2017-03-10 22:00","2017","03","10","22:00","-13.9","","-27.3","","32","","31","","34","","24.1","","101.27","","","","-25","","Cloudy"
"2017-03-10 23:00","2017","03","10","23:00","-15.3","","-28.2","","33","","31","","30","","24.1","","101.35","","","","-26","","NA"
"2017-03-11 00:00","2017","03","11","00:00","-16.8","","-27.8","","39","","31","","30","","24.1","","101.43","","","","-28","","NA"
"2017-03-11 01:00","2017","03","11","01:00","-19.0","","-30.9","","35","","30","","28","","24.1","","101.53","","","","-31","","Mainly Clear"
"2017-03-11 02:00","2017","03","11","02:00","-19.8","","-31.7","","35","","32","","21","","24.1","","101.56","","","","-30","","NA"
"2017-03-11 03:00","2017","03","11","03:00","-20.2","","-33.0","","32","","31","","19","","24.1","","101.58","","","","-30","","NA"
"2017-03-11 04:00","2017","03","11","04:00","-20.6","","-32.4","","35","","30","","22","","24.1","","101.61","","","","-32","","Clear"
"2017-03-11 05:00","2017","03","11","05:00","-20.7","","-31.6","","38","","29","","20","","24.1","","101.64","","","","-31","","NA"
"2017-03-11 06:00","2017","03","11","06:00","-20.7","","-31.1","","40","","28","","14","","48.3","","101.69","","","","-30","","NA"
"2017-03-11 07:00","2017","03","11","07:00","-20.2","","-30.3","","41","","28","","18","","48.3","","101.71","","","","-30","","Mostly Cloudy"
"2017-03-11 08:00","2017","03","11","08:00","-19.6","","-29.0","","44","","30","","25","","48.3","","101.71","","","","-31","","NA"
"2017-03-11 09:00","2017","03","11","09:00","-18.8","","-28.5","","43","","29","","25","","48.3","","101.66","","","","-30","","NA"
"2017-03-11 10:00","2017","03","11","10:00","-18.4","","-27.6","","45","","27","","22","","24.1","","101.63","","","","-29","","Cloudy"
"2017-03-11 11:00","2017","03","11","11:00","-18.2","","-25.2","","55","","28","","31","","6.4","","101.59","","","","-30","","Snow"
"2017-03-11 12:00","2017","03","11","12:00","-17.6","","-23.1","","63","","29","","29","","6.4","","101.58","","","","-29","","Snow"
"2017-03-11 13:00","2017","03","11","13:00","-17.0","","-26.3","","45","","28","","36","","24.1","","101.58","","","","-30","","Cloudy"
"2017-03-11 14:00","2017","03","11","14:00","-16.8","","-26.9","","42","","29","","30","","24.1","","101.61","","","","-28","","NA"
"2017-03-11 15:00","2017","03","11","15:00","-16.0","","-27.3","","38","","29","","32","","24.1","","101.65","","","","-28","","NA"
"2017-03-11 16:00","2017","03","11","16:00","-15.9","","-27.5","","37","","27","","34","","24.1","","101.67","","","","-28","","Mostly Cloudy"
"2017-03-11 17:00","2017","03","11","17:00","-15.5","","-27.8","","35","","28","","34","","24.1","","101.68","","","","-27","","NA"
"2017-03-11 18:00","2017","03","11","18:00","-15.6","","-27.2","","37","","29","","28","","24.1","","101.75","","","","-26","","NA"
"2017-03-11 19:00","2017","03","11","19:00","-15.5","","-26.6","","39","","28","","27","","24.1","","101.79","","","","-26","","Mostly Cloudy"
"2017-03-11 20:00","2017","03","11","20:00","-15.6","","-26.7","","39","","28","","24","","24.1","","101.88","","","","-26","","NA"
"2017-03-11 21:00","2017","03","11","21:00","-15.6","","-26.7","","39","","28","","20","","24.1","","101.96","","","","-25","","NA"
"2017-03-11 22:00","2017","03","11","22:00","-15.6","","-26.4","","40","","28","","26","","24.1","","102.00","","","","-26","","Mainly Clear"
"2017-03-11 23:00","2017","03","11","23:00","-15.6","","-26.4","","40","","28","","28","","24.1","","102.01","","","","-26","","NA"
"2017-03-12 00:00","2017","03","12","00:00","-15.8","","-26.3","","41","","28","","23","","24.1","","102.01","","","","-26","","NA"
"2017-03-12 01:00","2017","03","12","01:00","-15.9","","-25.8","","43","","28","","24","","24.1","","102.00","","","","-26","","Cloudy"
"2017-03-12 02:00","2017","03","12","02:00","-16.1","","-25.8","","44","","28","","27","","24.1","","101.99","","","","-27","","NA"
"2017-03-12 03:00","2017","03","12","03:00","-16.4","","-25.5","","46","","28","","22","","24.1","","101.97","","","","-26","","NA"
"2017-03-12 04:00","2017","03","12","04:00","-16.6","","-25.2","","48","","28","","26","","24.1","","101.99","","","","-27","","Mainly Clear"
"2017-03-12 05:00","2017","03","12","05:00","-16.8","","-25.2","","49","","28","","22","","24.1","","102.03","","","","-27","","NA"
"2017-03-12 06:00","2017","03","12","06:00","-17.1","","-25.0","","51","","28","","18","","48.3","","102.06","","","","-26","","NA"
"2017-03-12 07:00","2017","03","12","07:00","-17.0","","-24.9","","51","","29","","23","","48.3","","102.11","","","","-27","","Mainly Clear"
"2017-03-12 08:00","2017","03","12","08:00","-16.4","","-25.3","","47","","28","","31","","48.3","","102.14","","","","-28","","NA"
"2017-03-12 09:00","2017","03","12","09:00","-15.9","","-24.6","","48","","27","","29","","48.3","","102.16","","","","-27","","NA"
"2017-03-12 10:00","2017","03","12","10:00","-14.9","","-24.9","","43","","27","","26","","24.1","","102.16","","","","-25","","Mostly Cloudy"
"2017-03-12 11:00","2017","03","12","11:00","-13.7","","-23.3","","45","","26","","26","","48.3","","102.13","","","","-24","","NA"
"2017-03-12 12:00","2017","03","12","12:00","-12.9","","-23.3","","42","","25","","36","","48.3","","102.11","","","","-24","","NA"
"2017-03-12 13:00","2017","03","12","13:00","-11.9","","-23.0","","40","","27","","35","","48.3","","102.08","","","","-23","","Cloudy"
"2017-03-12 14:00","2017","03","12","14:00","-11.4","","-22.5","","40","","26","","35","","48.3","","102.07","","","","-22","","NA"
"2017-03-12 15:00","2017","03","12","15:00","-10.6","","-21.8","","40","","26","","29","","24.1","","102.08","","","","-20","","NA"
"2017-03-12 16:00","2017","03","12","16:00","-10.6","","-21.8","","40","","27","","28","","24.1","","102.13","","","","-20","","Cloudy"
"2017-03-12 17:00","2017","03","12","17:00","-10.8","","-22.0","","40","","26","","31","","24.1","","102.21","","","","-21","","NA"
"2017-03-12 18:00","2017","03","12","18:00","-11.0","","-21.3","","43","","28","","28","","24.1","","102.30","","","","-21","","NA"
"2017-03-12 19:00","2017","03","12","19:00","-11.4","","-21.1","","45","","29","","20","","24.1","","102.40","","","","-20","","Mainly Clear"
"2017-03-12 20:00","2017","03","12","20:00","-11.7","","-21.7","","44","","29","","12","","24.1","","102.46","","","","-18","","NA"
"2017-03-12 21:00","2017","03","12","21:00","-12.1","","-21.5","","46","","29","","12","","24.1","","102.47","","","","-18","","NA"
"2017-03-12 22:00","2017","03","12","22:00","-12.7","","-22.1","","46","","29","","8","","24.1","","102.52","","","","-18","","Mainly Clear"
"2017-03-12 23:00","2017","03","12","23:00","-12.7","","-22.6","","44","","30","","14","","24.1","","102.56","","","","-20","","NA"
"2017-03-13 00:00","2017","03","13","00:00","-13.2","","-22.8","","45","","29","","14","","24.1","","102.63","","","","-20","","NA"
"2017-03-13 01:00","2017","03","13","01:00","-13.8","","-23.1","","46","","30","","12","","24.1","","102.68","","","","-21","","Clear"
"2017-03-13 02:00","2017","03","13","02:00","-14.0","","-23.5","","45","","30","","14","","24.1","","102.70","","","","-21","","NA"
"2017-03-13 03:00","2017","03","13","03:00","-14.6","","-23.1","","49","","30","","11","","24.1","","102.68","","","","-21","","NA"
"2017-03-13 04:00","2017","03","13","04:00","-15.5","","-23.1","","53","","29","","9","","24.1","","102.73","","","","-21","","Clear"
"2017-03-13 05:00","2017","03","13","05:00","-15.4","","-23.0","","53","","29","","13","","24.1","","102.77","","","","-23","","NA"
"2017-03-13 06:00","2017","03","13","06:00","-15.6","","-23.4","","52","","29","","10","","48.3","","102.86","","","","-22","","NA"
"2017-03-13 07:00","2017","03","13","07:00","-15.1","","-23.4","","50","","30","","16","","48.3","","102.90","","","","-23","","Mainly Clear"
"2017-03-13 08:00","2017","03","13","08:00","-14.3","","-23.8","","45","","32","","16","","48.3","","102.95","","","","-22","","NA"
"2017-03-13 09:00","2017","03","13","09:00","-13.3","","-24.0","","41","","28","","10","","48.3","","102.96","","","","-19","","NA"
"2017-03-13 10:00","2017","03","13","10:00","-12.3","","-23.9","","38","","26","","17","","48.3","","103.01","","","","-20","","Mainly Clear"
"2017-03-13 11:00","2017","03","13","11:00","-11.8","","-24.1","","36","","27","","15","","48.3","","102.93","","","","-19","","NA"
"2017-03-13 12:00","2017","03","13","12:00","-10.8","","-24.2","","33","","26","","13","","48.3","","102.89","","","","-17","","NA"
"2017-03-13 13:00","2017","03","13","13:00","-9.5","","-24.1","","30","","26","","15","","48.3","","102.79","","","","-16","","Mostly Cloudy"
"2017-03-13 14:00","2017","03","13","14:00","-9.1","","-24.1","","29","","28","","14","","48.3","","102.76","","","","-15","","NA"
"2017-03-13 15:00","2017","03","13","15:00","-8.7","","-21.9","","34","","21","","19","","48.3","","102.72","","","","-16","","NA"
"2017-03-13 16:00","2017","03","13","16:00","-8.5","","-21.8","","34","","23","","14","","48.3","","102.66","","","","-15","","Cloudy"
"2017-03-13 17:00","2017","03","13","17:00","-8.7","","-22.3","","33","","29","","11","","24.1","","102.62","","","","-14","","NA"
"2017-03-13 18:00","2017","03","13","18:00","-8.8","","-21.4","","36","","30","","7","","24.1","","102.61","","","","-13","","NA"
"2017-03-13 19:00","2017","03","13","19:00","-8.8","","-20.7","","38","","27","","6","","24.1","","102.63","","","","-12","","Cloudy"
"2017-03-13 20:00","2017","03","13","20:00","-8.8","","-20.1","","40","","28","","5","","24.1","","102.64","","","","-12","","NA"
"2017-03-13 21:00","2017","03","13","21:00","-8.9","","-19.9","","41","","31","","6","","24.1","","102.62","","","","-12","","NA"
"2017-03-13 22:00","2017","03","13","22:00","-9.1","","-20.7","","39","","35","","6","","24.1","","102.58","","","","-12","","Cloudy"
"2017-03-13 23:00","2017","03","13","23:00","-9.4","","-20.4","","41","","34","","7","","24.1","","102.52","","","","-13","","NA"
"2017-03-14 00:00","2017","03","14","00:00","-9.4","","-19.6","","44","","36","","9","","24.1","","102.43","","","","-14","","NA"
"2017-03-14 01:00","2017","03","14","01:00","-9.1","","-20.1","","41","","3","","8","","24.1","","102.41","","","","-13","","Cloudy"
"2017-03-14 02:00","2017","03","14","02:00","-8.9","","-18.6","","46","","4","","9","","24.1","","102.39","","","","-14","","NA"
"2017-03-14 03:00","2017","03","14","03:00","-8.7","","-17.6","","49","","9","","10","","24.1","","102.37","","","","-14","","NA"
"2017-03-14 04:00","2017","03","14","04:00","-9.0","","-16.7","","54","","5","","18","","24.1","","102.22","","","","-16","","Cloudy"
"2017-03-14 05:00","2017","03","14","05:00","-8.9","","-16.2","","56","","5","","19","","24.1","","102.21","","","","-16","","Snow"
"2017-03-14 06:00","2017","03","14","06:00","-8.9","","-14.9","","62","","6","","17","","9.7","","102.19","","","","-16","","Snow"
"2017-03-14 07:00","2017","03","14","07:00","-9.1","","-14.2","","67","","5","","27","","8.1","","102.14","","","","-18","","Snow,Blowing Snow"
"2017-03-14 08:00","2017","03","14","08:00","-8.7","","-14.7","","62","","4","","26","","12.9","","102.01","","","","-17","","Snow,Blowing Snow"
"2017-03-14 09:00","2017","03","14","09:00","-8.8","","-14.4","","64","","3","","34","","8.1","","101.94","","","","-18","","Snow,Blowing Snow"
"2017-03-14 10:00","2017","03","14","10:00","-8.9","","-12.6","","75","","3","","31","","2.8","","101.83","","","","-18","","Snow,Blowing Snow"
"2017-03-14 11:00","2017","03","14","11:00","-8.6","","-11.6","","79","","2","","40","","2.0","","101.67","","","","-19","","Snow,Blowing Snow"
"2017-03-14 12:00","2017","03","14","12:00","-8.9","","-11.8","","80","","2","","37","","2.0","","101.43","","","","-19","","Snow,Blowing Snow"
"2017-03-14 13:00","2017","03","14","13:00","-9.1","","-11.8","","81","","3","","41","","1.2","","101.18","","","","-20","","Snow,Blowing Snow"
"2017-03-14 14:00","2017","03","14","14:00","-9.1","","-11.5","","83","","2","","40","","0.6","","100.97","","","","-20","","Moderate Snow,Blowing Snow"
"2017-03-14 15:00","2017","03","14","15:00","-8.7","","-10.9","","84","","2","","50","","0.4","","100.77","","","","-20","","Moderate Snow,Blowing Snow"
"2017-03-14 16:00","2017","03","14","16:00","-8.2","","-10.3","","85","","2","","53","","0.2","","100.57","","","","-20","","Moderate Snow,Blowing Snow"
"2017-03-14 17:00","2017","03","14","17:00","-7.9","","-10.0","","85","","2","","52","","0.4","","100.25","","","","-19","","Moderate Snow,Blowing Snow"
"2017-03-14 18:00","2017","03","14","18:00","-8.5","","-10.4","","86","","2","","36","","0.2","","100.11","","","","-18","","Moderate Snow,Blowing Snow"
"2017-03-14 19:00","2017","03","14","19:00","-8.1","","-9.9","","87","","5","","46","","0.2","","99.93","","","","-19","","Heavy Snow,Blowing Snow"
"2017-03-14 20:00","2017","03","14","20:00","-7.8","","-9.8","","86","","36","","58","","0.2","","99.79","","","","-19","","Heavy Snow,Blowing Snow"
"2017-03-14 21:00","2017","03","14","21:00","-7.9","","-9.7","","87","","36","","58","","0.2","","99.62","","","","-20","","Heavy Snow,Blowing Snow"
"2017-03-14 22:00","2017","03","14","22:00","-8.3","","-10.2","","86","","36","","46","","0.4","","99.44","","","","-19","","Heavy Snow,Blowing Snow"
"2017-03-14 23:00","2017","03","14","23:00","-8.0","","-10.1","","85","","36","","37","","1.0","","99.34","","","","-18","","Snow,Blowing Snow"
"2017-03-15 00:00","2017","03","15","00:00","-7.8","","-9.9","","85","","35","","24","","1.2","","99.27","","","","-16","","Snow,Blowing Snow"
"2017-03-15 01:00","2017","03","15","01:00","-7.6","","-9.6","","86","","32","","13","","1.2","","99.19","","","","-13","","Snow"
"2017-03-15 02:00","2017","03","15","02:00","-7.5","","-9.3","","87","","31","","18","","1.2","","99.09","","","","-14","","Snow,Blowing Snow"
"2017-03-15 03:00","2017","03","15","03:00","-7.2","","-9.0","","87","","30","","17","","1.6","","99.01","","","","-14","","Snow,Blowing Snow"
"2017-03-15 04:00","2017","03","15","04:00","-6.9","","-8.7","","87","","32","","19","","1.6","","98.96","","","","-14","","Snow,Blowing Snow"
"2017-03-15 05:00","2017","03","15","05:00","-6.7","","-8.7","","86","","32","","20","","1.6","","98.95","","","","-14","","Snow,Blowing Snow"
"2017-03-15 06:00","2017","03","15","06:00","-6.4","","-8.5","","85","","33","","26","","1.6","","98.96","","","","-14","","Snow,Blowing Snow"
"2017-03-15 07:00","2017","03","15","07:00","-6.4","","-8.5","","85","","33","","23","","1.2","","98.96","","","","-14","","Snow,Blowing Snow"
"2017-03-15 08:00","2017","03","15","08:00","-6.1","","-8.5","","83","","33","","22","","1.6","","98.98","","","","-13","","Snow,Blowing Snow"
"2017-03-15 09:00","2017","03","15","09:00","-5.7","","-8.3","","82","","33","","20","","2.0","","99.00","","","","-12","","Snow,Blowing Snow"
"2017-03-15 10:00","2017","03","15","10:00","-5.0","","-8.4","","77","","31","","21","","4.0","","99.05","","","","-12","","Snow,Blowing Snow"
"2017-03-15 11:00","2017","03","15","11:00","-5.0","","-7.8","","81","","29","","19","","1.2","","99.07","","","","-11","","Snow,Blowing Snow"
"2017-03-15 12:00","2017","03","15","12:00","-4.8","","-7.9","","79","","28","","24","","2.0","","99.09","","","","-12","","Snow,Blowing Snow"
"2017-03-15 13:00","2017","03","15","13:00","-4.7","","-8.1","","77","","28","","21","","4.8","","99.13","","","","-11","","Snow,Blowing Snow"
"2017-03-15 14:00","2017","03","15","14:00","-4.5","","-7.6","","79","","26","","22","","8.1","","99.16","","","","-11","","Snow,Blowing Snow"
"2017-03-15 15:00","2017","03","15","15:00","-4.4","","-7.8","","77","","28","","26","","8.1","","99.22","","","","-12","","Snow,Blowing Snow"
"2017-03-15 16:00","2017","03","15","16:00","-4.4","","-8.5","","73","","28","","21","","4.8","","99.31","","","","-11","","Snow,Blowing Snow"
"2017-03-15 17:00","2017","03","15","17:00","-4.4","","-9.3","","69","","30","","25","","9.7","","99.40","","","","-12","","Snow,Blowing Snow"
"2017-03-15 18:00","2017","03","15","18:00","-5.1","","-10.1","","68","","29","","23","","16.1","","99.51","","","","-12","","Snow,Blowing Snow"
"2017-03-15 19:00","2017","03","15","19:00","-5.8","","-10.4","","70","","29","","23","","9.7","","99.64","","","","-13","","Snow,Blowing Snow"
"2017-03-15 20:00","2017","03","15","20:00","-6.6","","-9.7","","79","","28","","25","","4.0","","99.74","","","","-14","","Snow,Blowing Snow"
"2017-03-15 21:00","2017","03","15","21:00","-6.9","","-9.6","","81","","28","","25","","6.4","","99.82","","","","-15","","Snow,Blowing Snow"
"2017-03-15 22:00","2017","03","15","22:00","-6.9","","-9.6","","81","","28","","27","","6.4","","99.87","","","","-15","","Snow,Blowing Snow"
"2017-03-15 23:00","2017","03","15","23:00","-6.9","","-11.1","","72","","29","","24","","12.9","","99.91","","","","-15","","Snow,Blowing Snow"
"2017-03-16 00:00","2017","03","16","00:00","-7.5","","-11.7","","72","","29","","19","","6.4","","99.99","","","","-15","","Snow,Blowing Snow"
"2017-03-16 01:00","2017","03","16","01:00","-8.1","","-14.2","","62","","29","","26","","24.1","","100.07","","","","-16","","Blowing Snow"
"2017-03-16 02:00","2017","03","16","02:00","-8.8","","-14.3","","65","","29","","24","","16.1","","100.14","","","","-17","","Blowing Snow"
"2017-03-16 03:00","2017","03","16","03:00","-8.6","","-14.8","","61","","28","","25","","24.1","","100.18","","","","-17","","Blowing Snow"
"2017-03-16 04:00","2017","03","16","04:00","-8.7","","-15.1","","60","","28","","21","","24.1","","100.23","","","","-16","","Blowing Snow"
"2017-03-16 05:00","2017","03","16","05:00","-9.1","","-13.8","","69","","27","","23","","19.3","","100.33","","","","-17","","Snow,Blowing Snow"
"2017-03-16 06:00","2017","03","16","06:00","-9.7","","-14.4","","69","","26","","19","","16.1","","100.38","","","","-17","","Snow,Blowing Snow"
"2017-03-16 07:00","2017","03","16","07:00","-9.8","","-14.5","","69","","26","","27","","6.4","","100.45","","","","-19","","Snow,Blowing Snow"
"2017-03-16 08:00","2017","03","16","08:00","-9.6","","-15.4","","63","","27","","21","","24.1","","100.50","","","","-18","","Snow,Blowing Snow"
"2017-03-16 09:00","2017","03","16","09:00","-9.2","","-15.2","","62","","28","","29","","9.7","","100.54","","","","-18","","Snow,Blowing Snow"
"2017-03-16 10:00","2017","03","16","10:00","-8.9","","-14.2","","66","","27","","24","","6.4","","100.59","","","","-17","","Snow,Blowing Snow"
"2017-03-16 11:00","2017","03","16","11:00","-7.5","","-13.6","","62","","26","","30","","24.1","","100.61","","","","-16","","Blowing Snow"
"2017-03-16 12:00","2017","03","16","12:00","-8.2","","-15.3","","57","","26","","36","","24.1","","100.65","","","","-18","","Blowing Snow"
"2017-03-16 13:00","2017","03","16","13:00","-6.5","","-14.4","","54","","26","","31","","48.3","","100.66","","","","-15","","Blowing Snow"
"2017-03-16 14:00","2017","03","16","14:00","-5.8","","-14.2","","52","","26","","32","","48.3","","100.67","","","","-14","","Blowing Snow"
"2017-03-16 15:00","2017","03","16","15:00","-4.6","","-14.3","","47","","26","","29","","48.3","","100.70","","","","-12","","Blowing Snow"
"2017-03-16 16:00","2017","03","16","16:00","-4.6","","-14.6","","46","","27","","28","","48.3","","100.74","","","","-12","","Blowing Snow"
"2017-03-16 17:00","2017","03","16","17:00","-4.3","","-14.6","","45","","28","","21","","48.3","","100.82","","","","-11","","Blowing Snow"
"2017-03-16 18:00","2017","03","16","18:00","-4.2","","-14.2","","46","","28","","11","","24.1","","100.93","","","","-9","","NA"
"2017-03-16 19:00","2017","03","16","19:00","-5.0","","-12.5","","56","","26","","10","","24.1","","101.03","","","","-9","","Cloudy"
"2017-03-16 20:00","2017","03","16","20:00","-4.9","","-12.4","","56","","26","","7","","24.1","","101.09","","","","-8","","NA"
"2017-03-16 21:00","2017","03","16","21:00","-3.8","","-14.4","","44","","28","","13","","24.1","","101.14","","","","-9","","NA"
"2017-03-16 22:00","2017","03","16","22:00","-4.1","","-14.1","","46","","29","","10","","24.1","","101.16","","","","-8","","Cloudy"
"2017-03-16 23:00","2017","03","16","23:00","-4.1","","-14.4","","45","","30","","10","","24.1","","101.19","","","","-8","","NA"
"2017-03-17 00:00","2017","03","17","00:00","-4.7","","-13.9","","49","","30","","7","","24.1","","101.23","","","","-8","","NA"
"2017-03-17 01:00","2017","03","17","01:00","-5.3","","-13.0","","55","","2","","8","","24.1","","101.31","","","","-9","","Mostly Cloudy"
"2017-03-17 02:00","2017","03","17","02:00","-8.7","","-14.3","","64","","27","","4","","24.1","","101.34","","","","-11","","NA"
"2017-03-17 03:00","2017","03","17","03:00","-10.1","","-13.4","","77","","36","","2","","24.1","","101.39","","","","-11","","NA"
"2017-03-17 04:00","2017","03","17","04:00","-9.5","","-14.9","","65","","30","","10","","24.1","","101.48","","","","-15","","Clear"
"2017-03-17 05:00","2017","03","17","05:00","-9.1","","-16.2","","57","","33","","9","","24.1","","101.57","","","","-14","","NA"
"2017-03-17 06:00","2017","03","17","06:00","-9.8","","-16.4","","59","","32","","10","","48.3","","101.63","","","","-15","","NA"
"2017-03-17 07:00","2017","03","17","07:00","-9.4","","-16.9","","55","","32","","10","","48.3","","101.73","","","","-15","","Clear"
"2017-03-17 08:00","2017","03","17","08:00","-7.6","","-17.1","","47","","31","","12","","48.3","","101.80","","","","-13","","NA"
"2017-03-17 09:00","2017","03","17","09:00","-6.9","","-17.2","","44","","29","","13","","48.3","","101.86","","","","-12","","NA"
"2017-03-17 10:00","2017","03","17","10:00","-5.7","","-16.7","","42","","28","","10","","48.3","","101.88","","","","-10","","Clear"
"2017-03-17 11:00","2017","03","17","11:00","-4.8","","-16.2","","41","","26","","10","","48.3","","101.90","","","","-9","","NA"
"2017-03-17 12:00","2017","03","17","12:00","-4.2","","-15.9","","40","","26","","10","","48.3","","101.89","","","","-8","","NA"
"2017-03-17 13:00","2017","03","17","13:00","-3.8","","-14.7","","43","","21","","21","","48.3","","101.84","","","","-10","","Clear"
"2017-03-17 14:00","2017","03","17","14:00","-3.3","","-14.5","","42","","22","","22","","48.3","","101.81","","","","-10","","NA"
"2017-03-17 15:00","2017","03","17","15:00","-2.7","","-13.9","","42","","21","","22","","48.3","","101.79","","","","-9","","NA"
"2017-03-17 16:00","2017","03","17","16:00","-2.6","","-14.5","","40","","23","","25","","48.3","","101.76","","","","-9","","Mainly Clear"
"2017-03-17 17:00","2017","03","17","17:00","-2.5","","-13.2","","44","","23","","21","","48.3","","101.80","","","","-9","","NA"
"2017-03-17 18:00","2017","03","17","18:00","-3.5","","-14.1","","44","","22","","17","","48.3","","101.83","","","","-9","","NA"
"2017-03-17 19:00","2017","03","17","19:00","-4.5","","-14.5","","46","","21","","13","","24.1","","101.90","","","","-10","","Clear"
"2017-03-17 20:00","2017","03","17","20:00","-5.5","","-14.4","","50","","23","","8","","24.1","","101.93","","","","-9","","NA"
"2017-03-17 21:00","2017","03","17","21:00","-5.2","","-14.9","","47","","22","","7","","24.1","","101.95","","","","-8","","NA"
"2017-03-17 22:00","2017","03","17","22:00","-6.1","","-12.3","","62","","13","","10","","24.1","","101.99","","","","-11","","Clear"
"2017-03-17 23:00","2017","03","17","23:00","-7.2","","-14.1","","58","","13","","7","","24.1","","102.01","","","","-11","","NA"
"2017-03-18 00:00","2017","03","18","00:00","-8.0","","-14.1","","62","","14","","6","","24.1","","102.02","","","","-11","","NA"
"2017-03-18 01:00","2017","03","18","01:00","-9.2","","-15.2","","62","","11","","7","","24.1","","102.07","","","","-13","","Clear"
"2017-03-18 02:00","2017","03","18","02:00","-8.6","","-14.8","","61","","9","","10","","24.1","","102.07","","","","-14","","NA"
"2017-03-18 03:00","2017","03","18","03:00","-10.2","","-14.5","","71","","8","","4","","24.1","","102.08","","","","-13","","NA"
"2017-03-18 04:00","2017","03","18","04:00","-11.9","","-15.0","","78","","3","","9","","24.1","","102.11","","","","-17","","Clear"
"2017-03-18 05:00","2017","03","18","05:00","-10.8","","-13.9","","78","","2","","9","","24.1","","102.14","","","","-16","","NA"
"2017-03-18 06:00","2017","03","18","06:00","-12.6","","-15.1","","82","","2","","7","","48.3","","102.17","","","","-17","","NA"
"2017-03-18 07:00","2017","03","18","07:00","-11.5","","-14.3","","80","","2","","14","","48.3","","102.22","","","","-18","","Clear"
"2017-03-18 08:00","2017","03","18","08:00","-8.7","","-12.9","","72","","2","","10","","48.3","","102.25","","","","-14","","NA"
"2017-03-18 09:00","2017","03","18","09:00","-5.7","","-12.3","","60","","3","","14","","48.3","","102.26","","","","-11","","NA"
"2017-03-18 10:00","2017","03","18","10:00","-3.9","","-12.1","","53","","4","","18","","48.3","","102.24","","","","-10","","Clear"
"2017-03-18 11:00","2017","03","18","11:00","-1.7","","-11.3","","48","","7","","14","","48.3","","102.22","","","","-6","","NA"
"2017-03-18 12:00","2017","03","18","12:00","-1.2","","-10.9","","48","","5","","22","","48.3","","102.18","","","","-7","","NA"
"2017-03-18 13:00","2017","03","18","13:00","-0.6","","-10.9","","46","","5","","26","","48.3","","102.08","","","","-7","","Clear"
"2017-03-18 14:00","2017","03","18","14:00","-0.3","","-10.3","","47","","4","","25","","48.3","","102.05","","","","-6","","NA"
"2017-03-18 15:00","2017","03","18","15:00","0.2","","-9.6","","48","","5","","24","","48.3","","102.02","","","","","","NA"
"2017-03-18 16:00","2017","03","18","16:00","-0.3","","-9.3","","51","","4","","23","","48.3","","102.05","","","","-6","","Clear"
"2017-03-18 17:00","2017","03","18","17:00","-0.4","","-9.1","","52","","3","","24","","48.3","","102.05","","","","-6","","NA"
"2017-03-18 18:00","2017","03","18","18:00","-1.2","","-9.1","","55","","3","","28","","48.3","","102.07","","","","-8","","NA"
"2017-03-18 19:00","2017","03","18","19:00","-2.5","","-9.2","","60","","3","","21","","24.1","","102.08","","","","-9","","Clear"
"2017-03-18 20:00","2017","03","18","20:00","-3.2","","-9.7","","61","","3","","21","","24.1","","102.10","","","","-9","","NA"
"2017-03-18 21:00","2017","03","18","21:00","-4.2","","-9.8","","65","","4","","18","","24.1","","102.11","","","","-10","","NA"
"2017-03-18 22:00","2017","03","18","22:00","-4.4","","-9.6","","67","","3","","17","","24.1","","102.13","","","","-10","","Clear"
"2017-03-18 23:00","2017","03","18","23:00","-4.9","","-10.1","","67","","1","","11","","24.1","","102.13","","","","-9","","NA"
"2017-03-19 00:00","2017","03","19","00:00","-5.1","","-9.6","","71","","2","","14","","24.1","","102.12","","","","-10","","NA"
"2017-03-19 01:00","2017","03","19","01:00","-5.3","","-10.0","","70","","2","","12","","24.1","","102.13","","","","-10","","Clear"
"2017-03-19 02:00","2017","03","19","02:00","-7.9","","-11.8","","74","","2","","12","","24.1","","102.14","","","","-13","","NA"
"2017-03-19 03:00","2017","03","19","03:00","-8.1","","-11.6","","76","","3","","15","","24.1","","102.13","","","","-14","","NA"
"2017-03-19 04:00","2017","03","19","04:00","-8.3","","-12.0","","75","","2","","13","","24.1","","102.16","","","","-14","","Clear"
"2017-03-19 05:00","2017","03","19","05:00","-8.2","","-11.4","","78","","1","","12","","24.1","","102.25","","","","-14","","NA"
"2017-03-19 06:00","2017","03","19","06:00","-8.7","","-11.7","","79","","3","","18","","48.3","","102.29","","","","-16","","NA"
"2017-03-19 07:00","2017","03","19","07:00","-7.3","","-10.7","","77","","2","","17","","48.3","","102.34","","","","-14","","Clear"
"2017-03-19 08:00","2017","03","19","08:00","-5.0","","-9.5","","71","","2","","18","","48.3","","102.41","","","","-11","","NA"
"2017-03-19 09:00","2017","03","19","09:00","-3.5","","-8.8","","67","","3","","17","","48.3","","102.40","","","","-9","","NA"
"2017-03-19 10:00","2017","03","19","10:00","-1.9","","-8.5","","61","","3","","15","","48.3","","102.40","","","","-7","","Clear"
"2017-03-19 11:00","2017","03","19","11:00","-0.2","","-8.4","","54","","2","","12","","48.3","","102.35","","","","-4","","NA"
"2017-03-19 12:00","2017","03","19","12:00","1.1","","-8.5","","49","","1","","9","","48.3","","102.30","","","","","","NA"
"2017-03-19 13:00","2017","03","19","13:00","1.8","","-8.4","","47","","2","","14","","48.3","","102.21","","","","","","Clear"
"2017-03-19 14:00","2017","03","19","14:00","1.8","","-7.6","","50","","3","","20","","48.3","","102.14","","","","","","NA"
"2017-03-19 15:00","2017","03","19","15:00","2.5","","-8.3","","45","","3","","13","","48.3","","102.07","","","","","","NA"
"2017-03-19 16:00","2017","03","19","16:00","2.8","","-8.0","","45","","5","","12","","48.3","","102.06","","","","","","Clear"
"2017-03-19 17:00","2017","03","19","17:00","2.5","","-9.8","","40","","3","","8","","48.3","","102.06","","","","","","NA"
"2017-03-19 18:00","2017","03","19","18:00","1.7","","-9.9","","42","","6","","8","","48.3","","102.06","","","","","","NA"
"2017-03-19 19:00","2017","03","19","19:00","1.1","","-10.5","","42","","36","","2","","24.1","","102.06","","","","","","Clear"
"2017-03-19 20:00","2017","03","19","20:00","-1.2","","-9.1","","55","","25","","6","","48.3","","102.06","","","","-3","","NA"
"2017-03-19 21:00","2017","03","19","21:00","-3.7","","-9.6","","64","","29","","4","","24.1","","102.05","","","","-5","","NA"
"2017-03-19 22:00","2017","03","19","22:00","-3.7","","-9.4","","65","","27","","4","","24.1","","102.05","","","","-5","","Clear"
"2017-03-19 23:00","2017","03","19","23:00","-4.9","","-9.8","","69","","28","","4","","24.1","","102.00","","","","-7","","NA"
"2017-03-20 00:00","2017","03","20","00:00","-3.4","","-9.9","","61","","36","","2","","24.1","","101.95","","","","-4","","NA"
"2017-03-20 01:00","2017","03","20","01:00","-5.5","","-10.1","","70","","20","","3","","24.1","","101.89","","","","-7","","Clear"
"2017-03-20 02:00","2017","03","20","02:00","-4.7","","-7.0","","84","","19","","5","","24.1","","101.86","","","","-7","","NA"
"2017-03-20 03:00","2017","03","20","03:00","-6.1","","-7.8","","88","","20","","7","","24.1","","101.82","","","","-9","","NA"
"2017-03-20 04:00","2017","03","20","04:00","-6.7","","-8.1","","90","","16","","4","","24.1","","101.84","","","","-9","","Clear"
"2017-03-20 05:00","2017","03","20","05:00","-6.4","","-8.5","","85","","23","","5","","24.1","","101.85","","","","-9","","NA"
"2017-03-20 06:00","2017","03","20","06:00","-6.9","","-10.5","","76","","22","","9","","48.3","","101.85","","","","-11","","NA"
"2017-03-20 07:00","2017","03","20","07:00","-5.9","","-9.8","","74","","23","","8","","48.3","","101.87","","","","-10","","Mostly Cloudy"
"2017-03-20 08:00","2017","03","20","08:00","-4.0","","-9.3","","67","","21","","8","","24.1","","101.84","","","","-7","","NA"
"2017-03-20 09:00","2017","03","20","09:00","-1.4","","-8.0","","61","","22","","5","","48.3","","101.77","","","","-3","","NA"
"2017-03-20 10:00","2017","03","20","10:00","0.8","","-8.0","","52","","21","","8","","48.3","","101.68","","","","","","Mostly Cloudy"
"2017-03-20 11:00","2017","03","20","11:00","1.9","","-8.0","","48","","24","","4","","48.3","","101.63","","","","","","NA"
"2017-03-20 12:00","2017","03","20","12:00","3.5","","-7.6","","44","","15","","7","","48.3","","101.56","","","","","","NA"
"2017-03-20 13:00","2017","03","20","13:00","4.4","","-7.4","","42","","21","","9","","48.3","","101.48","","","","","","Mostly Cloudy"
"2017-03-20 14:00","2017","03","20","14:00","5.0","","-7.5","","40","","20","","10","","48.3","","101.40","","","","","","NA"
"2017-03-20 15:00","2017","03","20","15:00","4.6","","-6.9","","43","","22","","11","","48.3","","101.33","","","","","","NA"
"2017-03-20 16:00","2017","03","20","16:00","4.4","","-6.0","","47","","23","","13","","24.1","","101.25","","","","","","Mostly Cloudy"
"2017-03-20 17:00","2017","03","20","17:00","4.3","","-5.0","","51","","24","","13","","48.3","","101.19","","","","","","NA"
"2017-03-20 18:00","2017","03","20","18:00","3.2","","-3.0","","64","","25","","13","","24.1","","101.16","","","","","","NA"
"2017-03-20 19:00","2017","03","20","19:00","3.2","","-3.0","","64","","22","","7","","24.1","","101.12","","","","","","Mostly Cloudy"
"2017-03-20 20:00","2017","03","20","20:00","2.3","","-2.0","","73","","24","","12","","24.1","","101.12","","","","","","NA"
"2017-03-20 21:00","2017","03","20","21:00","2.5","","-1.5","","75","","26","","13","","24.1","","101.11","","","","","","NA"
"2017-03-20 22:00","2017","03","20","22:00","2.1","","-1.3","","78","","22","","13","","24.1","","101.06","","","","","","Cloudy"
"2017-03-20 23:00","2017","03","20","23:00","2.2","","-0.9","","80","","25","","18","","24.1","","101.06","","","","","","NA"
"2017-03-21 00:00","2017","03","21","00:00","1.8","","-1.3","","80","","22","","14","","24.1","","101.03","","","","","","NA"
"2017-03-21 01:00","2017","03","21","01:00","1.7","","-1.0","","82","","23","","15","","24.1","","101.00","","","","","","Cloudy"
"2017-03-21 02:00","2017","03","21","02:00","1.6","","-1.0","","83","","25","","14","","24.1","","100.97","","","","","","Snow"
"2017-03-21 03:00","2017","03","21","03:00","1.2","","-0.7","","87","","23","","11","","24.1","","100.89","","","","","","Rain,Snow"
"2017-03-21 04:00","2017","03","21","04:00","1.1","","-0.8","","87","","24","","11","","24.1","","100.87","","","","","","Snow"
"2017-03-21 05:00","2017","03","21","05:00","1.0","","-0.8","","88","","24","","7","","24.1","","100.89","","","","","","NA"
"2017-03-21 06:00","2017","03","21","06:00","1.0","","-0.8","","88","","24","","9","","12.9","","100.89","","","","","","Snow"
"2017-03-21 07:00","2017","03","21","07:00","0.9","","-0.6","","90","","23","","9","","8.1","","100.86","","","","","","Fog"
"2017-03-21 08:00","2017","03","21","08:00","1.4","","-0.2","","89","","27","","7","","11.3","","100.88","","","","","","NA"
"2017-03-21 09:00","2017","03","21","09:00","1.9","","-0.4","","85","","24","","4","","11.3","","100.85","","","","","","NA"
"2017-03-21 10:00","2017","03","21","10:00","1.3","","0.0","","91","","21","","12","","9.7","","100.83","","","","","","Fog"
"2017-03-21 11:00","2017","03","21","11:00","2.2","","0.3","","87","","22","","11","","9.7","","100.77","","","","","","Rain,Fog"
"2017-03-21 12:00","2017","03","21","12:00","2.2","","0.6","","89","","21","","12","","9.7","","100.67","","","","","","Rain,Fog"
"2017-03-21 13:00","2017","03","21","13:00","3.0","","0.1","","81","","25","","12","","24.1","","100.63","","","","","","Mostly Cloudy"
"2017-03-21 14:00","2017","03","21","14:00","3.1","","-0.2","","79","","21","","14","","24.1","","100.56","","","","","","NA"
"2017-03-21 15:00","2017","03","21","15:00","3.4","","-0.3","","77","","21","","14","","24.1","","100.50","","","","","","NA"
"2017-03-21 16:00","2017","03","21","16:00","3.3","","0.0","","79","","21","","17","","24.1","","100.42","","","","","","Mainly Clear"
"2017-03-21 17:00","2017","03","21","17:00","2.3","","-0.5","","82","","21","","18","","24.1","","100.46","","","","","","NA"
"2017-03-21 18:00","2017","03","21","18:00","2.2","","-0.4","","83","","23","","17","","24.1","","100.47","","","","","","NA"
"2017-03-21 19:00","2017","03","21","19:00","2.1","","-0.3","","84","","23","","6","","24.1","","100.43","","","","","","Mainly Clear"
"2017-03-21 20:00","2017","03","21","20:00","1.7","","-0.2","","87","","20","","21","","24.1","","100.36","","","","","","NA"
"2017-03-21 21:00","2017","03","21","21:00","1.5","","0.0","","90","","21","","8","","24.1","","100.30","","","","","","NA"
"2017-03-21 22:00","2017","03","21","22:00","1.7","","-0.1","","88","","15","","5","","24.1","","100.22","","","","","","Cloudy"
"2017-03-21 23:00","2017","03","21","23:00","1.7","","0.1","","89","","28","","16","","24.1","","100.24","","","","","","NA"
"2017-03-22 00:00","2017","03","22","00:00","0.4","","-2.3","","82","","31","","23","","24.1","","100.30","","","","","","Snow"
"2017-03-22 01:00","2017","03","22","01:00","-3.0","","-7.9","","69","","32","","30","","24.1","","100.58","","","","-10","","Snow"
"2017-03-22 02:00","2017","03","22","02:00","-4.4","","-11.1","","60","","31","","28","","24.1","","100.79","","","","-12","","Snow"
"2017-03-22 03:00","2017","03","22","03:00","-6.3","","-13.5","","57","","33","","31","","24.1","","100.99","","","","-15","","Snow"
"2017-03-22 04:00","2017","03","22","04:00","-8.4","","-15.7","","56","","31","","33","","24.1","","101.22","","","","-18","","Snow"
"2017-03-22 05:00","2017","03","22","05:00","-9.7","","-17.6","","53","","30","","29","","24.1","","101.43","","","","-19","","Snow"
"2017-03-22 06:00","2017","03","22","06:00","-11.1","","-20.9","","45","","31","","35","","24.1","","101.62","","","","-22","","NA"
"2017-03-22 07:00","2017","03","22","07:00","-12.9","","-21.8","","48","","30","","35","","24.1","","101.81","","","","-24","","Clear"
"2017-03-22 08:00","2017","03","22","08:00","-13.0","","-21.9","","48","","31","","29","","48.3","","101.93","","","","-23","","NA"
"2017-03-22 09:00","2017","03","22","09:00","-12.7","","-22.3","","45","","29","","33","","48.3","","102.08","","","","-23","","NA"
"2017-03-22 10:00","2017","03","22","10:00","-11.7","","-20.9","","47","","29","","28","","48.3","","102.15","","","","-21","","Clear"
"2017-03-22 11:00","2017","03","22","11:00","-11.3","","-20.8","","46","","29","","29","","48.3","","102.17","","","","-21","","NA"
"2017-03-22 12:00","2017","03","22","12:00","-10.7","","-21.0","","43","","27","","32","","48.3","","102.20","","","","-21","","NA"
"2017-03-22 13:00","2017","03","22","13:00","-9.6","","-20.6","","41","","28","","33","","48.3","","102.23","","","","-19","","Mainly Clear"
"2017-03-22 14:00","2017","03","22","14:00","-8.9","","-20.5","","39","","28","","34","","48.3","","102.26","","","","-19","","NA"
"2017-03-22 15:00","2017","03","22","15:00","-8.0","","-21.0","","35","","30","","33","","48.3","","102.29","","","","-17","","NA"
"2017-03-22 16:00","2017","03","22","16:00","-7.7","","-20.7","","35","","27","","32","","48.3","","102.31","","","","-17","","Clear"
"2017-03-22 17:00","2017","03","22","17:00","-7.3","","-20.3","","35","","28","","27","","48.3","","102.34","","","","-16","","NA"
"2017-03-22 18:00","2017","03","22","18:00","-7.7","","-21.8","","32","","30","","26","","48.3","","102.41","","","","-16","","NA"
"2017-03-22 19:00","2017","03","22","19:00","-8.2","","-21.2","","35","","30","","16","","24.1","","102.50","","","","-15","","Clear"
"2017-03-22 20:00","2017","03","22","20:00","-8.7","","-20.6","","38","","29","","12","","24.1","","102.55","","","","-14","","NA"
"2017-03-22 21:00","2017","03","22","21:00","-9.0","","-20.3","","40","","28","","13","","24.1","","102.58","","","","-15","","NA"
"2017-03-22 22:00","2017","03","22","22:00","-9.0","","-20.6","","39","","28","","10","","24.1","","102.61","","","","-14","","Clear"
"2017-03-22 23:00","2017","03","22","23:00","-9.3","","-20.0","","42","","26","","9","","24.1","","102.64","","","","-14","","NA"
"2017-03-23 00:00","2017","03","23","00:00","-10.1","","-19.9","","45","","28","","8","","24.1","","102.68","","","","-15","","NA"
"2017-03-23 01:00","2017","03","23","01:00","-11.0","","-19.1","","52","","25","","12","","24.1","","102.69","","","","-17","","Clear"
"2017-03-23 02:00","2017","03","23","02:00","-10.9","","-19.2","","51","","24","","10","","24.1","","102.71","","","","-16","","NA"
"2017-03-23 03:00","2017","03","23","03:00","-11.0","","-19.1","","52","","26","","14","","24.1","","102.72","","","","-18","","NA"
"2017-03-23 04:00","2017","03","23","04:00","-10.5","","-20.0","","46","","27","","16","","24.1","","102.75","","","","-18","","Mainly Clear"
"2017-03-23 05:00","2017","03","23","05:00","-10.1","","-19.7","","46","","28","","17","","24.1","","102.83","","","","-17","","NA"
"2017-03-23 06:00","2017","03","23","06:00","-10.7","","-20.0","","47","","27","","15","","48.3","","102.89","","","","-18","","NA"
"2017-03-23 07:00","2017","03","23","07:00","-9.8","","-19.1","","47","","28","","13","","48.3","","102.95","","","","-16","","Mostly Cloudy"
"2017-03-23 08:00","2017","03","23","08:00","-8.3","","-19.1","","42","","27","","14","","48.3","","102.98","","","","-14","","NA"
"2017-03-23 09:00","2017","03","23","09:00","-6.5","","-18.3","","39","","27","","15","","48.3","","102.99","","","","-12","","NA"
"2017-03-23 10:00","2017","03","23","10:00","-5.0","","-18.3","","35","","26","","17","","48.3","","102.96","","","","-11","","Mainly Clear"
"2017-03-23 11:00","2017","03","23","11:00","-3.9","","-16.6","","37","","24","","22","","48.3","","102.90","","","","-10","","NA"
"2017-03-23 12:00","2017","03","23","12:00","-3.1","","-17.3","","33","","27","","22","","48.3","","102.86","","","","-9","","NA"
"2017-03-23 13:00","2017","03","23","13:00","-2.0","","-16.3","","33","","26","","27","","48.3","","102.84","","","","-9","","Clear"
"2017-03-23 14:00","2017","03","23","14:00","-1.3","","-16.4","","31","","27","","23","","48.3","","102.77","","","","-7","","NA"
"2017-03-23 15:00","2017","03","23","15:00","-0.2","","-15.4","","31","","26","","27","","48.3","","102.73","","","","-6","","NA"
"2017-03-23 16:00","2017","03","23","16:00","0.1","","-15.6","","30","","25","","20","","48.3","","102.67","","","","","","Mainly Clear"
"2017-03-23 17:00","2017","03","23","17:00","0.2","","-14.7","","32","","23","","26","","48.3","","102.64","","","","","","NA"
"2017-03-23 18:00","2017","03","23","18:00","-0.8","","-13.8","","37","","25","","20","","48.3","","102.71","","","","-6","","NA"
"2017-03-23 19:00","2017","03","23","19:00","-1.6","","-12.3","","44","","23","","17","","24.1","","102.75","","","","-7","","Mostly Cloudy"
"2017-03-23 20:00","2017","03","23","20:00","-1.6","","-12.6","","43","","23","","13","","24.1","","102.71","","","","-6","","NA"
"2017-03-23 21:00","2017","03","23","21:00","-1.1","","-10.8","","48","","22","","15","","24.1","","102.73","","","","-6","","NA"
"2017-03-23 22:00","2017","03","23","22:00","-1.2","","-9.4","","54","","21","","14","","24.1","","102.67","","","","-6","","Cloudy"
"2017-03-23 23:00","2017","03","23","23:00","-1.3","","-10.0","","52","","22","","16","","24.1","","102.60","","","","-6","","NA"
"2017-03-24 00:00","2017","03","24","00:00","-1.6","","-8.4","","60","","19","","10","","24.1","","102.48","","","","-5","","NA"
"2017-03-24 01:00","2017","03","24","01:00","-2.2","","-10.3","","54","","15","","11","","24.1","","102.45","","","","-6","","Cloudy"
"2017-03-24 02:00","2017","03","24","02:00","-2.2","","-11.3","","50","","14","","10","","24.1","","102.42","","","","-6","","NA"
"2017-03-24 03:00","2017","03","24","03:00","-2.3","","-10.9","","52","","13","","10","","24.1","","102.28","","","","-6","","NA"
"2017-03-24 04:00","2017","03","24","04:00","-1.8","","-12.0","","46","","17","","17","","24.1","","102.19","","","","-7","","Cloudy"
"2017-03-24 05:00","2017","03","24","05:00","-2.0","","-10.9","","51","","15","","16","","24.1","","102.08","","","","-7","","NA"
"2017-03-24 06:00","2017","03","24","06:00","-1.6","","-10.5","","51","","14","","12","","48.3","","102.13","","","","-6","","NA"
"2017-03-24 07:00","2017","03","24","07:00","-1.0","","-9.4","","53","","22","","8","","24.1","","102.03","","","","-4","","Cloudy"
"2017-03-24 08:00","2017","03","24","08:00","-0.9","","-8.4","","57","","16","","10","","24.1","","101.92","","","","-4","","Snow"
"2017-03-24 09:00","2017","03","24","09:00","-2.6","","-4.6","","86","","14","","14","","2.8","","101.84","","","","-7","","Snow"
"2017-03-24 10:00","2017","03","24","10:00","-2.2","","-4.1","","87","","15","","13","","6.4","","101.74","","","","-7","","Snow"
"2017-03-24 11:00","2017","03","24","11:00","-1.0","","-2.9","","87","","15","","13","","8.1","","101.59","","","","-5","","Snow"
"2017-03-24 12:00","2017","03","24","12:00","-0.4","","-2.3","","87","","15","","17","","9.7","","101.50","","","","-5","","Snow"
"2017-03-24 13:00","2017","03","24","13:00","0.0","","-2.1","","86","","14","","17","","8.1","","101.39","","","","-5","","Snow"
"2017-03-24 14:00","2017","03","24","14:00","-0.5","","-2.4","","87","","15","","15","","2.8","","101.31","","","","-5","","Snow"
"2017-03-24 15:00","2017","03","24","15:00","-1.0","","-2.3","","91","","11","","10","","1.6","","101.16","","","","-5","","Snow"
"2017-03-24 16:00","2017","03","24","16:00","-0.9","","-2.0","","92","","13","","7","","1.0","","101.21","","","","-3","","Snow"
"2017-03-24 17:00","2017","03","24","17:00","-0.7","","-1.7","","93","","12","","7","","1.2","","101.15","","","","-3","","Snow"
"2017-03-24 18:00","2017","03","24","18:00","-0.5","","-1.4","","94","","36","","1","","1.6","","101.25","","","","-1","","Snow"
"2017-03-24 19:00","2017","03","24","19:00","-0.5","","-1.2","","95","","34","","7","","1.6","","101.29","","","","-3","","Snow"
"2017-03-24 20:00","2017","03","24","20:00","-0.5","","-1.2","","95","","33","","8","","2.0","","101.40","","","","-3","","Snow"
"2017-03-24 21:00","2017","03","24","21:00","-0.6","","-1.3","","95","","31","","5","","2.8","","101.49","","","","-2","","Snow"
"2017-03-24 22:00","2017","03","24","22:00","-0.7","","-1.6","","94","","30","","7","","3.2","","101.56","","","","-3","","Snow"
"2017-03-24 23:00","2017","03","24","23:00","-1.0","","-1.8","","94","","30","","6","","12.9","","101.57","","","","-3","","Snow"
"2017-03-25 00:00","2017","03","25","00:00","-1.3","","-2.0","","95","","25","","5","","12.9","","101.61","","","","-3","","NA"
"2017-03-25 01:00","2017","03","25","01:00","-2.3","","-3.0","","95","","23","","5","","16.1","","101.65","","","","-4","","Mostly Cloudy"
"2017-03-25 02:00","2017","03","25","02:00","-3.1","","-3.7","","96","","23","","4","","4.8","","101.69","","","","-5","","Fog"
"2017-03-25 03:00","2017","03","25","03:00","-5.4","","-6.4","","93","","36","","2","","1.2","","101.72","","","","-6","","Fog"
"2017-03-25 04:00","2017","03","25","04:00","-5.9","","-6.9","","93","","22","","4","","1.0","","101.79","","","","-8","","Fog"
"2017-03-25 05:00","2017","03","25","05:00","-6.7","","-7.8","","92","","23","","3","","1.6","","101.87","","","","-8","","Fog"
"2017-03-25 06:00","2017","03","25","06:00","-6.5","","-7.7","","91","","36","","3","","1.2","","101.97","","","","-8","","Fog"
"2017-03-25 07:00","2017","03","25","07:00","-3.8","","-4.6","","94","","2","","3","","2.4","","102.10","","","","-5","","Fog"
"2017-03-25 08:00","2017","03","25","08:00","-1.9","","-2.6","","95","","36","","1","","8.1","","102.20","","","","-2","","Fog"
"2017-03-25 09:00","2017","03","25","09:00","-1.4","","-2.0","","96","","2","","22","","24.1","","102.30","","","","-7","","NA"
"2017-03-25 10:00","2017","03","25","10:00","-0.8","","-4.9","","74","","2","","22","","24.1","","102.39","","","","-7","","Blowing Snow"
"2017-03-25 11:00","2017","03","25","11:00","-1.1","","-7.5","","62","","4","","23","","24.1","","102.42","","","","-7","","Blowing Snow"
"2017-03-25 12:00","2017","03","25","12:00","-0.2","","-8.2","","55","","2","","18","","24.1","","102.47","","","","-5","","NA"
"2017-03-25 13:00","2017","03","25","13:00","0.5","","-11.6","","40","","3","","23","","24.1","","102.51","","","","","","Mostly Cloudy"
"2017-03-25 14:00","2017","03","25","14:00","1.7","","-12.6","","34","","7","","10","","24.1","","102.51","","","","","","NA"
"2017-03-25 15:00","2017","03","25","15:00","2.0","","-12.3","","34","","12","","3","","24.1","","102.48","","","","","","NA"
"2017-03-25 16:00","2017","03","25","16:00","1.6","","-12.3","","35","","17","","10","","24.1","","102.52","","","","","","Mainly Clear"
"2017-03-25 17:00","2017","03","25","17:00","0.3","","-8.5","","52","","22","","16","","24.1","","102.57","","","","","","NA"
"2017-03-25 18:00","2017","03","25","18:00","-0.5","","-8.5","","55","","22","","13","","24.1","","102.64","","","","-5","","NA"
"2017-03-25 19:00","2017","03","25","19:00","-2.3","","-8.4","","63","","21","","8","","24.1","","102.72","","","","-5","","Mainly Clear"
"2017-03-25 20:00","2017","03","25","20:00","-3.1","","-7.6","","71","","36","","3","","24.1","","102.80","","","","-4","","NA"
"2017-03-25 21:00","2017","03","25","21:00","-4.5","","-9.6","","68","","13","","4","","24.1","","102.83","","","","-6","","NA"
"2017-03-25 22:00","2017","03","25","22:00","-3.9","","-10.6","","60","","10","","7","","24.1","","102.86","","","","-7","","Clear"
"2017-03-25 23:00","2017","03","25","23:00","-4.8","","-11.4","","60","","11","","6","","24.1","","102.86","","","","-8","","NA"
"2017-03-26 00:00","2017","03","26","00:00","-5.7","","-11.1","","66","","1","","10","","24.1","","102.84","","","","-10","","NA"
"2017-03-26 01:00","2017","03","26","01:00","-4.7","","-10.3","","65","","2","","15","","24.1","","102.88","","","","-10","","Clear"
"2017-03-26 02:00","2017","03","26","02:00","-5.6","","-12.0","","61","","5","","13","","24.1","","102.92","","","","-11","","NA"
"2017-03-26 03:00","2017","03","26","03:00","-5.5","","-15.1","","47","","5","","18","","24.1","","102.93","","","","-12","","NA"
"2017-03-26 04:00","2017","03","26","04:00","-6.0","","-16.1","","45","","5","","19","","24.1","","102.99","","","","-13","","Clear"
"2017-03-26 05:00","2017","03","26","05:00","-6.5","","-16.3","","46","","5","","24","","24.1","","103.02","","","","-14","","NA"
"2017-03-26 06:00","2017","03","26","06:00","-7.8","","-16.8","","49","","4","","21","","48.3","","103.04","","","","-15","","NA"
"2017-03-26 07:00","2017","03","26","07:00","-6.7","","-15.5","","50","","4","","34","","48.3","","103.01","","","","-16","","Mainly Clear"
"2017-03-26 08:00","2017","03","26","08:00","-5.9","","-15.3","","48","","4","","29","","48.3","","103.04","","","","-14","","NA"
"2017-03-26 09:00","2017","03","26","09:00","-4.8","","-15.0","","45","","4","","29","","48.3","","103.01","","","","-13","","NA"
"2017-03-26 10:00","2017","03","26","10:00","-3.4","","-13.7","","45","","4","","28","","48.3","","102.92","","","","-11","","Mainly Clear"
"2017-03-26 11:00","2017","03","26","11:00","-2.1","","-12.8","","44","","4","","24","","48.3","","102.83","","","","-8","","NA"
"2017-03-26 12:00","2017","03","26","12:00","-0.9","","-12.9","","40","","4","","22","","48.3","","102.72","","","","-7","","NA"
"2017-03-26 13:00","2017","03","26","13:00","-0.3","","-11.4","","43","","4","","24","","48.3","","102.62","","","","-6","","Mostly Cloudy"
"2017-03-26 14:00","2017","03","26","14:00","0.5","","-11.0","","42","","5","","26","","48.3","","102.51","","","","","","NA"
"2017-03-26 15:00","2017","03","26","15:00","0.1","","-11.1","","43","","4","","26","","48.3","","102.45","","","","","","NA"
"2017-03-26 16:00","2017","03","26","16:00","0.1","","-10.8","","44","","5","","25","","48.3","","102.39","","","","","","Cloudy"
"2017-03-26 17:00","2017","03","26","17:00","0.1","","-9.1","","50","","5","","20","","24.1","","102.30","","","","","","Rain"
"2017-03-26 18:00","2017","03","26","18:00","0.6","","-7.0","","57","","6","","17","","24.1","","102.24","","","","","","Rain"
"2017-03-26 19:00","2017","03","26","19:00","1.4","","-6.0","","58","","7","","19","","24.1","","102.14","","","","","","Cloudy"
"2017-03-26 20:00","2017","03","26","20:00","0.6","","-4.8","","67","","5","","21","","24.1","","102.09","","","","","","Rain"
"2017-03-26 21:00","2017","03","26","21:00","1.1","","-3.8","","70","","8","","17","","24.1","","102.01","","","","","","Rain"
"2017-03-26 22:00","2017","03","26","22:00","0.2","","-3.5","","76","","5","","15","","24.1","","101.92","","","","","","Cloudy"
"2017-03-26 23:00","2017","03","26","23:00","0.7","","-2.5","","79","","8","","21","","24.1","","101.84","","","","","","Rain"
"2017-03-27 00:00","2017","03","27","00:00","0.8","","-1.8","","83","","8","","16","","24.1","","101.75","","","","","","NA"
"2017-03-27 01:00","2017","03","27","01:00","1.1","","-1.3","","84","","7","","15","","24.1","","101.64","","","","","","Cloudy"
"2017-03-27 02:00","2017","03","27","02:00","1.5","","-1.1","","83","","7","","15","","24.1","","101.56","","","","","","NA"
"2017-03-27 03:00","2017","03","27","03:00","1.9","","-0.9","","82","","7","","14","","24.1","","101.47","","","","","","NA"
"2017-03-27 04:00","2017","03","27","04:00","1.9","","-0.5","","84","","9","","12","","24.1","","101.38","","","","","","Cloudy"
"2017-03-27 05:00","2017","03","27","05:00","1.6","","0.1","","90","","10","","13","","24.1","","101.34","","","","","","Rain"
"2017-03-27 06:00","2017","03","27","06:00","1.4","","0.5","","94","","7","","12","","6.4","","101.28","","","","","","Rain,Fog"
"2017-03-27 07:00","2017","03","27","07:00","1.6","","0.7","","94","","8","","9","","4.0","","101.25","","","","","","Rain,Fog"
"2017-03-27 08:00","2017","03","27","08:00","1.9","","1.0","","94","","9","","9","","9.7","","101.22","","","","","","Rain,Fog"
"2017-03-27 09:00","2017","03","27","09:00","2.4","","1.2","","92","","11","","10","","8.1","","101.18","","","","","","Rain,Fog"
"2017-03-27 10:00","2017","03","27","10:00","2.5","","1.5","","93","","10","","10","","2.8","","101.14","","","","","","Drizzle,Fog"
"2017-03-27 11:00","2017","03","27","11:00","2.6","","1.7","","94","","8","","8","","2.8","","101.11","","","","","","Rain,Fog"
"2017-03-27 12:00","2017","03","27","12:00","3.2","","2.3","","94","","11","","5","","4.8","","101.04","","","","","","Rain,Fog"
"2017-03-27 13:00","2017","03","27","13:00","3.2","","2.5","","95","","7","","4","","4.8","","101.01","","","","","","Rain,Fog"
"2017-03-27 14:00","2017","03","27","14:00","3.9","","2.9","","93","","11","","4","","4.8","","100.96","","","","","","Rain,Fog"
"2017-03-27 15:00","2017","03","27","15:00","4.0","","3.1","","94","","13","","7","","6.4","","100.93","","","","","","Drizzle,Fog"
"2017-03-27 16:00","2017","03","27","16:00","3.5","","2.8","","95","","9","","6","","3.6","","100.90","","","","","","Drizzle,Fog"
"2017-03-27 17:00","2017","03","27","17:00","3.5","","2.9","","96","","9","","7","","2.8","","100.91","","","","","","Drizzle,Fog"
"2017-03-27 18:00","2017","03","27","18:00","3.5","","2.9","","96","","10","","5","","3.6","","100.90","","","","","","Drizzle,Fog"
"2017-03-27 19:00","2017","03","27","19:00","3.1","","2.5","","96","","36","","2","","2.4","","100.91","","","","","","Drizzle,Fog"
"2017-03-27 20:00","2017","03","27","20:00","3.3","","2.9","","97","","12","","5","","2.0","","100.93","","","","","","Drizzle,Fog"
"2017-03-27 21:00","2017","03","27","21:00","2.7","","2.3","","97","","7","","4","","1.2","","100.91","","","","","","Drizzle,Fog"
"2017-03-27 22:00","2017","03","27","22:00","2.5","","2.1","","97","","36","","1","","1.2","","100.89","","","","","","Drizzle,Fog"
"2017-03-27 23:00","2017","03","27","23:00","1.7","","1.3","","97","","36","","10","","1.6","","100.89","","","","","","Rain,Fog"
"2017-03-28 00:00","2017","03","28","00:00","1.3","","0.9","","97","","3","","10","","1.6","","100.88","","","","","","Drizzle,Fog"
"2017-03-28 01:00","2017","03","28","01:00","1.2","","0.8","","97","","2","","9","","1.0","","100.85","","","","","","Fog"
"2017-03-28 02:00","2017","03","28","02:00","1.1","","0.7","","97","","2","","12","","0.4","","100.83","","","","","","Drizzle,Fog"
"2017-03-28 03:00","2017","03","28","03:00","1.0","","0.6","","97","","3","","10","","1.2","","100.79","","","","","","Drizzle,Fog"
"2017-03-28 04:00","2017","03","28","04:00","0.9","","0.5","","97","","1","","13","","1.6","","100.79","","","","","","Drizzle,Fog"
"2017-03-28 05:00","2017","03","28","05:00","0.9","","0.5","","97","","1","","11","","4.0","","100.76","","","","","","Rain,Fog"
"2017-03-28 06:00","2017","03","28","06:00","0.9","","0.5","","97","","2","","15","","2.0","","100.79","","","","","","Rain,Fog"
"2017-03-28 07:00","2017","03","28","07:00","0.8","","0.4","","97","","2","","16","","2.4","","100.81","","","","","","Rain,Fog"
"2017-03-28 08:00","2017","03","28","08:00","1.2","","0.8","","97","","1","","16","","4.8","","100.83","","","","","","Drizzle,Fog"
"2017-03-28 09:00","2017","03","28","09:00","1.3","","0.7","","96","","2","","14","","4.8","","100.88","","","","","","Drizzle,Fog"
"2017-03-28 10:00","2017","03","28","10:00","1.6","","0.9","","95","","3","","14","","4.8","","100.92","","","","","","Drizzle,Fog"
"2017-03-28 11:00","2017","03","28","11:00","2.5","","1.6","","94","","35","","12","","6.4","","100.94","","","","","","Drizzle,Fog"
"2017-03-28 12:00","2017","03","28","12:00","2.7","","1.7","","93","","35","","10","","8.1","","100.97","","","","","","Drizzle,Fog"
"2017-03-28 13:00","2017","03","28","13:00","3.1","","2.4","","95","","36","","2","","4.8","","101.00","","","","","","Drizzle,Fog"
"2017-03-28 14:00","2017","03","28","14:00","3.7","","3.0","","95","","26","","4","","6.4","","101.01","","","","","","Rain,Fog"
"2017-03-28 15:00","2017","03","28","15:00","4.5","","3.2","","91","","31","","8","","11.3","","101.04","","","","","","NA"
"2017-03-28 16:00","2017","03","28","16:00","4.1","","2.8","","91","","21","","10","","16.1","","101.10","","","","","","Cloudy"
"2017-03-28 17:00","2017","03","28","17:00","3.3","","2.4","","94","","21","","10","","16.1","","101.16","","","","","","NA"
"2017-03-28 18:00","2017","03","28","18:00","3.0","","2.3","","95","","23","","9","","12.9","","101.25","","","","","","NA"
"2017-03-28 19:00","2017","03","28","19:00","2.6","","2.0","","96","","24","","7","","2.4","","101.31","","","","","","Drizzle,Fog"
"2017-03-28 20:00","2017","03","28","20:00","2.8","","2.4","","97","","23","","4","","3.2","","101.37","","","","","","Fog"
"2017-03-28 21:00","2017","03","28","21:00","2.3","","1.9","","97","","28","","8","","6.4","","101.38","","","","","","Drizzle,Fog"
"2017-03-28 22:00","2017","03","28","22:00","2.9","","2.5","","97","","34","","7","","4.0","","101.41","","","","","","Rain,Fog"
"2017-03-28 23:00","2017","03","28","23:00","3.0","","2.6","","97","","34","","7","","2.4","","101.45","","","","","","Fog"
"2017-03-29 00:00","2017","03","29","00:00","3.0","","0.7","","85","","36","","13","","24.1","","101.47","","","","","","NA"
"2017-03-29 01:00","2017","03","29","01:00","2.7","","0.8","","87","","32","","9","","24.1","","101.49","","","","","","Mostly Cloudy"
"2017-03-29 02:00","2017","03","29","02:00","2.5","","-1.1","","77","","35","","12","","24.1","","101.54","","","","","","NA"
"2017-03-29 03:00","2017","03","29","03:00","2.3","","-1.9","","74","","34","","12","","24.1","","101.55","","","","","","NA"
"2017-03-29 04:00","2017","03","29","04:00","2.2","","-1.6","","76","","30","","10","","24.1","","101.61","","","","","","Cloudy"
"2017-03-29 05:00","2017","03","29","05:00","2.1","","-1.9","","75","","32","","10","","24.1","","101.62","","","","","","NA"
"2017-03-29 06:00","2017","03","29","06:00","2.3","","-2.8","","69","","33","","12","","24.1","","101.63","","","","","","NA"
"2017-03-29 07:00","2017","03","29","07:00","2.4","","-3.1","","67","","30","","10","","24.1","","101.64","","","","","","Cloudy"
"2017-03-29 08:00","2017","03","29","08:00","2.7","","-3.2","","65","","29","","13","","24.1","","101.66","","","","","","NA"
"2017-03-29 09:00","2017","03","29","09:00","3.0","","-3.6","","62","","29","","16","","24.1","","101.71","","","","","","NA"
"2017-03-29 10:00","2017","03","29","10:00","3.5","","-4.5","","56","","30","","18","","24.1","","101.72","","","","","","Snow Showers"
"2017-03-29 11:00","2017","03","29","11:00","3.4","","-3.4","","61","","30","","23","","24.1","","101.75","","","","","","NA"
"2017-03-29 12:00","2017","03","29","12:00","4.0","","-4.0","","56","","34","","21","","24.1","","101.75","","","","","","NA"
"2017-03-29 13:00","2017","03","29","13:00","4.3","","-4.0","","55","","30","","12","","24.1","","101.79","","","","","","Cloudy"
"2017-03-29 14:00","2017","03","29","14:00","5.2","","-5.8","","45","","31","","13","","24.1","","101.75","","","","","","NA"
"2017-03-29 15:00","2017","03","29","15:00","5.8","","-6.8","","40","","34","","22","","24.1","","101.75","","","","","","NA"
"2017-03-29 16:00","2017","03","29","16:00","6.2","","-6.4","","40","","31","","17","","24.1","","101.76","","","","","","Mostly Cloudy"
"2017-03-29 17:00","2017","03","29","17:00","5.3","","-6.3","","43","","31","","21","","48.3","","101.87","","","","","","NA"
"2017-03-29 18:00","2017","03","29","18:00","4.5","","-6.4","","45","","34","","25","","48.3","","101.97","","","","","","NA"
"2017-03-29 19:00","2017","03","29","19:00","4.1","","-7.1","","44","","33","","17","","24.1","","102.05","","","","","","Mostly Cloudy"
"2017-03-29 20:00","2017","03","29","20:00","3.5","","-6.5","","48","","32","","14","","24.1","","102.13","","","","","","NA"
"2017-03-29 21:00","2017","03","29","21:00","3.4","","-6.9","","47","","33","","21","","24.1","","102.17","","","","","","NA"
"2017-03-29 22:00","2017","03","29","22:00","2.6","","-7.3","","48","","35","","19","","24.1","","102.18","","","","","","Cloudy"
"2017-03-29 23:00","2017","03","29","23:00","2.5","","-7.7","","47","","34","","11","","24.1","","102.11","","","","","","NA"
"2017-03-30 00:00","2017","03","30","00:00","2.2","","-7.7","","48","","34","","18","","24.1","","102.09","","","","","","NA"
"2017-03-30 01:00","2017","03","30","01:00","1.7","","-7.4","","51","","35","","13","","24.1","","102.07","","","","","","Mostly Cloudy"
"2017-03-30 02:00","2017","03","30","02:00","1.6","","-7.5","","51","","1","","22","","22.5","","102.02","","","","","","NA"
"2017-03-30 03:00","2017","03","30","03:00","1.0","","-6.1","","59","","2","","15","","24.1","","102.07","","","","","","NA"
"2017-03-30 04:00","2017","03","30","04:00","1.0","","-6.6","","57","","36","","14","","24.1","","102.13","","","","","","Cloudy"
"2017-03-30 05:00","2017","03","30","05:00","0.2","","-7.6","","56","","34","","8","","24.1","","102.19","","","","","","NA"
"2017-03-30 06:00","2017","03","30","06:00","-0.2","","-8.4","","54","","34","","11","","24.1","","102.24","","","","-4","","NA"
"2017-03-30 07:00","2017","03","30","07:00","0.7","","-8.8","","49","","34","","13","","48.3","","102.28","","","","","","Clear"
"2017-03-30 08:00","2017","03","30","08:00","1.4","","-8.7","","47","","36","","17","","48.3","","102.25","","","","","","NA"
"2017-03-30 09:00","2017","03","30","09:00","1.9","","-8.3","","47","","35","","17","","48.3","","102.25","","","","","","NA"
"2017-03-30 10:00","2017","03","30","10:00","2.4","","-9.3","","42","","34","","10","","48.3","","102.26","","","","","","Clear"
"2017-03-30 11:00","2017","03","30","11:00","3.5","","-8.3","","42","","36","","3","","48.3","","102.17","","","","","","NA"
"2017-03-30 12:00","2017","03","30","12:00","4.0","","-9.8","","36","","3","","5","","48.3","","102.11","","","","","","NA"
"2017-03-30 13:00","2017","03","30","13:00","4.5","","-7.3","","42","","23","","9","","48.3","","102.02","","","","","","Mainly Clear"
"2017-03-30 14:00","2017","03","30","14:00","5.4","","-6.5","","42","","20","","14","","48.3","","101.96","","","","","","NA"
"2017-03-30 15:00","2017","03","30","15:00","5.3","","-7.2","","40","","20","","12","","48.3","","101.91","","","","","","NA"
"2017-03-30 16:00","2017","03","30","16:00","5.0","","-7.5","","40","","21","","11","","48.3","","101.88","","","","","","Mostly Cloudy"
"2017-03-30 17:00","2017","03","30","17:00","3.9","","-6.4","","47","","22","","13","","48.3","","101.81","","","","","","NA"
"2017-03-30 18:00","2017","03","30","18:00","3.7","","-7.2","","45","","15","","12","","48.3","","101.81","","","","","","NA"
"2017-03-30 19:00","2017","03","30","19:00","3.4","","-6.9","","47","","13","","10","","32.2","","101.83","","","","","","Cloudy"
"2017-03-30 20:00","2017","03","30","20:00","3.3","","-7.3","","46","","11","","7","","24.1","","101.82","","","","","","NA"
"2017-03-30 21:00","2017","03","30","21:00","2.0","","-5.9","","56","","8","","5","","24.1","","101.83","","","","","","NA"
"2017-03-30 22:00","2017","03","30","22:00","2.1","","-6.3","","54","","6","","8","","24.1","","101.84","","","","","","Cloudy"
"2017-03-30 23:00","2017","03","30","23:00","1.7","","-5.9","","57","","4","","13","","24.1","","101.86","","","","","","NA"
"2017-03-31 00:00","2017","03","31","00:00","1.9","","-6.7","","53","","5","","14","","24.1","","101.77","","","","","","NA"
"2017-03-31 01:00","2017","03","31","01:00","2.1","","-7.3","","50","","7","","19","","24.1","","101.70","","","","","","Cloudy"
"2017-03-31 02:00","2017","03","31","02:00","1.2","","-6.6","","56","","5","","18","","24.1","","101.67","","","","","","NA"
"2017-03-31 03:00","2017","03","31","03:00","2.0","","-6.9","","52","","7","","17","","24.1","","101.65","","","","","","NA"
"2017-03-31 04:00","2017","03","31","04:00","2.0","","-6.9","","52","","7","","18","","24.1","","101.67","","","","","","Cloudy"
"2017-03-31 05:00","2017","03","31","05:00","0.7","","-6.2","","60","","5","","19","","24.1","","101.62","","","","","","NA"
"2017-03-31 06:00","2017","03","31","06:00","0.2","","-5.8","","64","","4","","22","","24.1","","101.63","","","","","","NA"
"2017-03-31 07:00","2017","03","31","07:00","0.3","","-6.2","","62","","4","","25","","24.1","","101.58","","","","","","Cloudy"
"2017-03-31 08:00","2017","03","31","08:00","0.8","","-6.3","","59","","5","","21","","24.1","","101.53","","","","","","NA"
"2017-03-31 09:00","2017","03","31","09:00","1.5","","-5.4","","60","","5","","23","","48.3","","101.52","","","","","","NA"
"2017-03-31 10:00","2017","03","31","10:00","3.2","","-4.8","","56","","5","","23","","48.3","","101.50","","","","","","Cloudy"
"2017-03-31 11:00","2017","03","31","11:00","3.2","","-5.0","","55","","4","","23","","24.1","","101.45","","","","","","NA"
"2017-03-31 12:00","2017","03","31","12:00","3.4","","-4.6","","56","","4","","23","","24.1","","101.43","","","","","","NA"
"2017-03-31 13:00","2017","03","31","13:00","3.9","","-4.6","","54","","4","","24","","24.1","","101.34","","","","","","Cloudy"
"2017-03-31 14:00","2017","03","31","14:00","4.3","","-4.2","","54","","5","","20","","24.1","","101.27","","","","","","NA"
"2017-03-31 15:00","2017","03","31","15:00","4.0","","-3.3","","59","","10","","20","","16.1","","101.24","","","","","","Rain"
"2017-03-31 16:00","2017","03","31","16:00","3.2","","-1.7","","70","","7","","26","","16.1","","101.22","","","","","","Rain,Snow"
"2017-03-31 17:00","2017","03","31","17:00","2.5","","0.1","","84","","9","","17","","8.1","","101.19","","","","","","Rain,Snow,Fog"
"2017-03-31 18:00","2017","03","31","18:00","1.7","","0.2","","90","","9","","14","","6.4","","101.18","","","","","","Drizzle,Snow,Fog"
"2017-03-31 19:00","2017","03","31","19:00","0.7","","-0.3","","93","","7","","13","","4.0","","101.19","","","","","","Snow"
"2017-03-31 20:00","2017","03","31","20:00","0.3","","-0.4","","95","","6","","15","","2.4","","101.17","","","","","","Snow"
"2017-03-31 21:00","2017","03","31","21:00","0.6","","-0.3","","94","","8","","23","","3.6","","101.13","","","","","","Snow"
"2017-03-31 22:00","2017","03","31","22:00","0.7","","-0.3","","93","","7","","22","","4.0","","101.05","","","","","","Snow"
"2017-03-31 23:00","2017","03","31","23:00","0.6","","-0.4","","93","","7","","18","","6.4","","101.02","","","","","","Snow"
