"Station Name","MONTREAL INTL A"
"Province","QUEBEC"
"Latitude","45.47"
"Longitude","-73.74"
"Elevation","36.00"
"Climate Identifier","7025251"
"WMO Identifier","71627"
"TC Identifier","YUL"
"All times are specified in Local Standard Time (LST). Add 1 hour to adjust for Daylight Saving Time where and when it is observed."

"Legend"
"E","Estimated"
"M","Missing"
"NA","Not Available"

"Date/Time","Year","Month","Day","Time","Temp (°C)","Temp Flag","Dew Point Temp (°C)","Dew Point Temp Flag","Rel Hum (%)","Rel Hum Flag","Wind Dir (10s deg)","Wind Dir Flag","Wind Spd (km/h)","Wind Spd Flag","Visibility (km)","Visibility Flag","Stn Press (kPa)","Stn Press Flag","Hmdx","Hmdx Flag","Wind Chill","Wind Chill Flag","Weather"
"2017-01-01 00:00","2017","01","01","00:00","-9.0","","-10.9","","86","","1","","11","","8.1","","99.96","","","","-14","","Snow"
"2017-01-01 01:00","2017","01","01","01:00","-8.6","","-10.5","","86","","34","","10","","9.7","","100.00","","","","-14","","Snow"
"2017-01-01 02:00","2017","01","01","02:00","-8.0","","-9.9","","86","","34","","7","","3.2","","100.06","","","","-12","","Snow"
"2017-01-01 03:00","2017","01","01","03:00","-7.7","","-9.7","","86","","35","","8","","12.9","","100.10","","","","-12","","Snow"
"2017-01-01 04:00","2017","01","01","04:00","-7.1","","-9.1","","86","","36","","5","","6.4","","100.12","","","","-10","","Snow"
"2017-01-01 05:00","2017","01","01","05:00","-6.7","","-8.5","","87","","33","","5","","3.2","","100.19","","","","-9","","Snow"
"2017-01-01 06:00","2017","01","01","06:00","-6.5","","-8.0","","89","","31","","11","","8.1","","100.41","","","","-11","","Snow"
"2017-01-01 07:00","2017","01","01","07:00","-2.6","","-5.3","","82","","26","","32","","19.3","","100.60","","","","-10","","Blowing Snow"
"2017-01-01 08:00","2017","01","01","08:00","-3.0","","-7.2","","73","","26","","33","","24.1","","100.82","","","","-11","","Blowing Snow"
"2017-01-01 09:00","2017","01","01","09:00","-2.8","","-7.0","","73","","27","","31","","24.1","","100.99","","","","-10","","Blowing Snow"
"2017-01-01 10:00","2017","01","01","10:00","-2.8","","-7.4","","71","","27","","34","","24.1","","101.21","","","","-11","","Blowing Snow"
"2017-01-01 11:00","2017","01","01","11:00","-3.2","","-8.1","","69","","26","","31","","24.1","","101.33","","","","-11","","Blowing Snow"
"2017-01-01 12:00","2017","01","01","12:00","-3.4","","-8.3","","69","","26","","24","","24.1","","101.43","","","","-10","","Blowing Snow"
"2017-01-01 13:00","2017","01","01","13:00","-3.2","","-8.3","","68","","25","","24","","24.1","","101.52","","","","-10","","Blowing Snow"
"2017-01-01 14:00","2017","01","01","14:00","-3.1","","-8.6","","66","","25","","21","","24.1","","101.68","","","","-9","","Blowing Snow"
"2017-01-01 15:00","2017","01","01","15:00","-3.5","","-9.6","","63","","25","","27","","24.1","","101.81","","","","-11","","Blowing Snow"
"2017-01-01 16:00","2017","01","01","16:00","-3.9","","-10.2","","62","","26","","15","","24.1","","101.91","","","","-9","","Mainly Clear"
"2017-01-01 17:00","2017","01","01","17:00","-4.4","","-10.6","","62","","33","","5","","24.1","","102.01","","","","-7","","NA"
"2017-01-01 18:00","2017","01","01","18:00","-5.8","","-10.3","","71","","36","","3","","24.1","","102.13","","","","-7","","NA"
"2017-01-01 19:00","2017","01","01","19:00","-5.5","","-9.8","","72","","23","","5","","24.1","","102.24","","","","-8","","Mostly Cloudy"
"2017-01-01 20:00","2017","01","01","20:00","-4.6","","-9.1","","71","","36","","3","","24.1","","102.29","","","","-6","","NA"
"2017-01-01 21:00","2017","01","01","21:00","-3.4","","-7.9","","71","","13","","7","","24.1","","102.32","","","","-6","","NA"
"2017-01-01 22:00","2017","01","01","22:00","-3.9","","-7.7","","75","","11","","7","","24.1","","102.35","","","","-7","","Mainly Clear"
"2017-01-01 23:00","2017","01","01","23:00","-4.3","","-8.3","","74","","13","","7","","24.1","","102.39","","","","-7","","NA"
"2017-01-02 00:00","2017","01","02","00:00","-5.2","","-8.5","","78","","36","","2","","24.1","","102.45","","","","-6","","NA"
"2017-01-02 01:00","2017","01","02","01:00","-5.5","","-8.8","","78","","36","","3","","24.1","","102.47","","","","-7","","Mostly Cloudy"
"2017-01-02 02:00","2017","01","02","02:00","-6.4","","-8.5","","85","","0","","1","","24.1","","102.53","","","","-7","","NA"
"2017-01-02 03:00","2017","01","02","03:00","-10.2","","-11.7","","89","","26","","4","","24.1","","102.62","","","","-13","","NA"
"2017-01-02 04:00","2017","01","02","04:00","-7.7","","-9.5","","87","","36","","3","","24.1","","102.63","","","","-9","","Cloudy"
"2017-01-02 05:00","2017","01","02","05:00","-8.5","","-9.7","","91","","22","","5","","24.1","","102.69","","","","-11","","NA"
"2017-01-02 06:00","2017","01","02","06:00","-7.0","","-8.1","","92","","22","","3","","24.1","","102.75","","","","-9","","NA"
"2017-01-02 07:00","2017","01","02","07:00","-6.3","","-7.4","","92","","22","","4","","24.1","","102.79","","","","-8","","Mostly Cloudy"
"2017-01-02 08:00","2017","01","02","08:00","-5.9","","-7.0","","92","","36","","2","","24.1","","102.80","","","","-7","","NA"
"2017-01-02 09:00","2017","01","02","09:00","-4.3","","-5.4","","92","","10","","9","","24.1","","102.86","","","","-8","","NA"
"2017-01-02 10:00","2017","01","02","10:00","-2.5","","-5.0","","83","","12","","7","","24.1","","102.90","","","","-5","","Mostly Cloudy"
"2017-01-02 11:00","2017","01","02","11:00","-0.9","","-5.3","","72","","8","","3","","24.1","","102.86","","","","-2","","NA"
"2017-01-02 12:00","2017","01","02","12:00","0.5","","-5.1","","66","","10","","5","","24.1","","102.80","","","","","","NA"
"2017-01-02 13:00","2017","01","02","13:00","0.8","","-4.8","","66","","2","","9","","24.1","","102.75","","","","","","Mainly Clear"
"2017-01-02 14:00","2017","01","02","14:00","1.2","","-4.5","","66","","3","","12","","24.1","","102.69","","","","","","NA"
"2017-01-02 15:00","2017","01","02","15:00","-0.4","","-4.8","","72","","3","","15","","24.1","","102.67","","","","-5","","NA"
"2017-01-02 16:00","2017","01","02","16:00","-1.5","","-5.2","","76","","2","","18","","24.1","","102.69","","","","-7","","Clear"
"2017-01-02 17:00","2017","01","02","17:00","-3.2","","-6.0","","81","","3","","17","","24.1","","102.70","","","","-9","","NA"
"2017-01-02 18:00","2017","01","02","18:00","-3.3","","-6.4","","79","","4","","20","","24.1","","102.65","","","","-9","","NA"
"2017-01-02 19:00","2017","01","02","19:00","-3.3","","-6.4","","79","","4","","22","","24.1","","102.58","","","","-10","","Clear"
"2017-01-02 20:00","2017","01","02","20:00","-3.8","","-6.6","","81","","2","","21","","24.1","","102.57","","","","-10","","NA"
"2017-01-02 21:00","2017","01","02","21:00","-5.2","","-7.3","","85","","2","","17","","24.1","","102.47","","","","-11","","NA"
"2017-01-02 22:00","2017","01","02","22:00","-6.1","","-7.9","","87","","2","","23","","24.1","","102.39","","","","-13","","Clear"
"2017-01-02 23:00","2017","01","02","23:00","-6.5","","-8.0","","89","","3","","21","","24.1","","102.29","","","","-14","","NA"
"2017-01-03 00:00","2017","01","03","00:00","-6.4","","-7.9","","89","","2","","22","","24.1","","102.27","","","","-14","","NA"
"2017-01-03 01:00","2017","01","03","01:00","-5.8","","-7.3","","89","","3","","24","","24.1","","102.19","","","","-13","","Mostly Cloudy"
"2017-01-03 02:00","2017","01","03","02:00","-5.2","","-6.9","","88","","2","","22","","24.1","","102.16","","","","-12","","NA"
"2017-01-03 03:00","2017","01","03","03:00","-4.8","","-6.5","","88","","2","","23","","24.1","","102.09","","","","-12","","NA"
"2017-01-03 04:00","2017","01","03","04:00","-4.5","","-6.5","","86","","3","","21","","24.1","","101.99","","","","-11","","Cloudy"
"2017-01-03 05:00","2017","01","03","05:00","-4.6","","-6.8","","85","","3","","22","","24.1","","101.84","","","","-11","","NA"
"2017-01-03 06:00","2017","01","03","06:00","-4.4","","-6.7","","84","","4","","21","","24.1","","101.77","","","","-11","","NA"
"2017-01-03 07:00","2017","01","03","07:00","-4.3","","-6.6","","84","","3","","24","","24.1","","101.68","","","","-11","","Cloudy"
"2017-01-03 08:00","2017","01","03","08:00","-4.5","","-6.5","","86","","3","","27","","12.9","","101.62","","","","-12","","Snow"
"2017-01-03 09:00","2017","01","03","09:00","-3.9","","-5.3","","90","","4","","23","","6.4","","101.53","","","","-11","","Freezing Rain,Snow"
"2017-01-03 10:00","2017","01","03","10:00","-3.0","","-4.4","","90","","5","","17","","12.9","","101.39","","","","-9","","Snow"
"2017-01-03 11:00","2017","01","03","11:00","-2.2","","-3.8","","89","","5","","23","","11.3","","101.24","","","","-8","","Snow"
"2017-01-03 12:00","2017","01","03","12:00","-1.5","","-2.9","","90","","3","","25","","9.7","","101.10","","","","-8","","Freezing Rain"
"2017-01-03 13:00","2017","01","03","13:00","-1.1","","-2.2","","92","","4","","29","","8.1","","100.97","","","","-8","","Freezing Rain"
"2017-01-03 14:00","2017","01","03","14:00","-0.9","","-2.0","","92","","4","","31","","12.9","","100.85","","","","-8","","Freezing Rain"
"2017-01-03 15:00","2017","01","03","15:00","-0.8","","-1.8","","93","","4","","30","","8.1","","100.75","","","","-8","","Freezing Rain"
"2017-01-03 16:00","2017","01","03","16:00","-0.8","","-1.8","","93","","4","","28","","9.7","","100.65","","","","-7","","Freezing Rain"
"2017-01-03 17:00","2017","01","03","17:00","-0.3","","-1.2","","94","","3","","26","","12.9","","100.54","","","","-6","","Freezing Rain"
"2017-01-03 18:00","2017","01","03","18:00","-0.4","","-1.3","","94","","3","","25","","16.1","","100.43","","","","-6","","Freezing Drizzle"
"2017-01-03 19:00","2017","01","03","19:00","0.1","","-0.8","","94","","5","","27","","19.3","","100.32","","","","","","Rain"
"2017-01-03 20:00","2017","01","03","20:00","0.0","","-0.9","","94","","4","","28","","19.3","","100.15","","","","-6","","Rain"
"2017-01-03 21:00","2017","01","03","21:00","0.3","","-0.6","","94","","4","","26","","19.3","","99.96","","","","","","Rain"
"2017-01-03 22:00","2017","01","03","22:00","0.4","","-0.6","","93","","4","","23","","16.1","","99.84","","","","","","Rain"
"2017-01-03 23:00","2017","01","03","23:00","0.3","","-0.6","","94","","4","","26","","4.0","","99.71","","","","","","Snow,Fog"
"2017-01-04 00:00","2017","01","04","00:00","0.2","","-0.7","","94","","4","","25","","2.4","","99.52","","","","","","Snow,Fog"
"2017-01-04 01:00","2017","01","04","01:00","0.0","","-0.7","","95","","5","","23","","2.4","","99.38","","","","-6","","Snow,Fog"
"2017-01-04 02:00","2017","01","04","02:00","-0.2","","-0.9","","95","","4","","19","","1.6","","99.33","","","","-5","","Snow,Fog"
"2017-01-04 03:00","2017","01","04","03:00","-0.7","","-1.6","","94","","5","","19","","3.2","","99.22","","","","-6","","Snow,Fog"
"2017-01-04 04:00","2017","01","04","04:00","-1.2","","-2.0","","94","","3","","22","","2.0","","99.09","","","","-7","","Snow,Fog"
"2017-01-04 05:00","2017","01","04","05:00","-1.6","","-2.6","","93","","2","","18","","8.1","","99.00","","","","-7","","Snow,Fog"
"2017-01-04 06:00","2017","01","04","06:00","-1.9","","-2.9","","93","","36","","17","","6.4","","98.95","","","","-7","","Snow,Fog"
"2017-01-04 07:00","2017","01","04","07:00","-2.5","","-3.6","","92","","36","","15","","6.4","","98.91","","","","-7","","Snow,Fog"
"2017-01-04 08:00","2017","01","04","08:00","-3.0","","-4.0","","93","","35","","17","","3.2","","98.88","","","","-9","","Freezing Drizzle,Fog"
"2017-01-04 09:00","2017","01","04","09:00","-3.2","","-4.3","","92","","1","","19","","4.8","","98.82","","","","-9","","Freezing Drizzle,Snow,Fog"
"2017-01-04 10:00","2017","01","04","10:00","-3.2","","-4.5","","91","","2","","16","","4.0","","98.81","","","","-9","","Snow,Fog"
"2017-01-04 11:00","2017","01","04","11:00","-3.0","","-4.3","","91","","32","","5","","2.8","","98.78","","","","-5","","Snow,Fog"
"2017-01-04 12:00","2017","01","04","12:00","-2.4","","-3.8","","90","","36","","2","","4.8","","98.73","","","","-3","","Freezing Drizzle,Fog"
"2017-01-04 13:00","2017","01","04","13:00","-1.0","","-1.8","","94","","20","","10","","6.4","","98.70","","","","-5","","Snow,Fog"
"2017-01-04 14:00","2017","01","04","14:00","0.5","","-0.4","","94","","22","","17","","16.1","","98.68","","","","","","NA"
"2017-01-04 15:00","2017","01","04","15:00","1.6","","-0.2","","88","","23","","18","","24.1","","98.67","","","","","","NA"
"2017-01-04 16:00","2017","01","04","16:00","1.6","","-0.8","","84","","23","","35","","19.3","","98.73","","","","","","Mostly Cloudy"
"2017-01-04 17:00","2017","01","04","17:00","1.8","","-2.5","","73","","23","","54","","19.3","","98.76","","","","","","NA"
"2017-01-04 18:00","2017","01","04","18:00","-0.2","","-1.5","","91","","23","","40","","1.6","","98.88","","","","-8","","Snow,Fog,Blowing Snow"
"2017-01-04 19:00","2017","01","04","19:00","-1.5","","-3.5","","86","","25","","41","","8.1","","98.99","","","","-9","","Snow,Fog,Blowing Snow"
"2017-01-04 20:00","2017","01","04","20:00","-2.3","","-4.0","","88","","25","","37","","6.4","","99.06","","","","-10","","Snow,Fog,Blowing Snow"
"2017-01-04 21:00","2017","01","04","21:00","-2.8","","-7.4","","71","","23","","29","","24.1","","99.14","","","","-10","","NA"
"2017-01-04 22:00","2017","01","04","22:00","-4.0","","-9.3","","67","","24","","27","","24.1","","99.21","","","","-11","","Mostly Cloudy"
"2017-01-04 23:00","2017","01","04","23:00","-4.7","","-9.6","","69","","24","","39","","24.1","","99.31","","","","-14","","NA"
"2017-01-05 00:00","2017","01","05","00:00","-4.9","","-10.9","","63","","24","","37","","24.1","","99.36","","","","-14","","NA"
"2017-01-05 01:00","2017","01","05","01:00","-5.5","","-11.3","","64","","23","","26","","24.1","","99.37","","","","-13","","Mostly Cloudy"
"2017-01-05 02:00","2017","01","05","02:00","-5.7","","-12.5","","59","","24","","32","","24.1","","99.39","","","","-14","","NA"
"2017-01-05 03:00","2017","01","05","03:00","-6.3","","-12.9","","60","","23","","35","","24.1","","99.40","","","","-15","","NA"
"2017-01-05 04:00","2017","01","05","04:00","-6.7","","-11.7","","68","","24","","54","","24.1","","99.41","","","","-18","","Blowing Snow"
"2017-01-05 05:00","2017","01","05","05:00","-6.5","","-12.2","","64","","24","","53","","24.1","","99.47","","","","-17","","Blowing Snow"
"2017-01-05 06:00","2017","01","05","06:00","-7.0","","-11.8","","69","","25","","48","","24.1","","99.63","","","","-18","","Snow Showers,Blowing Snow"
"2017-01-05 07:00","2017","01","05","07:00","-8.8","","-12.8","","73","","26","","40","","8.1","","99.84","","","","-19","","Snow Showers,Blowing Snow"
"2017-01-05 08:00","2017","01","05","08:00","-10.3","","-15.0","","69","","27","","30","","24.1","","100.01","","","","-20","","Blowing Snow"
"2017-01-05 09:00","2017","01","05","09:00","-10.5","","-15.7","","66","","27","","35","","24.1","","100.11","","","","-21","","Blowing Snow"
"2017-01-05 10:00","2017","01","05","10:00","-9.6","","-15.6","","62","","25","","31","","24.1","","100.20","","","","-19","","Blowing Snow"
"2017-01-05 11:00","2017","01","05","11:00","-8.7","","-14.7","","62","","26","","29","","24.1","","100.22","","","","-18","","NA"
"2017-01-05 12:00","2017","01","05","12:00","-7.8","","-14.1","","61","","26","","23","","48.3","","100.22","","","","-16","","NA"
"2017-01-05 13:00","2017","01","05","13:00","-6.8","","-14.2","","56","","27","","35","","48.3","","100.22","","","","-16","","Clear"
"2017-01-05 14:00","2017","01","05","14:00","-6.7","","-14.1","","56","","25","","30","","24.1","","100.31","","","","-15","","NA"
"2017-01-05 15:00","2017","01","05","15:00","-6.5","","-13.9","","56","","27","","26","","24.1","","100.34","","","","-14","","NA"
"2017-01-05 16:00","2017","01","05","16:00","-6.8","","-13.1","","61","","27","","17","","24.1","","100.39","","","","-13","","Mostly Cloudy"
"2017-01-05 17:00","2017","01","05","17:00","-7.5","","-12.8","","66","","24","","15","","24.1","","100.39","","","","-14","","NA"
"2017-01-05 18:00","2017","01","05","18:00","-6.6","","-11.4","","69","","24","","16","","24.1","","100.44","","","","-13","","NA"
"2017-01-05 19:00","2017","01","05","19:00","-6.3","","-11.1","","69","","24","","13","","24.1","","100.45","","","","-12","","Mostly Cloudy"
"2017-01-05 20:00","2017","01","05","20:00","-5.9","","-11.3","","66","","25","","22","","24.1","","100.49","","","","-13","","NA"
"2017-01-05 21:00","2017","01","05","21:00","-6.3","","-11.5","","67","","23","","21","","24.1","","100.53","","","","-13","","NA"
"2017-01-05 22:00","2017","01","05","22:00","-7.4","","-12.2","","69","","24","","20","","24.1","","100.60","","","","-15","","Mainly Clear"
"2017-01-05 23:00","2017","01","05","23:00","-7.3","","-12.8","","65","","25","","26","","24.1","","100.63","","","","-15","","NA"
"2017-01-06 00:00","2017","01","06","00:00","-8.2","","-13.3","","67","","24","","22","","24.1","","100.67","","","","-16","","NA"
"2017-01-06 01:00","2017","01","06","01:00","-9.0","","-13.7","","69","","23","","16","","24.1","","100.71","","","","-16","","Mainly Clear"
"2017-01-06 02:00","2017","01","06","02:00","-9.0","","-13.5","","70","","25","","17","","24.1","","100.80","","","","-16","","Snow"
"2017-01-06 03:00","2017","01","06","03:00","-9.1","","-13.3","","72","","24","","17","","24.1","","100.87","","","","-16","","NA"
"2017-01-06 04:00","2017","01","06","04:00","-9.2","","-13.0","","74","","25","","18","","24.1","","100.91","","","","-16","","Mostly Cloudy"
"2017-01-06 05:00","2017","01","06","05:00","-9.8","","-13.6","","74","","25","","17","","24.1","","100.94","","","","-17","","NA"
"2017-01-06 06:00","2017","01","06","06:00","-10.3","","-14.3","","73","","26","","16","","24.1","","100.95","","","","-17","","NA"
"2017-01-06 07:00","2017","01","06","07:00","-11.3","","-14.7","","76","","28","","7","","24.1","","101.07","","","","-16","","Clear"
"2017-01-06 08:00","2017","01","06","08:00","-11.1","","-14.5","","76","","21","","4","","48.3","","101.13","","","","-14","","NA"
"2017-01-06 09:00","2017","01","06","09:00","-11.1","","-15.2","","72","","30","","10","","48.3","","101.25","","","","-17","","NA"
"2017-01-06 10:00","2017","01","06","10:00","-10.2","","-15.0","","68","","27","","4","","48.3","","101.36","","","","-13","","Mostly Cloudy"
"2017-01-06 11:00","2017","01","06","11:00","-9.6","","-14.3","","69","","24","","6","","48.3","","101.40","","","","-13","","NA"
"2017-01-06 12:00","2017","01","06","12:00","-8.8","","-13.7","","68","","29","","5","","48.3","","101.39","","","","-12","","NA"
"2017-01-06 13:00","2017","01","06","13:00","-8.1","","-13.4","","66","","25","","21","","48.3","","101.42","","","","-16","","Clear"
"2017-01-06 14:00","2017","01","06","14:00","-7.8","","-13.7","","63","","25","","14","","48.3","","101.45","","","","-14","","NA"
"2017-01-06 15:00","2017","01","06","15:00","-8.0","","-13.3","","66","","25","","14","","48.3","","101.48","","","","-14","","NA"
"2017-01-06 16:00","2017","01","06","16:00","-8.7","","-13.8","","67","","26","","12","","48.3","","101.55","","","","-14","","Clear"
"2017-01-06 17:00","2017","01","06","17:00","-9.7","","-14.0","","71","","29","","8","","24.1","","101.61","","","","-14","","NA"
"2017-01-06 18:00","2017","01","06","18:00","-10.1","","-14.2","","72","","31","","8","","24.1","","101.66","","","","-15","","NA"
"2017-01-06 19:00","2017","01","06","19:00","-11.0","","-14.4","","76","","32","","7","","24.1","","101.73","","","","-15","","Clear"
"2017-01-06 20:00","2017","01","06","20:00","-11.1","","-14.4","","77","","36","","2","","24.1","","101.86","","","","-12","","NA"
"2017-01-06 21:00","2017","01","06","21:00","-14.1","","-16.5","","82","","4","","5","","24.1","","101.91","","","","-18","","NA"
"2017-01-06 22:00","2017","01","06","22:00","-13.2","","-15.5","","83","","27","","4","","24.1","","101.95","","","","-16","","Mainly Clear"
"2017-01-06 23:00","2017","01","06","23:00","-14.3","","-16.4","","84","","2","","6","","24.1","","101.97","","","","-18","","NA"
"2017-01-07 00:00","2017","01","07","00:00","-14.6","","-16.7","","84","","34","","4","","24.1","","101.99","","","","-17","","NA"
"2017-01-07 01:00","2017","01","07","01:00","-15.6","","-17.9","","83","","36","","1","","24.1","","102.01","","","","-16","","Clear"
"2017-01-07 02:00","2017","01","07","02:00","-17.1","","-19.6","","81","","33","","4","","24.1","","102.10","","","","-20","","NA"
"2017-01-07 03:00","2017","01","07","03:00","-15.0","","-17.0","","85","","24","","8","","24.1","","102.16","","","","-20","","NA"
"2017-01-07 04:00","2017","01","07","04:00","-13.2","","-15.2","","85","","23","","10","","24.1","","102.19","","","","-19","","Clear"
"2017-01-07 05:00","2017","01","07","05:00","-15.4","","-17.7","","83","","31","","4","","19.3","","102.24","","","","-18","","NA"
"2017-01-07 06:00","2017","01","07","06:00","-17.2","","-19.6","","82","","36","","2","","19.3","","102.27","","","","-19","","NA"
"2017-01-07 07:00","2017","01","07","07:00","-17.0","","-19.4","","82","","36","","2","","19.3","","102.35","","","","-19","","Clear"
"2017-01-07 08:00","2017","01","07","08:00","-18.1","","-20.8","","80","","36","","1","","24.1","","102.42","","","","-19","","NA"
"2017-01-07 09:00","2017","01","07","09:00","-17.8","","-20.5","","80","","3","","3","","24.1","","102.44","","","","-20","","NA"
"2017-01-07 10:00","2017","01","07","10:00","-13.7","","-15.9","","84","","25","","7","","24.1","","102.50","","","","-18","","Mainly Clear"
"2017-01-07 11:00","2017","01","07","11:00","-12.5","","-14.8","","83","","24","","4","","24.1","","102.49","","","","-15","","NA"
"2017-01-07 12:00","2017","01","07","12:00","-10.7","","-16.1","","65","","28","","10","","24.1","","102.40","","","","-16","","NA"
"2017-01-07 13:00","2017","01","07","13:00","-10.2","","-17.0","","58","","28","","12","","24.1","","102.36","","","","-16","","Cloudy"
"2017-01-07 14:00","2017","01","07","14:00","-10.0","","-16.2","","61","","35","","8","","24.1","","102.28","","","","-14","","NA"
"2017-01-07 15:00","2017","01","07","15:00","-10.3","","-18.2","","53","","34","","12","","24.1","","102.25","","","","-16","","NA"
"2017-01-07 16:00","2017","01","07","16:00","-10.9","","-18.7","","53","","33","","8","","24.1","","102.17","","","","-16","","Mainly Clear"
"2017-01-07 17:00","2017","01","07","17:00","-11.8","","-18.3","","59","","36","","1","","24.1","","102.17","","","","-12","","NA"
"2017-01-07 18:00","2017","01","07","18:00","-12.9","","-18.8","","62","","9","","4","","24.1","","102.23","","","","-16","","NA"
"2017-01-07 19:00","2017","01","07","19:00","-12.0","","-17.1","","66","","12","","9","","24.1","","102.20","","","","-17","","Mostly Cloudy"
"2017-01-07 20:00","2017","01","07","20:00","-12.7","","-18.2","","64","","9","","6","","24.1","","102.14","","","","-17","","NA"
"2017-01-07 21:00","2017","01","07","21:00","-13.0","","-17.0","","72","","10","","9","","24.1","","102.08","","","","-18","","NA"
"2017-01-07 22:00","2017","01","07","22:00","-16.3","","-19.5","","77","","35","","5","","24.1","","102.00","","","","-20","","Mostly Cloudy"
"2017-01-07 23:00","2017","01","07","23:00","-16.6","","-19.0","","82","","4","","9","","24.1","","101.99","","","","-23","","NA"
"2017-01-08 00:00","2017","01","08","00:00","-16.2","","-18.6","","82","","35","","7","","24.1","","101.90","","","","-21","","NA"
"2017-01-08 01:00","2017","01","08","01:00","-16.5","","-18.6","","84","","2","","7","","24.1","","101.87","","","","-22","","Clear"
"2017-01-08 02:00","2017","01","08","02:00","-17.0","","-19.2","","83","","34","","7","","24.1","","101.88","","","","-22","","NA"
"2017-01-08 03:00","2017","01","08","03:00","-18.9","","-21.5","","80","","33","","3","","24.1","","101.89","","","","-21","","NA"
"2017-01-08 04:00","2017","01","08","04:00","-19.9","","-22.5","","80","","34","","7","","24.1","","101.85","","","","-26","","Mainly Clear"
"2017-01-08 05:00","2017","01","08","05:00","-19.3","","-21.9","","80","","1","","9","","24.1","","101.81","","","","-26","","NA"
"2017-01-08 06:00","2017","01","08","06:00","-17.8","","-20.5","","80","","36","","6","","24.1","","101.84","","","","-22","","NA"
"2017-01-08 07:00","2017","01","08","07:00","-18.7","","-21.6","","78","","34","","8","","24.1","","101.90","","","","-25","","Mostly Cloudy"
"2017-01-08 08:00","2017","01","08","08:00","-19.3","","-22.2","","78","","35","","6","","19.3","","101.95","","","","-24","","NA"
"2017-01-08 09:00","2017","01","08","09:00","-17.9","","-20.9","","78","","34","","6","","24.1","","102.00","","","","-23","","NA"
"2017-01-08 10:00","2017","01","08","10:00","-16.9","","-19.9","","78","","33","","4","","24.1","","102.02","","","","-20","","Cloudy"
"2017-01-08 11:00","2017","01","08","11:00","-15.1","","-18.6","","75","","36","","1","","19.3","","102.02","","","","-16","","NA"
"2017-01-08 12:00","2017","01","08","12:00","-13.1","","-18.9","","62","","21","","4","","24.1","","102.00","","","","-16","","NA"
"2017-01-08 13:00","2017","01","08","13:00","-11.8","","-17.9","","61","","26","","11","","24.1","","102.01","","","","-18","","Mostly Cloudy"
"2017-01-08 14:00","2017","01","08","14:00","-11.0","","-15.8","","68","","25","","13","","24.1","","102.04","","","","-17","","NA"
"2017-01-08 15:00","2017","01","08","15:00","-11.3","","-15.9","","69","","27","","19","","24.1","","102.14","","","","-19","","NA"
"2017-01-08 16:00","2017","01","08","16:00","-11.4","","-15.8","","70","","27","","18","","24.1","","102.21","","","","-19","","Mostly Cloudy"
"2017-01-08 17:00","2017","01","08","17:00","-12.4","","-16.5","","72","","27","","21","","24.1","","102.34","","","","-21","","NA"
"2017-01-08 18:00","2017","01","08","18:00","-13.7","","-20.1","","59","","29","","23","","24.1","","102.48","","","","-23","","NA"
"2017-01-08 19:00","2017","01","08","19:00","-14.9","","-21.4","","58","","30","","16","","24.1","","102.62","","","","-23","","Clear"
"2017-01-08 20:00","2017","01","08","20:00","-15.7","","-21.8","","60","","29","","16","","24.1","","102.74","","","","-24","","NA"
"2017-01-08 21:00","2017","01","08","21:00","-16.2","","-21.9","","62","","27","","19","","24.1","","102.84","","","","-25","","NA"
"2017-01-08 22:00","2017","01","08","22:00","-16.8","","-22.3","","63","","27","","16","","24.1","","102.91","","","","-25","","Clear"
"2017-01-08 23:00","2017","01","08","23:00","-17.5","","-23.0","","63","","28","","13","","24.1","","102.96","","","","-25","","NA"
"2017-01-09 00:00","2017","01","09","00:00","-17.8","","-23.4","","62","","27","","9","","24.1","","102.99","","","","-24","","NA"
"2017-01-09 01:00","2017","01","09","01:00","-18.6","","-24.0","","63","","28","","14","","24.1","","103.01","","","","-27","","Clear"
"2017-01-09 02:00","2017","01","09","02:00","-20.0","","-24.3","","69","","25","","13","","24.1","","103.08","","","","-28","","NA"
"2017-01-09 03:00","2017","01","09","03:00","-19.9","","-23.9","","71","","27","","10","","24.1","","103.15","","","","-27","","NA"
"2017-01-09 04:00","2017","01","09","04:00","-20.4","","-24.4","","71","","27","","7","","24.1","","103.18","","","","-26","","Clear"
"2017-01-09 05:00","2017","01","09","05:00","-20.7","","-24.2","","74","","36","","1","","24.1","","103.19","","","","-22","","NA"
"2017-01-09 06:00","2017","01","09","06:00","-21.3","","-24.8","","74","","36","","2","","24.1","","103.20","","","","-23","","NA"
"2017-01-09 07:00","2017","01","09","07:00","-19.3","","-23.6","","69","","23","","4","","24.1","","103.21","","","","-23","","Clear"
"2017-01-09 08:00","2017","01","09","08:00","-17.4","","-20.5","","77","","17","","11","","48.3","","103.22","","","","-25","","NA"
"2017-01-09 09:00","2017","01","09","09:00","-16.0","","-20.6","","68","","17","","16","","48.3","","103.25","","","","-24","","NA"
"2017-01-09 10:00","2017","01","09","10:00","-15.2","","-21.0","","62","","17","","14","","48.3","","103.20","","","","-23","","Cloudy"
"2017-01-09 11:00","2017","01","09","11:00","-14.2","","-19.6","","64","","12","","16","","48.3","","103.04","","","","-22","","NA"
"2017-01-09 12:00","2017","01","09","12:00","-13.1","","-20.2","","56","","15","","13","","48.3","","102.95","","","","-20","","NA"
"2017-01-09 13:00","2017","01","09","13:00","-11.4","","-17.1","","63","","12","","12","","24.1","","102.83","","","","-18","","Cloudy"
"2017-01-09 14:00","2017","01","09","14:00","-9.8","","-15.8","","62","","13","","18","","24.1","","102.71","","","","-17","","NA"
"2017-01-09 15:00","2017","01","09","15:00","-9.6","","-14.1","","70","","16","","24","","3.6","","102.69","","","","-18","","Snow"
"2017-01-09 16:00","2017","01","09","16:00","-9.2","","-13.4","","72","","15","","28","","4.8","","102.62","","","","-18","","Snow"
"2017-01-09 17:00","2017","01","09","17:00","-8.6","","-14.1","","65","","15","","25","","24.1","","102.59","","","","-17","","Snow"
"2017-01-09 18:00","2017","01","09","18:00","-9.1","","-15.1","","62","","17","","22","","24.1","","102.63","","","","-17","","NA"
"2017-01-09 19:00","2017","01","09","19:00","-8.4","","-14.5","","62","","16","","16","","24.1","","102.68","","","","-15","","Snow"
"2017-01-09 20:00","2017","01","09","20:00","-8.2","","-13.5","","66","","16","","16","","24.1","","102.67","","","","-15","","Snow"
"2017-01-09 21:00","2017","01","09","21:00","-8.1","","-13.2","","67","","16","","17","","24.1","","102.70","","","","-15","","Snow"
"2017-01-09 22:00","2017","01","09","22:00","-7.6","","-12.9","","66","","16","","19","","24.1","","102.70","","","","-15","","Cloudy"
"2017-01-09 23:00","2017","01","09","23:00","-7.5","","-12.8","","66","","16","","18","","24.1","","102.70","","","","-14","","NA"
"2017-01-10 00:00","2017","01","10","00:00","-7.0","","-12.7","","64","","15","","20","","24.1","","102.69","","","","-14","","NA"
"2017-01-10 01:00","2017","01","10","01:00","-7.0","","-12.5","","65","","16","","19","","24.1","","102.70","","","","-14","","Cloudy"
"2017-01-10 02:00","2017","01","10","02:00","-7.2","","-12.5","","66","","15","","16","","24.1","","102.76","","","","-14","","NA"
"2017-01-10 03:00","2017","01","10","03:00","-7.4","","-12.9","","65","","15","","19","","24.1","","102.77","","","","-14","","NA"
"2017-01-10 04:00","2017","01","10","04:00","-7.5","","-13.2","","64","","14","","13","","24.1","","102.76","","","","-13","","Cloudy"
"2017-01-10 05:00","2017","01","10","05:00","-7.4","","-13.5","","62","","14","","15","","24.1","","102.78","","","","-14","","NA"
"2017-01-10 06:00","2017","01","10","06:00","-8.0","","-13.3","","66","","13","","17","","24.1","","102.77","","","","-15","","NA"
"2017-01-10 07:00","2017","01","10","07:00","-7.7","","-12.8","","67","","12","","14","","24.1","","102.77","","","","-14","","Cloudy"
"2017-01-10 08:00","2017","01","10","08:00","-7.4","","-11.8","","71","","13","","20","","24.1","","102.75","","","","-15","","NA"
"2017-01-10 09:00","2017","01","10","09:00","-6.9","","-11.3","","71","","13","","22","","24.1","","102.73","","","","-14","","NA"
"2017-01-10 10:00","2017","01","10","10:00","-6.1","","-11.1","","68","","12","","18","","24.1","","102.66","","","","-13","","Cloudy"
"2017-01-10 11:00","2017","01","10","11:00","-5.1","","-11.5","","61","","14","","19","","24.1","","102.54","","","","-12","","NA"
"2017-01-10 12:00","2017","01","10","12:00","-4.2","","-10.2","","63","","12","","15","","24.1","","102.34","","","","-10","","NA"
"2017-01-10 13:00","2017","01","10","13:00","-3.4","","-11.2","","55","","15","","27","","24.1","","102.19","","","","-11","","Cloudy"
"2017-01-10 14:00","2017","01","10","14:00","-3.4","","-10.5","","58","","14","","35","","24.1","","102.01","","","","-11","","NA"
"2017-01-10 15:00","2017","01","10","15:00","-3.1","","-10.9","","55","","13","","30","","24.1","","101.94","","","","-11","","NA"
"2017-01-10 16:00","2017","01","10","16:00","-2.5","","-10.8","","53","","14","","35","","24.1","","101.79","","","","-10","","Cloudy"
"2017-01-10 17:00","2017","01","10","17:00","-2.3","","-10.9","","52","","14","","37","","16.1","","101.69","","","","-10","","Snow"
"2017-01-10 18:00","2017","01","10","18:00","-3.4","","-6.2","","81","","14","","28","","2.4","","101.52","","","","-11","","Snow"
"2017-01-10 19:00","2017","01","10","19:00","-2.0","","-5.5","","77","","15","","40","","2.0","","101.28","","","","-10","","Snow,Blowing Snow"
"2017-01-10 20:00","2017","01","10","20:00","-0.7","","-4.1","","78","","16","","40","","6.4","","101.08","","","","-8","","Freezing Rain,Snow Grains,Blowing Snow"
"2017-01-10 21:00","2017","01","10","21:00","-0.8","","-3.7","","81","","15","","42","","4.8","","100.96","","","","-9","","Snow,Blowing Snow"
"2017-01-10 22:00","2017","01","10","22:00","0.1","","-3.6","","76","","15","","37","","16.1","","100.78","","","","","","Snow,Blowing Snow"
"2017-01-10 23:00","2017","01","10","23:00","1.0","","-3.5","","72","","16","","40","","16.1","","100.61","","","","","","Rain,Ice Pellets"
"2017-01-11 00:00","2017","01","11","00:00","1.2","","-2.4","","77","","17","","40","","16.1","","100.44","","","","","","Rain,Ice Pellets"
"2017-01-11 01:00","2017","01","11","01:00","1.3","","-1.4","","82","","15","","44","","12.9","","100.26","","","","","","Rain"
"2017-01-11 02:00","2017","01","11","02:00","1.5","","-0.9","","84","","16","","39","","11.3","","100.13","","","","","","Rain"
"2017-01-11 03:00","2017","01","11","03:00","1.7","","-0.1","","88","","16","","41","","9.7","","99.98","","","","","","Rain,Fog"
"2017-01-11 04:00","2017","01","11","04:00","2.1","","0.6","","90","","16","","32","","16.1","","99.85","","","","","","Rain"
"2017-01-11 05:00","2017","01","11","05:00","4.1","","1.0","","80","","17","","35","","24.1","","99.87","","","","","","NA"
"2017-01-11 06:00","2017","01","11","06:00","5.2","","0.2","","70","","22","","67","","24.1","","100.11","","","","","","Rain"
"2017-01-11 07:00","2017","01","11","07:00","3.6","","-0.2","","76","","22","","55","","24.1","","100.39","","","","","","Cloudy"
"2017-01-11 08:00","2017","01","11","08:00","4.1","","-2.3","","63","","23","","50","","24.1","","100.63","","","","","","NA"
"2017-01-11 09:00","2017","01","11","09:00","3.8","","-1.6","","68","","23","","39","","24.1","","100.81","","","","","","Rain"
"2017-01-11 10:00","2017","01","11","10:00","3.9","","-1.9","","66","","23","","46","","24.1","","101.05","","","","","","Cloudy"
"2017-01-11 11:00","2017","01","11","11:00","3.6","","-1.8","","68","","23","","40","","24.1","","101.24","","","","","","NA"
"2017-01-11 12:00","2017","01","11","12:00","3.7","","-1.7","","68","","23","","34","","24.1","","101.30","","","","","","NA"
"2017-01-11 13:00","2017","01","11","13:00","4.0","","-2.4","","63","","23","","42","","24.1","","101.34","","","","","","Mostly Cloudy"
"2017-01-11 14:00","2017","01","11","14:00","4.4","","-2.5","","61","","23","","34","","24.1","","101.33","","","","","","NA"
"2017-01-11 15:00","2017","01","11","15:00","4.4","","-2.2","","62","","24","","23","","24.1","","101.27","","","","","","NA"
"2017-01-11 16:00","2017","01","11","16:00","4.2","","-2.4","","62","","24","","21","","24.1","","101.48","","","","","","Mostly Cloudy"
"2017-01-11 17:00","2017","01","11","17:00","3.6","","-3.0","","62","","23","","13","","48.3","","101.56","","","","","","NA"
"2017-01-11 18:00","2017","01","11","18:00","3.4","","-3.2","","62","","17","","10","","24.1","","101.53","","","","","","NA"
"2017-01-11 19:00","2017","01","11","19:00","3.0","","-2.3","","68","","13","","18","","24.1","","101.30","","","","","","Cloudy"
"2017-01-11 20:00","2017","01","11","20:00","4.3","","-3.0","","59","","14","","22","","24.1","","101.06","","","","","","NA"
"2017-01-11 21:00","2017","01","11","21:00","5.0","","-3.1","","56","","13","","20","","24.1","","101.08","","","","","","NA"
"2017-01-11 22:00","2017","01","11","22:00","4.7","","-3.3","","56","","16","","10","","24.1","","100.99","","","","","","Cloudy"
"2017-01-11 23:00","2017","01","11","23:00","5.3","","-3.8","","52","","16","","24","","24.1","","100.91","","","","","","NA"
"2017-01-12 00:00","2017","01","12","00:00","4.6","","-3.2","","57","","15","","21","","24.1","","100.79","","","","","","NA"
"2017-01-12 01:00","2017","01","12","01:00","4.5","","-1.9","","63","","15","","27","","24.1","","100.72","","","","","","Mostly Cloudy"
"2017-01-12 02:00","2017","01","12","02:00","4.3","","-1.5","","66","","14","","22","","24.1","","100.65","","","","","","NA"
"2017-01-12 03:00","2017","01","12","03:00","4.5","","-1.1","","67","","14","","23","","24.1","","100.53","","","","","","NA"
"2017-01-12 04:00","2017","01","12","04:00","4.8","","-0.4","","69","","14","","29","","24.1","","100.40","","","","","","Cloudy"
"2017-01-12 05:00","2017","01","12","05:00","4.3","","1.7","","83","","15","","25","","9.7","","100.29","","","","","","Rain,Fog"
"2017-01-12 06:00","2017","01","12","06:00","4.3","","2.8","","90","","15","","26","","8.1","","100.21","","","","","","Rain,Fog"
"2017-01-12 07:00","2017","01","12","07:00","4.5","","3.3","","92","","15","","27","","11.3","","100.17","","","","","","Rain"
"2017-01-12 08:00","2017","01","12","08:00","4.3","","3.6","","95","","15","","26","","6.4","","100.20","","","","","","Rain,Fog"
"2017-01-12 09:00","2017","01","12","09:00","3.9","","3.3","","96","","15","","18","","2.0","","100.24","","","","","","Drizzle,Fog"
"2017-01-12 10:00","2017","01","12","10:00","4.3","","3.9","","97","","36","","3","","0.8","","100.34","","","","","","Moderate Drizzle,Fog"
"2017-01-12 11:00","2017","01","12","11:00","4.0","","3.6","","97","","18","","4","","0.6","","100.32","","","","","","Drizzle,Fog"
"2017-01-12 12:00","2017","01","12","12:00","4.2","","3.8","","97","","15","","11","","0.6","","100.27","","","","","","Drizzle,Fog"
"2017-01-12 13:00","2017","01","12","13:00","3.7","","3.3","","97","","17","","7","","0.8","","100.23","","","","","","Fog"
"2017-01-12 14:00","2017","01","12","14:00","2.9","","2.5","","97","","23","","12","","1.6","","100.29","","","","","","Drizzle,Fog"
"2017-01-12 15:00","2017","01","12","15:00","3.0","","2.6","","97","","22","","13","","0.6","","100.40","","","","","","Drizzle,Fog"
"2017-01-12 16:00","2017","01","12","16:00","3.2","","2.8","","97","","24","","9","","16.1","","100.39","","","","","","Cloudy"
"2017-01-12 17:00","2017","01","12","17:00","2.6","","2.2","","97","","23","","12","","2.4","","100.43","","","","","","Rain,Fog"
"2017-01-12 18:00","2017","01","12","18:00","2.5","","2.1","","97","","23","","10","","6.4","","100.48","","","","","","Rain,Fog"
"2017-01-12 19:00","2017","01","12","19:00","2.5","","2.1","","97","","25","","16","","6.4","","100.58","","","","","","Rain,Fog"
"2017-01-12 20:00","2017","01","12","20:00","2.2","","1.8","","97","","25","","21","","4.8","","100.69","","","","","","Rain,Fog"
"2017-01-12 21:00","2017","01","12","21:00","1.8","","1.2","","96","","25","","19","","16.1","","100.79","","","","","","Drizzle"
"2017-01-12 22:00","2017","01","12","22:00","1.1","","0.1","","93","","24","","25","","11.3","","100.95","","","","","","Drizzle"
"2017-01-12 23:00","2017","01","12","23:00","0.8","","-1.0","","88","","25","","34","","24.1","","101.04","","","","","","NA"
"2017-01-13 00:00","2017","01","13","00:00","0.3","","-2.1","","84","","26","","33","","24.1","","101.10","","","","","","NA"
"2017-01-13 01:00","2017","01","13","01:00","-0.7","","-5.0","","73","","27","","43","","24.1","","101.24","","","","-9","","Mainly Clear"
"2017-01-13 02:00","2017","01","13","02:00","-1.4","","-5.8","","72","","27","","45","","24.1","","101.33","","","","-10","","NA"
"2017-01-13 03:00","2017","01","13","03:00","-2.4","","-7.9","","66","","26","","32","","24.1","","101.66","","","","-10","","NA"
"2017-01-13 04:00","2017","01","13","04:00","-3.1","","-9.2","","63","","26","","29","","24.1","","101.83","","","","-10","","Mainly Clear"
"2017-01-13 05:00","2017","01","13","05:00","-3.5","","-9.0","","66","","25","","27","","24.1","","101.89","","","","-11","","NA"
"2017-01-13 06:00","2017","01","13","06:00","-3.2","","-8.1","","69","","27","","19","","24.1","","101.98","","","","-9","","Snow"
"2017-01-13 07:00","2017","01","13","07:00","-3.7","","-8.6","","69","","27","","26","","24.1","","102.10","","","","-11","","Mainly Clear"
"2017-01-13 08:00","2017","01","13","08:00","-4.5","","-12.5","","54","","28","","37","","24.1","","102.26","","","","-13","","NA"
"2017-01-13 09:00","2017","01","13","09:00","-4.5","","-11.8","","57","","27","","34","","24.1","","102.46","","","","-13","","NA"
"2017-01-13 10:00","2017","01","13","10:00","-4.9","","-12.9","","54","","27","","34","","24.1","","102.63","","","","-13","","Mainly Clear"
"2017-01-13 11:00","2017","01","13","11:00","-5.5","","-14.4","","50","","27","","44","","48.3","","102.73","","","","-15","","NA"
"2017-01-13 12:00","2017","01","13","12:00","-5.6","","-13.3","","55","","28","","39","","48.3","","102.84","","","","-15","","NA"
"2017-01-13 13:00","2017","01","13","13:00","-6.5","","-16.1","","47","","29","","36","","24.1","","102.98","","","","-16","","Mainly Clear"
"2017-01-13 14:00","2017","01","13","14:00","-6.8","","-16.6","","46","","30","","26","","48.3","","103.08","","","","-15","","NA"
"2017-01-13 15:00","2017","01","13","15:00","-7.8","","-19.5","","39","","30","","30","","48.3","","103.23","","","","-17","","NA"
"2017-01-13 16:00","2017","01","13","16:00","-8.6","","-19.9","","40","","29","","17","","24.1","","103.33","","","","-15","","Clear"
"2017-01-13 17:00","2017","01","13","17:00","-9.5","","-21.1","","39","","30","","16","","48.3","","103.46","","","","-16","","NA"
"2017-01-13 18:00","2017","01","13","18:00","-10.2","","-20.8","","42","","31","","16","","24.1","","103.58","","","","-17","","NA"
"2017-01-13 19:00","2017","01","13","19:00","-10.8","","-20.6","","45","","31","","16","","24.1","","103.72","","","","-18","","Clear"
"2017-01-13 20:00","2017","01","13","20:00","-11.7","","-20.7","","48","","31","","15","","24.1","","103.79","","","","-19","","NA"
"2017-01-13 21:00","2017","01","13","21:00","-12.4","","-20.8","","50","","30","","17","","24.1","","103.86","","","","-20","","NA"
"2017-01-13 22:00","2017","01","13","22:00","-13.2","","-21.3","","51","","31","","12","","24.1","","103.87","","","","-20","","Clear"
"2017-01-13 23:00","2017","01","13","23:00","-13.7","","-21.4","","53","","31","","10","","24.1","","103.88","","","","-20","","NA"
"2017-01-14 00:00","2017","01","14","00:00","-14.3","","-21.5","","55","","30","","15","","24.1","","103.84","","","","-22","","NA"
"2017-01-14 01:00","2017","01","14","01:00","-14.9","","-21.4","","58","","30","","8","","24.1","","103.82","","","","-20","","Clear"
"2017-01-14 02:00","2017","01","14","02:00","-15.4","","-22.1","","57","","29","","12","","24.1","","103.84","","","","-22","","NA"
"2017-01-14 03:00","2017","01","14","03:00","-15.9","","-21.8","","61","","30","","5","","24.1","","103.81","","","","-20","","NA"
"2017-01-14 04:00","2017","01","14","04:00","-16.2","","-21.5","","64","","32","","3","","24.1","","103.77","","","","-18","","Clear"
"2017-01-14 05:00","2017","01","14","05:00","-16.5","","-21.8","","64","","34","","4","","24.1","","103.70","","","","-20","","NA"
"2017-01-14 06:00","2017","01","14","06:00","-16.7","","-21.7","","66","","30","","5","","24.1","","103.64","","","","-21","","NA"
"2017-01-14 07:00","2017","01","14","07:00","-17.1","","-21.7","","68","","34","","6","","48.3","","103.62","","","","-22","","Clear"
"2017-01-14 08:00","2017","01","14","08:00","-16.8","","-21.2","","69","","36","","2","","48.3","","103.50","","","","-18","","NA"
"2017-01-14 09:00","2017","01","14","09:00","-15.9","","-21.1","","65","","33","","5","","48.3","","103.57","","","","-20","","NA"
"2017-01-14 10:00","2017","01","14","10:00","-15.1","","-20.5","","64","","32","","4","","48.3","","103.51","","","","-18","","Mostly Cloudy"
"2017-01-14 11:00","2017","01","14","11:00","-13.7","","-18.4","","68","","22","","12","","48.3","","103.32","","","","-20","","NA"
"2017-01-14 12:00","2017","01","14","12:00","-12.7","","-17.8","","66","","18","","9","","48.3","","103.14","","","","-18","","NA"
"2017-01-14 13:00","2017","01","14","13:00","-12.3","","-18.2","","62","","18","","5","","48.3","","102.99","","","","-16","","Cloudy"
"2017-01-14 14:00","2017","01","14","14:00","-11.6","","-17.9","","60","","20","","5","","48.3","","102.85","","","","-15","","NA"
"2017-01-14 15:00","2017","01","14","15:00","-11.1","","-17.4","","60","","24","","7","","48.3","","102.73","","","","-15","","NA"
"2017-01-14 16:00","2017","01","14","16:00","-10.5","","-16.5","","62","","19","","3","","48.3","","102.61","","","","-12","","Cloudy"
"2017-01-14 17:00","2017","01","14","17:00","-10.7","","-16.3","","64","","29","","5","","24.1","","102.50","","","","-14","","NA"
"2017-01-14 18:00","2017","01","14","18:00","-10.2","","-15.6","","65","","28","","4","","24.1","","102.41","","","","-13","","NA"
"2017-01-14 19:00","2017","01","14","19:00","-8.9","","-14.9","","62","","17","","13","","24.1","","102.29","","","","-15","","Mostly Cloudy"
"2017-01-14 20:00","2017","01","14","20:00","-8.1","","-13.8","","64","","19","","18","","24.1","","102.16","","","","-15","","NA"
"2017-01-14 21:00","2017","01","14","21:00","-7.2","","-12.7","","65","","20","","16","","24.1","","102.09","","","","-14","","Snow"
"2017-01-14 22:00","2017","01","14","22:00","-7.5","","-11.7","","72","","24","","14","","24.1","","102.03","","","","-13","","Snow"
"2017-01-14 23:00","2017","01","14","23:00","-8.4","","-11.7","","77","","28","","9","","24.1","","102.00","","","","-13","","Snow"
"2017-01-15 00:00","2017","01","15","00:00","-8.4","","-11.7","","77","","25","","15","","24.1","","101.91","","","","-15","","Snow"
"2017-01-15 01:00","2017","01","15","01:00","-7.8","","-11.5","","75","","26","","17","","24.1","","101.88","","","","-14","","Cloudy"
"2017-01-15 02:00","2017","01","15","02:00","-8.3","","-11.6","","77","","27","","15","","24.1","","101.91","","","","-15","","NA"
"2017-01-15 03:00","2017","01","15","03:00","-8.4","","-11.6","","78","","27","","14","","24.1","","101.95","","","","-15","","NA"
"2017-01-15 04:00","2017","01","15","04:00","-10.3","","-13.0","","81","","33","","8","","24.1","","102.01","","","","-15","","Mostly Cloudy"
"2017-01-15 05:00","2017","01","15","05:00","-9.3","","-12.1","","80","","26","","12","","24.1","","102.04","","","","-15","","NA"
"2017-01-15 06:00","2017","01","15","06:00","-9.0","","-11.7","","81","","27","","16","","24.1","","102.16","","","","-16","","NA"
"2017-01-15 07:00","2017","01","15","07:00","-10.0","","-12.7","","81","","30","","14","","24.1","","102.29","","","","-16","","Clear"
"2017-01-15 08:00","2017","01","15","08:00","-10.8","","-14.4","","75","","33","","17","","24.1","","102.41","","","","-18","","NA"
"2017-01-15 09:00","2017","01","15","09:00","-10.6","","-15.1","","70","","33","","10","","24.1","","102.53","","","","-16","","NA"
"2017-01-15 10:00","2017","01","15","10:00","-9.4","","-17.1","","54","","36","","21","","48.3","","102.58","","","","-17","","Clear"
"2017-01-15 11:00","2017","01","15","11:00","-9.0","","-17.4","","51","","34","","10","","48.3","","102.55","","","","-14","","NA"
"2017-01-15 12:00","2017","01","15","12:00","-8.7","","-17.9","","48","","35","","3","","48.3","","102.50","","","","-10","","NA"
"2017-01-15 13:00","2017","01","15","13:00","-8.5","","-16.7","","52","","27","","4","","48.3","","102.47","","","","-11","","Mainly Clear"
"2017-01-15 14:00","2017","01","15","14:00","-7.9","","-16.9","","49","","28","","6","","48.3","","102.43","","","","-11","","NA"
"2017-01-15 15:00","2017","01","15","15:00","-7.7","","-17.2","","47","","23","","9","","48.3","","102.48","","","","-12","","NA"
"2017-01-15 16:00","2017","01","15","16:00","-8.0","","-16.5","","51","","24","","14","","48.3","","102.52","","","","-14","","Mainly Clear"
"2017-01-15 17:00","2017","01","15","17:00","-8.5","","-16.2","","54","","26","","10","","24.1","","102.54","","","","-13","","NA"
"2017-01-15 18:00","2017","01","15","18:00","-9.2","","-16.2","","57","","28","","8","","24.1","","102.55","","","","-14","","NA"
"2017-01-15 19:00","2017","01","15","19:00","-9.0","","-16.1","","57","","24","","5","","24.1","","102.56","","","","-12","","Mainly Clear"
"2017-01-15 20:00","2017","01","15","20:00","-9.4","","-15.8","","60","","24","","4","","24.1","","102.54","","","","-12","","NA"
"2017-01-15 21:00","2017","01","15","21:00","-9.0","","-14.8","","63","","20","","5","","24.1","","102.58","","","","-12","","NA"
"2017-01-15 22:00","2017","01","15","22:00","-8.2","","-13.5","","66","","17","","13","","24.1","","102.52","","","","-14","","Cloudy"
"2017-01-15 23:00","2017","01","15","23:00","-8.1","","-13.8","","64","","17","","13","","24.1","","102.50","","","","-14","","NA"
"2017-01-16 00:00","2017","01","16","00:00","-8.3","","-13.4","","67","","16","","14","","24.1","","102.43","","","","-14","","NA"
"2017-01-16 01:00","2017","01","16","01:00","-8.8","","-13.3","","70","","15","","12","","24.1","","102.40","","","","-14","","Mainly Clear"
"2017-01-16 02:00","2017","01","16","02:00","-8.8","","-13.0","","72","","14","","8","","24.1","","102.37","","","","-13","","NA"
"2017-01-16 03:00","2017","01","16","03:00","-8.6","","-12.1","","76","","17","","12","","24.1","","102.32","","","","-14","","NA"
"2017-01-16 04:00","2017","01","16","04:00","-8.2","","-11.4","","78","","21","","13","","24.1","","102.28","","","","-14","","Mostly Cloudy"
"2017-01-16 05:00","2017","01","16","05:00","-7.7","","-11.2","","76","","22","","11","","24.1","","102.24","","","","-13","","NA"
"2017-01-16 06:00","2017","01","16","06:00","-7.6","","-10.8","","78","","22","","7","","24.1","","102.23","","","","-11","","NA"
"2017-01-16 07:00","2017","01","16","07:00","-5.8","","-9.4","","76","","18","","17","","24.1","","102.14","","","","-12","","Cloudy"
"2017-01-16 08:00","2017","01","16","08:00","-4.4","","-7.8","","77","","20","","20","","48.3","","102.09","","","","-11","","NA"
"2017-01-16 09:00","2017","01","16","09:00","-2.5","","-6.3","","75","","21","","26","","48.3","","102.03","","","","-9","","NA"
"2017-01-16 10:00","2017","01","16","10:00","-1.0","","-6.0","","69","","22","","26","","24.1","","102.00","","","","-7","","Mainly Clear"
"2017-01-16 11:00","2017","01","16","11:00","-0.2","","-5.6","","67","","22","","41","","24.1","","101.93","","","","-8","","NA"
"2017-01-16 12:00","2017","01","16","12:00","0.6","","-4.8","","67","","22","","36","","24.1","","101.81","","","","","","NA"
"2017-01-16 13:00","2017","01","16","13:00","1.3","","-4.8","","64","","25","","29","","24.1","","101.73","","","","","","Mainly Clear"
"2017-01-16 14:00","2017","01","16","14:00","2.0","","-4.1","","64","","24","","37","","24.1","","101.65","","","","","","NA"
"2017-01-16 15:00","2017","01","16","15:00","2.4","","-4.2","","62","","23","","37","","24.1","","101.63","","","","","","NA"
"2017-01-16 16:00","2017","01","16","16:00","2.3","","-3.8","","64","","22","","24","","24.1","","101.63","","","","","","Mostly Cloudy"
"2017-01-16 17:00","2017","01","16","17:00","2.0","","-3.9","","65","","25","","26","","24.1","","101.70","","","","","","NA"
"2017-01-16 18:00","2017","01","16","18:00","1.2","","-3.7","","70","","24","","30","","24.1","","101.77","","","","","","NA"
"2017-01-16 19:00","2017","01","16","19:00","0.5","","-3.6","","74","","25","","20","","24.1","","101.83","","","","","","Mostly Cloudy"
"2017-01-16 20:00","2017","01","16","20:00","0.3","","-3.6","","75","","24","","25","","24.1","","101.85","","","","","","NA"
"2017-01-16 21:00","2017","01","16","21:00","-0.3","","-3.7","","78","","24","","18","","24.1","","101.86","","","","-5","","NA"
"2017-01-16 22:00","2017","01","16","22:00","-0.1","","-3.7","","77","","24","","19","","24.1","","101.84","","","","-5","","Cloudy"
"2017-01-16 23:00","2017","01","16","23:00","-0.4","","-4.0","","77","","26","","18","","24.1","","101.88","","","","-5","","NA"
"2017-01-17 00:00","2017","01","17","00:00","-0.8","","-4.0","","79","","27","","16","","24.1","","101.85","","","","-6","","NA"
"2017-01-17 01:00","2017","01","17","01:00","-1.0","","-4.0","","80","","26","","6","","24.1","","101.88","","","","-3","","Mostly Cloudy"
"2017-01-17 02:00","2017","01","17","02:00","-1.6","","-4.4","","81","","22","","8","","24.1","","101.90","","","","-5","","NA"
"2017-01-17 03:00","2017","01","17","03:00","-2.4","","-4.4","","86","","22","","9","","24.1","","101.93","","","","-6","","NA"
"2017-01-17 04:00","2017","01","17","04:00","-3.3","","-5.2","","87","","23","","11","","24.1","","101.93","","","","-8","","Mainly Clear"
"2017-01-17 05:00","2017","01","17","05:00","-4.3","","-6.0","","88","","25","","4","","24.1","","101.94","","","","-6","","NA"
"2017-01-17 06:00","2017","01","17","06:00","-3.8","","-5.4","","89","","36","","1","","24.1","","101.99","","","","-4","","NA"
"2017-01-17 07:00","2017","01","17","07:00","-3.5","","-5.4","","87","","0","","1","","16.1","","102.03","","","","-4","","Mostly Cloudy"
"2017-01-17 08:00","2017","01","17","08:00","-3.5","","-5.2","","88","","3","","7","","16.1","","102.06","","","","-6","","NA"
"2017-01-17 09:00","2017","01","17","09:00","-0.9","","-4.8","","75","","6","","16","","24.1","","102.05","","","","-6","","NA"
"2017-01-17 10:00","2017","01","17","10:00","-1.0","","-5.8","","70","","6","","22","","24.1","","102.04","","","","-7","","Cloudy"
"2017-01-17 11:00","2017","01","17","11:00","-1.1","","-7.1","","64","","5","","21","","24.1","","101.98","","","","-7","","NA"
"2017-01-17 12:00","2017","01","17","12:00","-1.2","","-7.4","","63","","5","","20","","24.1","","101.93","","","","-7","","NA"
"2017-01-17 13:00","2017","01","17","13:00","-1.0","","-7.0","","64","","5","","27","","24.1","","101.81","","","","-7","","Mostly Cloudy"
"2017-01-17 14:00","2017","01","17","14:00","-1.4","","-7.4","","64","","5","","26","","24.1","","101.76","","","","-8","","NA"
"2017-01-17 15:00","2017","01","17","15:00","-1.6","","-7.0","","67","","5","","27","","24.1","","101.65","","","","-8","","NA"
"2017-01-17 16:00","2017","01","17","16:00","-2.4","","-7.3","","69","","4","","25","","24.1","","101.65","","","","-9","","Cloudy"
"2017-01-17 17:00","2017","01","17","17:00","-2.7","","-7.8","","68","","4","","26","","24.1","","101.55","","","","-10","","NA"
"2017-01-17 18:00","2017","01","17","18:00","-2.6","","-7.9","","67","","5","","30","","24.1","","101.45","","","","-10","","NA"
"2017-01-17 19:00","2017","01","17","19:00","-2.7","","-7.8","","68","","4","","29","","24.1","","101.36","","","","-10","","Cloudy"
"2017-01-17 20:00","2017","01","17","20:00","-2.8","","-7.9","","68","","3","","26","","24.1","","101.32","","","","-10","","NA"
"2017-01-17 21:00","2017","01","17","21:00","-3.4","","-8.9","","66","","4","","25","","24.1","","101.27","","","","-10","","NA"
"2017-01-17 22:00","2017","01","17","22:00","-4.0","","-9.7","","65","","5","","30","","24.1","","101.28","","","","-12","","Snow"
"2017-01-17 23:00","2017","01","17","23:00","-5.2","","-8.1","","80","","4","","31","","4.8","","101.22","","","","-13","","Snow,Blowing Snow"
"2017-01-18 00:00","2017","01","18","00:00","-5.2","","-7.3","","85","","4","","28","","6.4","","101.14","","","","-13","","Snow,Blowing Snow"
"2017-01-18 01:00","2017","01","18","01:00","-5.3","","-6.8","","89","","3","","28","","3.2","","101.08","","","","-13","","Snow,Blowing Snow"
"2017-01-18 02:00","2017","01","18","02:00","-5.1","","-6.6","","89","","3","","26","","4.8","","101.03","","","","-13","","Snow,Blowing Snow"
"2017-01-18 03:00","2017","01","18","03:00","-4.7","","-6.1","","90","","3","","24","","4.8","","100.96","","","","-12","","Snow,Blowing Snow"
"2017-01-18 04:00","2017","01","18","04:00","-4.2","","-5.8","","89","","3","","29","","6.4","","100.94","","","","-12","","Snow,Blowing Snow"
"2017-01-18 05:00","2017","01","18","05:00","-4.1","","-5.7","","89","","3","","26","","4.8","","100.94","","","","-11","","Snow,Blowing Snow"
"2017-01-18 06:00","2017","01","18","06:00","-4.0","","-5.3","","91","","3","","25","","3.2","","100.95","","","","-11","","Snow"
"2017-01-18 07:00","2017","01","18","07:00","-3.8","","-5.1","","91","","3","","25","","4.0","","100.96","","","","-11","","Snow"
"2017-01-18 08:00","2017","01","18","08:00","-3.6","","-4.9","","91","","4","","23","","2.4","","100.94","","","","-10","","Snow"
"2017-01-18 09:00","2017","01","18","09:00","-3.6","","-5.0","","90","","2","","23","","4.0","","100.95","","","","-10","","Snow"
"2017-01-18 10:00","2017","01","18","10:00","-4.7","","-6.2","","89","","2","","22","","4.0","","101.00","","","","-12","","Snow"
"2017-01-18 11:00","2017","01","18","11:00","-4.7","","-6.0","","91","","2","","22","","4.0","","101.00","","","","-12","","Freezing Drizzle"
"2017-01-18 12:00","2017","01","18","12:00","-4.4","","-5.5","","92","","2","","21","","3.2","","100.91","","","","-11","","Freezing Drizzle,Snow,Fog"
"2017-01-18 13:00","2017","01","18","13:00","-4.0","","-5.1","","92","","2","","17","","4.0","","100.87","","","","-10","","Freezing Drizzle,Fog"
"2017-01-18 14:00","2017","01","18","14:00","-2.9","","-3.9","","93","","2","","13","","3.6","","100.86","","","","-8","","Freezing Drizzle,Fog"
"2017-01-18 15:00","2017","01","18","15:00","-3.5","","-4.5","","93","","2","","16","","4.0","","100.93","","","","-9","","Freezing Drizzle,Fog"
"2017-01-18 16:00","2017","01","18","16:00","-3.3","","-4.3","","93","","36","","9","","2.4","","100.97","","","","-7","","Freezing Drizzle,Snow,Fog"
"2017-01-18 17:00","2017","01","18","17:00","-2.9","","-3.9","","93","","32","","5","","3.2","","101.01","","","","-5","","Freezing Drizzle,Fog"
"2017-01-18 18:00","2017","01","18","18:00","-2.7","","-3.5","","94","","34","","4","","4.0","","101.03","","","","-4","","Freezing Drizzle,Fog"
"2017-01-18 19:00","2017","01","18","19:00","-2.3","","-3.1","","94","","25","","5","","4.8","","101.05","","","","-4","","Snow,Fog"
"2017-01-18 20:00","2017","01","18","20:00","-2.1","","-2.8","","95","","23","","8","","6.4","","101.01","","","","-5","","Freezing Drizzle,Fog"
"2017-01-18 21:00","2017","01","18","21:00","-1.9","","-2.7","","94","","25","","11","","4.0","","101.04","","","","-6","","Freezing Drizzle,Fog"
"2017-01-18 22:00","2017","01","18","22:00","-1.9","","-2.7","","94","","26","","9","","4.8","","101.01","","","","-5","","Freezing Drizzle,Fog"
"2017-01-18 23:00","2017","01","18","23:00","-1.6","","-2.6","","93","","22","","10","","8.1","","100.99","","","","-5","","Freezing Drizzle,Fog"
"2017-01-19 00:00","2017","01","19","00:00","-1.6","","-2.3","","95","","23","","10","","4.0","","100.95","","","","-5","","Snow,Fog"
"2017-01-19 01:00","2017","01","19","01:00","-1.3","","-1.9","","96","","23","","5","","2.8","","100.95","","","","-3","","Freezing Drizzle,Fog"
"2017-01-19 02:00","2017","01","19","02:00","-1.1","","-1.7","","96","","24","","8","","0.8","","100.93","","","","-4","","Freezing Fog"
"2017-01-19 03:00","2017","01","19","03:00","-0.2","","-0.6","","97","","24","","19","","3.2","","100.92","","","","-5","","Freezing Drizzle,Fog"
"2017-01-19 04:00","2017","01","19","04:00","0.4","","-0.2","","96","","23","","19","","6.4","","100.89","","","","","","Fog"
"2017-01-19 05:00","2017","01","19","05:00","0.5","","-0.1","","96","","24","","15","","6.4","","100.96","","","","","","Fog"
"2017-01-19 06:00","2017","01","19","06:00","0.5","","-0.2","","95","","23","","13","","8.1","","100.99","","","","","","Fog"
"2017-01-19 07:00","2017","01","19","07:00","0.5","","-0.2","","95","","24","","11","","9.7","","101.04","","","","","","Fog"
"2017-01-19 08:00","2017","01","19","08:00","0.7","","-0.2","","94","","25","","13","","9.7","","101.10","","","","","","Fog"
"2017-01-19 09:00","2017","01","19","09:00","0.9","","-0.1","","93","","25","","16","","12.9","","101.14","","","","","","NA"
"2017-01-19 10:00","2017","01","19","10:00","1.1","","-0.2","","91","","26","","18","","19.3","","101.19","","","","","","Cloudy"
"2017-01-19 11:00","2017","01","19","11:00","1.2","","-0.1","","91","","26","","28","","24.1","","101.18","","","","","","NA"
"2017-01-19 12:00","2017","01","19","12:00","1.4","","-0.1","","90","","27","","20","","24.1","","101.14","","","","","","NA"
"2017-01-19 13:00","2017","01","19","13:00","1.8","","0.2","","89","","28","","15","","24.1","","101.12","","","","","","Cloudy"
"2017-01-19 14:00","2017","01","19","14:00","1.8","","-0.1","","87","","27","","13","","24.1","","101.09","","","","","","NA"
"2017-01-19 15:00","2017","01","19","15:00","2.0","","-0.1","","86","","26","","13","","24.1","","101.08","","","","","","NA"
"2017-01-19 16:00","2017","01","19","16:00","1.8","","0.0","","88","","26","","9","","24.1","","101.13","","","","","","Cloudy"
"2017-01-19 17:00","2017","01","19","17:00","1.8","","-0.1","","87","","28","","9","","24.1","","101.17","","","","","","NA"
"2017-01-19 18:00","2017","01","19","18:00","1.6","","-0.2","","88","","29","","7","","56.3","","101.21","","","","","","NA"
"2017-01-19 19:00","2017","01","19","19:00","1.2","","-0.3","","90","","24","","5","","24.1","","101.25","","","","","","Cloudy"
"2017-01-19 20:00","2017","01","19","20:00","1.4","","-0.1","","90","","27","","8","","24.1","","101.34","","","","","","NA"
"2017-01-19 21:00","2017","01","19","21:00","1.4","","-0.1","","90","","27","","10","","24.1","","101.37","","","","","","NA"
"2017-01-19 22:00","2017","01","19","22:00","1.4","","0.1","","91","","27","","7","","19.3","","101.38","","","","","","Cloudy"
"2017-01-19 23:00","2017","01","19","23:00","1.0","","-0.2","","92","","36","","3","","16.1","","101.30","","","","","","NA"
"2017-01-20 00:00","2017","01","20","00:00","0.6","","-0.3","","94","","16","","7","","16.1","","101.25","","","","","","NA"
"2017-01-20 01:00","2017","01","20","01:00","0.8","","-0.1","","94","","12","","4","","16.1","","101.16","","","","","","Cloudy"
"2017-01-20 02:00","2017","01","20","02:00","0.4","","-0.3","","95","","22","","3","","12.9","","101.17","","","","","","NA"
"2017-01-20 03:00","2017","01","20","03:00","0.6","","-0.1","","95","","36","","2","","12.9","","101.14","","","","","","NA"
"2017-01-20 04:00","2017","01","20","04:00","0.7","","-0.3","","93","","22","","12","","16.1","","101.16","","","","","","Cloudy"
"2017-01-20 05:00","2017","01","20","05:00","0.5","","-0.7","","92","","20","","6","","16.1","","101.16","","","","","","NA"
"2017-01-20 06:00","2017","01","20","06:00","0.6","","-0.6","","92","","17","","4","","19.3","","101.12","","","","","","NA"
"2017-01-20 07:00","2017","01","20","07:00","0.9","","-1.0","","87","","10","","6","","24.1","","101.12","","","","","","Cloudy"
"2017-01-20 08:00","2017","01","20","08:00","1.5","","-1.8","","79","","11","","9","","24.1","","101.07","","","","","","NA"
"2017-01-20 09:00","2017","01","20","09:00","1.6","","-1.8","","78","","10","","7","","24.1","","101.08","","","","","","NA"
"2017-01-20 10:00","2017","01","20","10:00","1.9","","-1.7","","77","","11","","7","","24.1","","101.12","","","","","","Cloudy"
"2017-01-20 11:00","2017","01","20","11:00","2.0","","-2.0","","75","","14","","8","","24.1","","101.08","","","","","","NA"
"2017-01-20 12:00","2017","01","20","12:00","2.1","","-2.1","","74","","14","","11","","24.1","","100.96","","","","","","NA"
"2017-01-20 13:00","2017","01","20","13:00","2.1","","-2.6","","71","","12","","16","","48.3","","100.86","","","","","","Cloudy"
"2017-01-20 14:00","2017","01","20","14:00","1.9","","-2.4","","73","","11","","18","","48.3","","100.80","","","","","","NA"
"2017-01-20 15:00","2017","01","20","15:00","1.9","","-2.4","","73","","12","","15","","24.1","","100.80","","","","","","NA"
"2017-01-20 16:00","2017","01","20","16:00","1.9","","-2.3","","74","","11","","14","","48.3","","100.75","","","","","","Cloudy"
"2017-01-20 17:00","2017","01","20","17:00","1.9","","-2.3","","74","","10","","12","","48.3","","100.74","","","","","","NA"
"2017-01-20 18:00","2017","01","20","18:00","1.4","","-2.2","","77","","9","","12","","24.1","","100.72","","","","","","NA"
"2017-01-20 19:00","2017","01","20","19:00","1.0","","-2.1","","80","","9","","11","","24.1","","100.71","","","","","","Mainly Clear"
"2017-01-20 20:00","2017","01","20","20:00","0.7","","-2.0","","82","","9","","9","","24.1","","100.70","","","","","","NA"
"2017-01-20 21:00","2017","01","20","21:00","0.8","","-1.8","","83","","9","","8","","24.1","","100.65","","","","","","NA"
"2017-01-20 22:00","2017","01","20","22:00","0.9","","-1.5","","84","","9","","9","","24.1","","100.62","","","","","","Cloudy"
"2017-01-20 23:00","2017","01","20","23:00","1.0","","-1.2","","85","","9","","8","","24.1","","100.59","","","","","","NA"
"2017-01-21 00:00","2017","01","21","00:00","0.8","","-1.3","","86","","13","","5","","24.1","","100.58","","","","","","NA"
"2017-01-21 01:00","2017","01","21","01:00","1.0","","-1.2","","85","","9","","5","","24.1","","100.53","","","","","","Cloudy"
"2017-01-21 02:00","2017","01","21","02:00","0.7","","-1.2","","87","","1","","5","","24.1","","100.55","","","","","","NA"
"2017-01-21 03:00","2017","01","21","03:00","0.8","","-1.1","","87","","1","","6","","24.1","","100.55","","","","","","NA"
"2017-01-21 04:00","2017","01","21","04:00","0.8","","-0.8","","89","","2","","9","","24.1","","100.53","","","","","","Cloudy"
"2017-01-21 05:00","2017","01","21","05:00","0.6","","-0.9","","90","","2","","7","","24.1","","100.49","","","","","","NA"
"2017-01-21 06:00","2017","01","21","06:00","0.6","","-0.9","","90","","3","","5","","24.1","","100.49","","","","","","NA"
"2017-01-21 07:00","2017","01","21","07:00","0.6","","-0.7","","91","","1","","7","","8.1","","100.47","","","","","","Fog"
"2017-01-21 08:00","2017","01","21","08:00","0.4","","-0.3","","95","","2","","8","","1.6","","100.46","","","","","","Fog"
"2017-01-21 09:00","2017","01","21","09:00","0.6","","0.0","","96","","2","","4","","1.6","","100.47","","","","","","Drizzle,Fog"
"2017-01-21 10:00","2017","01","21","10:00","0.8","","0.2","","96","","2","","8","","1.0","","100.45","","","","","","Drizzle,Fog"
"2017-01-21 11:00","2017","01","21","11:00","1.4","","1.0","","97","","33","","3","","1.2","","100.44","","","","","","Fog"
"2017-01-21 12:00","2017","01","21","12:00","1.6","","1.0","","96","","36","","9","","1.2","","100.31","","","","","","Drizzle,Fog"
"2017-01-21 13:00","2017","01","21","13:00","1.9","","1.2","","95","","36","","7","","1.6","","100.23","","","","","","Fog"
"2017-01-21 14:00","2017","01","21","14:00","1.9","","1.2","","95","","28","","5","","1.6","","100.32","","","","","","Drizzle,Fog"
"2017-01-21 15:00","2017","01","21","15:00","2.0","","1.3","","95","","35","","4","","1.2","","100.31","","","","","","Drizzle,Fog"
"2017-01-21 16:00","2017","01","21","16:00","2.0","","1.4","","96","","36","","2","","1.0","","100.32","","","","","","Drizzle,Fog"
"2017-01-21 17:00","2017","01","21","17:00","1.5","","1.1","","97","","23","","10","","1.0","","100.38","","","","","","Drizzle,Fog"
"2017-01-21 18:00","2017","01","21","18:00","1.4","","1.0","","97","","22","","7","","1.6","","100.45","","","","","","Drizzle,Fog"
"2017-01-21 19:00","2017","01","21","19:00","1.6","","1.2","","97","","22","","4","","1.6","","100.46","","","","","","Drizzle,Fog"
"2017-01-21 20:00","2017","01","21","20:00","1.5","","1.1","","97","","23","","5","","4.8","","100.43","","","","","","Drizzle,Fog"
"2017-01-21 21:00","2017","01","21","21:00","1.1","","0.7","","97","","22","","8","","4.0","","100.41","","","","","","Fog"
"2017-01-21 22:00","2017","01","21","22:00","1.2","","0.8","","97","","23","","5","","4.0","","100.44","","","","","","Fog"
"2017-01-21 23:00","2017","01","21","23:00","1.1","","0.7","","97","","27","","4","","4.0","","100.46","","","","","","Fog"
"2017-01-22 00:00","2017","01","22","00:00","1.3","","0.9","","97","","35","","7","","6.4","","100.46","","","","","","Fog"
"2017-01-22 01:00","2017","01","22","01:00","1.1","","0.7","","97","","2","","13","","2.4","","100.43","","","","","","Fog"
"2017-01-22 02:00","2017","01","22","02:00","0.3","","-0.3","","96","","5","","18","","4.8","","100.51","","","","","","Fog"
"2017-01-22 03:00","2017","01","22","03:00","0.3","","-0.6","","94","","5","","17","","6.4","","100.58","","","","","","Fog"
"2017-01-22 04:00","2017","01","22","04:00","0.2","","-0.8","","93","","4","","18","","8.1","","100.55","","","","","","Fog"
"2017-01-22 05:00","2017","01","22","05:00","0.3","","-1.0","","91","","5","","14","","16.1","","100.55","","","","","","NA"
"2017-01-22 06:00","2017","01","22","06:00","0.4","","-1.5","","87","","5","","16","","16.1","","100.58","","","","","","NA"
"2017-01-22 07:00","2017","01","22","07:00","0.4","","-1.8","","85","","5","","12","","19.3","","100.61","","","","","","Cloudy"
"2017-01-22 08:00","2017","01","22","08:00","0.5","","-2.1","","83","","4","","11","","24.1","","100.69","","","","","","NA"
"2017-01-22 09:00","2017","01","22","09:00","0.8","","-1.9","","82","","5","","14","","24.1","","100.77","","","","","","NA"
"2017-01-22 10:00","2017","01","22","10:00","1.2","","-2.2","","78","","6","","19","","24.1","","100.76","","","","","","Mostly Cloudy"
"2017-01-22 11:00","2017","01","22","11:00","1.5","","-3.0","","72","","5","","22","","24.1","","100.72","","","","","","NA"
"2017-01-22 12:00","2017","01","22","12:00","2.0","","-2.7","","71","","6","","17","","24.1","","100.78","","","","","","NA"
"2017-01-22 13:00","2017","01","22","13:00","1.7","","-2.6","","73","","5","","19","","24.1","","100.80","","","","","","Cloudy"
"2017-01-22 14:00","2017","01","22","14:00","1.6","","-2.2","","76","","4","","27","","24.1","","100.83","","","","","","NA"
"2017-01-22 15:00","2017","01","22","15:00","1.7","","-2.3","","75","","5","","31","","24.1","","100.86","","","","","","NA"
"2017-01-22 16:00","2017","01","22","16:00","1.3","","-1.9","","79","","4","","25","","24.1","","100.89","","","","","","Cloudy"
"2017-01-22 17:00","2017","01","22","17:00","0.9","","-2.5","","78","","4","","25","","24.1","","100.90","","","","","","NA"
"2017-01-22 18:00","2017","01","22","18:00","0.7","","-3.1","","76","","4","","33","","24.1","","100.95","","","","","","NA"
"2017-01-22 19:00","2017","01","22","19:00","0.5","","-3.4","","75","","4","","32","","24.1","","101.05","","","","","","Cloudy"
"2017-01-22 20:00","2017","01","22","20:00","0.3","","-4.0","","73","","4","","33","","24.1","","101.07","","","","","","NA"
"2017-01-22 21:00","2017","01","22","21:00","-0.9","","-4.8","","75","","4","","34","","24.1","","101.03","","","","-8","","Snow"
"2017-01-22 22:00","2017","01","22","22:00","-1.5","","-5.5","","74","","4","","43","","24.1","","101.12","","","","-10","","Cloudy"
"2017-01-22 23:00","2017","01","22","23:00","-2.2","","-5.7","","77","","4","","34","","6.4","","101.19","","","","-10","","Snow"
"2017-01-23 00:00","2017","01","23","00:00","-2.5","","-5.3","","81","","3","","34","","8.1","","101.14","","","","-10","","Snow"
"2017-01-23 01:00","2017","01","23","01:00","-2.3","","-5.8","","77","","4","","39","","24.1","","101.14","","","","-10","","Cloudy"
"2017-01-23 02:00","2017","01","23","02:00","-2.0","","-5.9","","75","","5","","36","","19.3","","101.16","","","","-10","","Snow"
"2017-01-23 03:00","2017","01","23","03:00","-1.9","","-5.6","","76","","4","","31","","19.3","","101.20","","","","-9","","Snow"
"2017-01-23 04:00","2017","01","23","04:00","-2.2","","-5.2","","80","","3","","34","","19.3","","101.25","","","","-10","","Snow,Blowing Snow"
"2017-01-23 05:00","2017","01","23","05:00","-2.3","","-5.3","","80","","4","","36","","16.1","","101.29","","","","-10","","Snow,Blowing Snow"
"2017-01-23 06:00","2017","01","23","06:00","-2.2","","-5.5","","78","","4","","36","","24.1","","101.28","","","","-10","","Snow,Blowing Snow"
"2017-01-23 07:00","2017","01","23","07:00","-2.1","","-5.4","","78","","4","","28","","24.1","","101.28","","","","-9","","Snow"
"2017-01-23 08:00","2017","01","23","08:00","-2.2","","-5.7","","77","","4","","30","","24.1","","101.32","","","","-9","","NA"
"2017-01-23 09:00","2017","01","23","09:00","-1.9","","-6.3","","72","","5","","27","","19.3","","101.38","","","","-9","","Snow"
"2017-01-23 10:00","2017","01","23","10:00","-1.6","","-5.5","","75","","4","","29","","12.9","","101.38","","","","-8","","Snow,Blowing Snow"
"2017-01-23 11:00","2017","01","23","11:00","-1.2","","-5.8","","71","","4","","34","","24.1","","101.31","","","","-8","","Snow"
"2017-01-23 12:00","2017","01","23","12:00","-1.0","","-6.0","","69","","5","","34","","24.1","","101.26","","","","-8","","NA"
"2017-01-23 13:00","2017","01","23","13:00","-0.5","","-5.9","","67","","5","","26","","24.1","","101.31","","","","-7","","Cloudy"
"2017-01-23 14:00","2017","01","23","14:00","-0.3","","-5.5","","68","","4","","35","","24.1","","101.25","","","","-7","","NA"
"2017-01-23 15:00","2017","01","23","15:00","-0.5","","-5.7","","68","","4","","28","","24.1","","101.22","","","","-7","","NA"
"2017-01-23 16:00","2017","01","23","16:00","-0.7","","-6.3","","66","","4","","37","","24.1","","101.22","","","","-8","","Cloudy"
"2017-01-23 17:00","2017","01","23","17:00","-1.5","","-6.1","","71","","4","","34","","24.1","","101.23","","","","-9","","NA"
"2017-01-23 18:00","2017","01","23","18:00","-2.4","","-6.6","","73","","4","","34","","24.1","","101.21","","","","-10","","NA"
"2017-01-23 19:00","2017","01","23","19:00","-2.7","","-6.5","","75","","4","","32","","24.1","","101.18","","","","-10","","Mostly Cloudy"
"2017-01-23 20:00","2017","01","23","20:00","-2.9","","-6.9","","74","","5","","28","","24.1","","101.20","","","","-10","","NA"
"2017-01-23 21:00","2017","01","23","21:00","-3.0","","-7.2","","73","","4","","36","","24.1","","101.14","","","","-11","","NA"
"2017-01-23 22:00","2017","01","23","22:00","-3.4","","-7.4","","74","","4","","34","","24.1","","101.11","","","","-11","","Mostly Cloudy"
"2017-01-23 23:00","2017","01","23","23:00","-3.6","","-7.6","","74","","4","","32","","24.1","","101.05","","","","-11","","NA"
"2017-01-24 00:00","2017","01","24","00:00","-3.7","","-7.9","","73","","5","","31","","24.1","","100.96","","","","-11","","NA"
"2017-01-24 01:00","2017","01","24","01:00","-3.8","","-8.1","","72","","4","","27","","24.1","","100.93","","","","-11","","Cloudy"
"2017-01-24 02:00","2017","01","24","02:00","-3.6","","-8.5","","69","","4","","26","","24.1","","100.91","","","","-11","","NA"
"2017-01-24 03:00","2017","01","24","03:00","-3.6","","-8.7","","68","","4","","34","","24.1","","100.81","","","","-12","","NA"
"2017-01-24 04:00","2017","01","24","04:00","-3.4","","-8.7","","67","","4","","34","","24.1","","100.69","","","","-11","","Cloudy"
"2017-01-24 05:00","2017","01","24","05:00","-3.1","","-9.0","","64","","4","","33","","24.1","","100.58","","","","-11","","NA"
"2017-01-24 06:00","2017","01","24","06:00","-2.9","","-9.2","","62","","4","","40","","24.1","","100.52","","","","-11","","NA"
"2017-01-24 07:00","2017","01","24","07:00","-3.0","","-7.7","","70","","4","","45","","24.1","","100.49","","","","-12","","Freezing Rain"
"2017-01-24 08:00","2017","01","24","08:00","-2.6","","-6.6","","74","","4","","40","","24.1","","100.45","","","","-11","","Freezing Rain"
"2017-01-24 09:00","2017","01","24","09:00","-2.3","","-5.3","","80","","3","","39","","16.1","","100.41","","","","-10","","Freezing Rain,Snow Grains"
"2017-01-24 10:00","2017","01","24","10:00","-2.6","","-5.6","","80","","3","","44","","12.9","","100.34","","","","-11","","Freezing Rain,Snow Grains"
"2017-01-24 11:00","2017","01","24","11:00","-3.3","","-5.6","","84","","4","","37","","2.4","","100.27","","","","-12","","Snow,Ice Pellets"
"2017-01-24 12:00","2017","01","24","12:00","-3.6","","-5.2","","89","","3","","47","","0.6","","100.10","","","","-13","","Moderate Snow,Blowing Snow"
"2017-01-24 13:00","2017","01","24","13:00","-3.6","","-5.6","","86","","4","","45","","4.8","","100.00","","","","-13","","Snow,Blowing Snow"
"2017-01-24 14:00","2017","01","24","14:00","-3.3","","-5.2","","87","","4","","35","","4.8","","99.91","","","","-11","","Snow,Blowing Snow"
"2017-01-24 15:00","2017","01","24","15:00","-3.2","","-5.2","","86","","4","","48","","9.7","","99.89","","","","-12","","Snow,Blowing Snow"
"2017-01-24 16:00","2017","01","24","16:00","-3.2","","-4.9","","88","","4","","39","","6.4","","99.87","","","","-12","","Snow,Blowing Snow"
"2017-01-24 17:00","2017","01","24","17:00","-3.2","","-4.9","","88","","4","","35","","8.1","","99.84","","","","-11","","Snow,Blowing Snow"
"2017-01-24 18:00","2017","01","24","18:00","-3.0","","-4.7","","88","","4","","32","","11.3","","99.81","","","","-11","","Snow,Blowing Snow"
"2017-01-24 19:00","2017","01","24","19:00","-2.7","","-4.4","","88","","3","","35","","12.9","","99.78","","","","-11","","Snow,Blowing Snow"
"2017-01-24 20:00","2017","01","24","20:00","-2.7","","-4.3","","89","","2","","23","","24.1","","99.76","","","","-9","","Snow"
"2017-01-24 21:00","2017","01","24","21:00","-2.6","","-4.0","","90","","2","","22","","8.1","","99.74","","","","-9","","Snow,Blowing Snow"
"2017-01-24 22:00","2017","01","24","22:00","-2.8","","-4.1","","91","","36","","12","","4.0","","99.71","","","","-7","","Snow"
"2017-01-24 23:00","2017","01","24","23:00","-2.7","","-4.0","","91","","36","","16","","4.0","","99.65","","","","-8","","Snow"
"2017-01-25 00:00","2017","01","25","00:00","-2.5","","-4.1","","89","","1","","15","","6.4","","99.59","","","","-7","","Snow"
"2017-01-25 01:00","2017","01","25","01:00","-2.3","","-4.0","","88","","36","","13","","11.3","","99.58","","","","-7","","Snow"
"2017-01-25 02:00","2017","01","25","02:00","-2.4","","-3.5","","92","","28","","9","","4.0","","99.62","","","","-6","","Snow"
"2017-01-25 03:00","2017","01","25","03:00","-2.3","","-3.3","","93","","28","","17","","4.0","","99.62","","","","-8","","Snow"
"2017-01-25 04:00","2017","01","25","04:00","-2.2","","-3.3","","92","","28","","16","","8.1","","99.61","","","","-7","","Snow"
"2017-01-25 05:00","2017","01","25","05:00","-2.0","","-3.0","","93","","28","","16","","8.1","","99.58","","","","-7","","Snow"
"2017-01-25 06:00","2017","01","25","06:00","-1.9","","-3.0","","92","","28","","14","","16.1","","99.62","","","","-7","","Snow"
"2017-01-25 07:00","2017","01","25","07:00","-2.0","","-3.1","","92","","25","","17","","8.1","","99.63","","","","-7","","Snow"
"2017-01-25 08:00","2017","01","25","08:00","-2.1","","-3.2","","92","","26","","18","","2.4","","99.67","","","","-8","","Snow,Fog"
"2017-01-25 09:00","2017","01","25","09:00","-2.0","","-3.4","","90","","25","","22","","12.9","","99.69","","","","-8","","NA"
"2017-01-25 10:00","2017","01","25","10:00","-1.9","","-3.3","","90","","24","","26","","16.1","","99.69","","","","-8","","Cloudy"
"2017-01-25 11:00","2017","01","25","11:00","-1.9","","-3.5","","89","","25","","27","","16.1","","99.68","","","","-9","","NA"
"2017-01-25 12:00","2017","01","25","12:00","-1.8","","-3.4","","89","","25","","23","","9.7","","99.62","","","","-8","","Snow"
"2017-01-25 13:00","2017","01","25","13:00","-1.7","","-3.7","","86","","26","","25","","24.1","","99.58","","","","-8","","Cloudy"
"2017-01-25 14:00","2017","01","25","14:00","-1.6","","-3.8","","85","","24","","22","","24.1","","99.53","","","","-8","","NA"
"2017-01-25 15:00","2017","01","25","15:00","-1.3","","-3.8","","83","","23","","23","","24.1","","99.57","","","","-7","","NA"
"2017-01-25 16:00","2017","01","25","16:00","-1.3","","-4.0","","82","","23","","23","","24.1","","99.63","","","","-7","","Cloudy"
"2017-01-25 17:00","2017","01","25","17:00","-1.2","","-4.1","","81","","24","","18","","24.1","","99.59","","","","-6","","NA"
"2017-01-25 18:00","2017","01","25","18:00","-1.1","","-3.8","","82","","23","","10","","24.1","","99.63","","","","-5","","NA"
"2017-01-25 19:00","2017","01","25","19:00","-1.0","","-3.4","","84","","21","","8","","24.1","","99.59","","","","-4","","Cloudy"
"2017-01-25 20:00","2017","01","25","20:00","-0.5","","-2.3","","88","","19","","13","","24.1","","99.54","","","","-5","","NA"
"2017-01-25 21:00","2017","01","25","21:00","-0.1","","-1.7","","89","","21","","13","","16.1","","99.43","","","","-4","","Snow"
"2017-01-25 22:00","2017","01","25","22:00","0.0","","-1.1","","92","","19","","13","","24.1","","99.39","","","","-4","","Snow"
"2017-01-25 23:00","2017","01","25","23:00","-0.1","","-0.8","","95","","17","","14","","6.4","","99.38","","","","-4","","Snow"
"2017-01-26 00:00","2017","01","26","00:00","0.2","","-0.5","","95","","18","","12","","6.4","","99.25","","","","","","Snow"
"2017-01-26 01:00","2017","01","26","01:00","0.1","","-0.5","","96","","16","","9","","6.4","","99.13","","","","","","Snow"
"2017-01-26 02:00","2017","01","26","02:00","0.6","","-0.1","","95","","19","","11","","12.9","","99.07","","","","","","NA"
"2017-01-26 03:00","2017","01","26","03:00","0.5","","-0.2","","95","","17","","12","","12.9","","99.01","","","","","","Snow"
"2017-01-26 04:00","2017","01","26","04:00","0.7","","0.0","","95","","19","","12","","8.1","","98.94","","","","","","Snow"
"2017-01-26 05:00","2017","01","26","05:00","0.4","","-0.3","","95","","19","","11","","4.0","","98.88","","","","","","Snow"
"2017-01-26 06:00","2017","01","26","06:00","0.4","","-0.2","","96","","17","","10","","4.8","","98.79","","","","","","Snow"
"2017-01-26 07:00","2017","01","26","07:00","0.5","","-0.2","","95","","18","","9","","6.4","","98.77","","","","","","Snow,Fog"
"2017-01-26 08:00","2017","01","26","08:00","0.7","","0.0","","95","","20","","13","","6.4","","98.76","","","","","","Fog"
"2017-01-26 09:00","2017","01","26","09:00","0.6","","0.0","","96","","22","","15","","4.0","","98.71","","","","","","Snow,Fog"
"2017-01-26 10:00","2017","01","26","10:00","0.6","","0.0","","96","","22","","11","","4.8","","98.65","","","","","","Snow,Fog"
"2017-01-26 11:00","2017","01","26","11:00","0.8","","0.1","","95","","24","","13","","6.4","","98.61","","","","","","Snow,Fog"
"2017-01-26 12:00","2017","01","26","12:00","1.0","","-0.5","","90","","25","","17","","16.1","","98.54","","","","","","Snow"
"2017-01-26 13:00","2017","01","26","13:00","0.9","","-0.9","","88","","26","","18","","4.8","","98.47","","","","","","Snow"
"2017-01-26 14:00","2017","01","26","14:00","0.9","","-0.7","","89","","25","","19","","12.9","","98.46","","","","","","Snow"
"2017-01-26 15:00","2017","01","26","15:00","1.2","","-1.4","","83","","26","","25","","24.1","","98.47","","","","","","Snow"
"2017-01-26 16:00","2017","01","26","16:00","0.9","","-2.7","","77","","28","","26","","16.1","","98.54","","","","","","Cloudy"
"2017-01-26 17:00","2017","01","26","17:00","0.5","","-3.1","","77","","26","","22","","24.1","","98.59","","","","","","NA"
"2017-01-26 18:00","2017","01","26","18:00","0.3","","-3.4","","76","","26","","29","","24.1","","98.66","","","","","","Snow"
"2017-01-26 19:00","2017","01","26","19:00","0.2","","-3.2","","78","","26","","26","","24.1","","98.67","","","","","","Cloudy"
"2017-01-26 20:00","2017","01","26","20:00","0.4","","-3.2","","77","","25","","32","","24.1","","98.69","","","","","","NA"
"2017-01-26 21:00","2017","01","26","21:00","0.6","","-3.0","","77","","25","","28","","24.1","","98.70","","","","","","NA"
"2017-01-26 22:00","2017","01","26","22:00","0.8","","-3.0","","76","","25","","30","","24.1","","98.71","","","","","","Snow"
"2017-01-26 23:00","2017","01","26","23:00","0.7","","-2.4","","80","","25","","35","","24.1","","98.72","","","","","","Snow"
"2017-01-27 00:00","2017","01","27","00:00","0.8","","-2.4","","79","","26","","31","","24.1","","98.72","","","","","","Snow"
"2017-01-27 01:00","2017","01","27","01:00","0.9","","-2.7","","77","","26","","33","","24.1","","98.74","","","","","","Cloudy"
"2017-01-27 02:00","2017","01","27","02:00","0.8","","-2.8","","77","","26","","31","","24.1","","98.77","","","","","","NA"
"2017-01-27 03:00","2017","01","27","03:00","0.6","","-4.4","","69","","26","","33","","24.1","","98.81","","","","","","NA"
"2017-01-27 04:00","2017","01","27","04:00","0.6","","-4.8","","67","","26","","32","","24.1","","98.83","","","","","","Cloudy"
"2017-01-27 05:00","2017","01","27","05:00","0.4","","-5.4","","65","","27","","44","","24.1","","98.83","","","","","","NA"
"2017-01-27 06:00","2017","01","27","06:00","-0.4","","-5.8","","67","","26","","38","","24.1","","98.90","","","","-8","","NA"
"2017-01-27 07:00","2017","01","27","07:00","-0.7","","-5.9","","68","","26","","31","","24.1","","98.95","","","","-7","","Mostly Cloudy"
"2017-01-27 08:00","2017","01","27","08:00","-0.6","","-5.2","","71","","26","","27","","24.1","","98.99","","","","-7","","NA"
"2017-01-27 09:00","2017","01","27","09:00","-1.0","","-5.1","","74","","26","","32","","24.1","","99.04","","","","-8","","Snow,Blowing Snow"
"2017-01-27 10:00","2017","01","27","10:00","-0.8","","-5.8","","69","","26","","45","","24.1","","99.04","","","","-9","","Snow"
"2017-01-27 11:00","2017","01","27","11:00","-1.2","","-4.4","","79","","26","","26","","12.9","","99.01","","","","-8","","Snow"
"2017-01-27 12:00","2017","01","27","12:00","-0.6","","-4.5","","75","","25","","29","","12.9","","98.92","","","","-7","","Snow"
"2017-01-27 13:00","2017","01","27","13:00","0.0","","-5.6","","66","","26","","32","","16.1","","98.86","","","","-7","","Snow"
"2017-01-27 14:00","2017","01","27","14:00","0.0","","-6.4","","62","","26","","40","","24.1","","98.82","","","","-7","","Snow"
"2017-01-27 15:00","2017","01","27","15:00","-0.1","","-5.7","","66","","25","","32","","16.1","","98.83","","","","-7","","Snow"
"2017-01-27 16:00","2017","01","27","16:00","-1.6","","-3.5","","87","","27","","34","","1.2","","98.89","","","","-9","","Snow"
"2017-01-27 17:00","2017","01","27","17:00","-1.8","","-5.0","","79","","28","","36","","4.8","","98.93","","","","-9","","Snow,Blowing Snow"
"2017-01-27 18:00","2017","01","27","18:00","-1.9","","-4.9","","80","","27","","35","","4.8","","98.96","","","","-9","","Snow,Blowing Snow"
"2017-01-27 19:00","2017","01","27","19:00","-2.2","","-4.1","","87","","27","","23","","4.8","","98.99","","","","-8","","Snow,Blowing Snow"
"2017-01-27 20:00","2017","01","27","20:00","-2.4","","-4.6","","85","","30","","26","","4.8","","99.03","","","","-9","","Snow,Blowing Snow"
"2017-01-27 21:00","2017","01","27","21:00","-3.1","","-4.8","","88","","28","","18","","3.2","","99.07","","","","-9","","Snow,Blowing Snow"
"2017-01-27 22:00","2017","01","27","22:00","-1.9","","-4.7","","81","","26","","28","","16.1","","99.07","","","","-9","","Snow,Blowing Snow"
"2017-01-27 23:00","2017","01","27","23:00","-1.9","","-5.8","","75","","28","","29","","24.1","","99.09","","","","-9","","Snow,Blowing Snow"
"2017-01-28 00:00","2017","01","28","00:00","-1.9","","-5.9","","74","","27","","31","","24.1","","99.09","","","","-9","","Blowing Snow"
"2017-01-28 01:00","2017","01","28","01:00","-1.9","","-6.7","","70","","26","","30","","24.1","","99.12","","","","-9","","Blowing Snow"
"2017-01-28 02:00","2017","01","28","02:00","-1.9","","-6.9","","69","","27","","29","","24.1","","99.17","","","","-9","","NA"
"2017-01-28 03:00","2017","01","28","03:00","-2.2","","-7.1","","69","","27","","24","","24.1","","99.21","","","","-9","","NA"
"2017-01-28 04:00","2017","01","28","04:00","-2.1","","-6.5","","72","","26","","26","","24.1","","99.24","","","","-9","","Mostly Cloudy"
"2017-01-28 05:00","2017","01","28","05:00","-2.2","","-7.0","","70","","27","","27","","24.1","","99.25","","","","-9","","NA"
"2017-01-28 06:00","2017","01","28","06:00","-2.4","","-7.9","","66","","27","","27","","24.1","","99.28","","","","-9","","NA"
"2017-01-28 07:00","2017","01","28","07:00","-2.7","","-7.4","","70","","26","","17","","24.1","","99.35","","","","-8","","Cloudy"
"2017-01-28 08:00","2017","01","28","08:00","-2.8","","-7.4","","71","","26","","19","","24.1","","99.38","","","","-9","","NA"
"2017-01-28 09:00","2017","01","28","09:00","-2.3","","-6.7","","72","","25","","22","","24.1","","99.40","","","","-8","","NA"
"2017-01-28 10:00","2017","01","28","10:00","-1.8","","-6.6","","70","","25","","26","","24.1","","99.45","","","","-8","","Cloudy"
"2017-01-28 11:00","2017","01","28","11:00","-1.1","","-6.5","","67","","25","","22","","24.1","","99.43","","","","-7","","NA"
"2017-01-28 12:00","2017","01","28","12:00","-0.5","","-5.1","","71","","25","","28","","24.1","","99.39","","","","-7","","NA"
"2017-01-28 13:00","2017","01","28","13:00","-0.2","","-4.3","","74","","24","","23","","24.1","","99.35","","","","-6","","Snow"
"2017-01-28 14:00","2017","01","28","14:00","0.0","","-3.4","","78","","25","","22","","4.8","","99.34","","","","-6","","Snow"
"2017-01-28 15:00","2017","01","28","15:00","-0.2","","-2.0","","88","","23","","17","","4.8","","99.39","","","","-5","","Snow"
"2017-01-28 16:00","2017","01","28","16:00","-0.2","","-2.3","","86","","23","","20","","4.8","","99.41","","","","-5","","Snow"
"2017-01-28 17:00","2017","01","28","17:00","-0.5","","-1.9","","90","","24","","16","","4.0","","99.44","","","","-5","","Snow"
"2017-01-28 18:00","2017","01","28","18:00","-0.3","","-2.4","","86","","24","","17","","12.9","","99.48","","","","-5","","Snow"
"2017-01-28 19:00","2017","01","28","19:00","-0.3","","-3.2","","81","","23","","15","","24.1","","99.50","","","","-5","","Snow"
"2017-01-28 20:00","2017","01","28","20:00","-0.2","","-3.4","","79","","23","","25","","24.1","","99.50","","","","-6","","Snow"
"2017-01-28 21:00","2017","01","28","21:00","-0.5","","-2.7","","85","","22","","24","","19.3","","99.49","","","","-6","","Snow"
"2017-01-28 22:00","2017","01","28","22:00","-0.4","","-3.1","","82","","21","","23","","19.3","","99.48","","","","-6","","Snow"
"2017-01-28 23:00","2017","01","28","23:00","-0.5","","-3.4","","81","","23","","23","","19.3","","99.47","","","","-6","","Snow"
"2017-01-29 00:00","2017","01","29","00:00","-0.4","","-2.9","","83","","22","","21","","16.1","","99.47","","","","-6","","Snow"
"2017-01-29 01:00","2017","01","29","01:00","-0.3","","-3.5","","79","","22","","24","","24.1","","99.43","","","","-6","","Snow"
"2017-01-29 02:00","2017","01","29","02:00","-0.8","","-3.3","","83","","22","","24","","24.1","","99.40","","","","-7","","Snow"
"2017-01-29 03:00","2017","01","29","03:00","-1.0","","-2.9","","87","","23","","27","","16.1","","99.40","","","","-7","","Snow"
"2017-01-29 04:00","2017","01","29","04:00","-1.1","","-2.8","","88","","21","","23","","16.1","","99.40","","","","-7","","Snow"
"2017-01-29 05:00","2017","01","29","05:00","-0.8","","-3.0","","85","","22","","23","","24.1","","99.41","","","","-7","","Snow"
"2017-01-29 06:00","2017","01","29","06:00","-1.1","","-2.7","","89","","21","","19","","12.9","","99.42","","","","-6","","Snow"
"2017-01-29 07:00","2017","01","29","07:00","-1.2","","-2.2","","93","","23","","20","","11.3","","99.46","","","","-7","","Snow"
"2017-01-29 08:00","2017","01","29","08:00","-1.4","","-3.1","","88","","24","","18","","16.1","","99.52","","","","-7","","Snow"
"2017-01-29 09:00","2017","01","29","09:00","-1.8","","-4.6","","81","","27","","21","","24.1","","99.59","","","","-8","","NA"
"2017-01-29 10:00","2017","01","29","10:00","-2.4","","-5.7","","78","","26","","21","","24.1","","99.66","","","","-8","","Mainly Clear"
"2017-01-29 11:00","2017","01","29","11:00","-2.0","","-6.0","","74","","26","","18","","24.1","","99.71","","","","-7","","NA"
"2017-01-29 12:00","2017","01","29","12:00","-1.4","","-7.0","","66","","26","","18","","24.1","","99.73","","","","-7","","NA"
"2017-01-29 13:00","2017","01","29","13:00","-2.1","","-6.7","","71","","23","","20","","16.1","","99.74","","","","-8","","Snow Showers"
"2017-01-29 14:00","2017","01","29","14:00","-2.6","","-5.8","","79","","25","","11","","16.1","","99.76","","","","-7","","Snow Showers"
"2017-01-29 15:00","2017","01","29","15:00","-2.6","","-5.6","","80","","23","","15","","80.5","","99.83","","","","-8","","Snow Showers"
"2017-01-29 16:00","2017","01","29","16:00","-2.9","","-7.1","","73","","26","","14","","24.1","","99.88","","","","-8","","Mainly Clear"
"2017-01-29 17:00","2017","01","29","17:00","-3.3","","-7.1","","75","","25","","9","","24.1","","99.92","","","","-7","","NA"
"2017-01-29 18:00","2017","01","29","18:00","-3.2","","-6.7","","77","","23","","9","","24.1","","99.98","","","","-7","","NA"
"2017-01-29 19:00","2017","01","29","19:00","-3.4","","-6.4","","80","","23","","10","","24.1","","100.00","","","","-7","","Mostly Cloudy"
"2017-01-29 20:00","2017","01","29","20:00","-3.4","","-6.0","","82","","26","","7","","24.1","","100.02","","","","-6","","NA"
"2017-01-29 21:00","2017","01","29","21:00","-3.8","","-5.7","","87","","28","","12","","4.0","","100.04","","","","-8","","Snow"
"2017-01-29 22:00","2017","01","29","22:00","-4.5","","-6.3","","87","","25","","14","","16.1","","100.04","","","","-10","","Snow"
"2017-01-29 23:00","2017","01","29","23:00","-4.4","","-6.6","","85","","25","","19","","24.1","","100.07","","","","-11","","NA"
"2017-01-30 00:00","2017","01","30","00:00","-5.6","","-8.0","","83","","26","","18","","24.1","","100.09","","","","-12","","Snow"
"2017-01-30 01:00","2017","01","30","01:00","-6.4","","-9.0","","82","","29","","13","","24.1","","100.12","","","","-12","","Snow"
"2017-01-30 02:00","2017","01","30","02:00","-6.7","","-10.1","","77","","27","","14","","24.1","","100.18","","","","-12","","Snow"
"2017-01-30 03:00","2017","01","30","03:00","-7.6","","-11.0","","77","","26","","9","","24.1","","100.21","","","","-12","","NA"
"2017-01-30 04:00","2017","01","30","04:00","-8.6","","-12.1","","76","","26","","13","","24.1","","100.25","","","","-15","","Cloudy"
"2017-01-30 05:00","2017","01","30","05:00","-9.1","","-11.9","","80","","26","","9","","16.1","","100.28","","","","-14","","Snow"
"2017-01-30 06:00","2017","01","30","06:00","-10.9","","-13.4","","82","","25","","10","","24.1","","100.31","","","","-16","","NA"
"2017-01-30 07:00","2017","01","30","07:00","-11.9","","-14.8","","79","","23","","11","","24.1","","100.37","","","","-18","","Mainly Clear"
"2017-01-30 08:00","2017","01","30","08:00","-12.3","","-15.1","","80","","24","","9","","24.1","","100.44","","","","-18","","NA"
"2017-01-30 09:00","2017","01","30","09:00","-11.3","","-15.1","","74","","24","","10","","24.1","","100.49","","","","-17","","NA"
"2017-01-30 10:00","2017","01","30","10:00","-10.7","","-15.3","","69","","26","","20","","24.1","","100.52","","","","-19","","Mainly Clear"
"2017-01-30 11:00","2017","01","30","11:00","-9.8","","-15.0","","66","","25","","13","","24.1","","100.55","","","","-16","","NA"
"2017-01-30 12:00","2017","01","30","12:00","-9.2","","-15.0","","63","","24","","14","","24.1","","100.50","","","","-16","","NA"
"2017-01-30 13:00","2017","01","30","13:00","-8.9","","-15.8","","58","","24","","19","","24.1","","100.50","","","","-16","","Mostly Cloudy"
"2017-01-30 14:00","2017","01","30","14:00","-8.2","","-16.4","","52","","25","","22","","24.1","","100.52","","","","-16","","NA"
"2017-01-30 15:00","2017","01","30","15:00","-8.9","","-16.2","","56","","25","","28","","24.1","","100.58","","","","-18","","Blowing Snow"
"2017-01-30 16:00","2017","01","30","16:00","-9.0","","-16.5","","55","","24","","24","","24.1","","100.62","","","","-17","","Mainly Clear"
"2017-01-30 17:00","2017","01","30","17:00","-9.7","","-17.2","","55","","25","","19","","24.1","","100.69","","","","-17","","NA"
"2017-01-30 18:00","2017","01","30","18:00","-10.6","","-17.2","","59","","26","","22","","24.1","","100.77","","","","-19","","NA"
"2017-01-30 19:00","2017","01","30","19:00","-11.2","","-17.5","","60","","26","","17","","24.1","","100.82","","","","-19","","Mainly Clear"
"2017-01-30 20:00","2017","01","30","20:00","-11.8","","-16.9","","66","","27","","17","","24.1","","100.83","","","","-19","","NA"
"2017-01-30 21:00","2017","01","30","21:00","-12.4","","-17.3","","67","","28","","14","","24.1","","100.83","","","","-19","","NA"
"2017-01-30 22:00","2017","01","30","22:00","-13.0","","-17.6","","69","","28","","14","","24.1","","100.85","","","","-20","","Clear"
"2017-01-30 23:00","2017","01","30","23:00","-13.3","","-17.5","","71","","27","","13","","24.1","","100.88","","","","-20","","NA"
"2017-01-31 00:00","2017","01","31","00:00","-13.6","","-17.5","","73","","27","","12","","24.1","","100.90","","","","-20","","NA"
"2017-01-31 01:00","2017","01","31","01:00","-13.6","","-17.5","","73","","27","","11","","24.1","","100.90","","","","-20","","Clear"
"2017-01-31 02:00","2017","01","31","02:00","-13.9","","-17.6","","74","","26","","9","","24.1","","100.95","","","","-20","","NA"
"2017-01-31 03:00","2017","01","31","03:00","-14.8","","-18.1","","76","","23","","11","","24.1","","100.96","","","","-21","","NA"
"2017-01-31 04:00","2017","01","31","04:00","-15.4","","-18.4","","78","","23","","8","","24.1","","100.94","","","","-21","","Clear"
"2017-01-31 05:00","2017","01","31","05:00","-16.1","","-19.0","","79","","36","","2","","24.1","","100.89","","","","-18","","NA"
"2017-01-31 06:00","2017","01","31","06:00","-15.9","","-18.8","","79","","24","","10","","24.1","","100.90","","","","-22","","NA"
"2017-01-31 07:00","2017","01","31","07:00","-16.6","","-19.4","","79","","36","","1","","24.1","","100.92","","","","-17","","Mainly Clear"
"2017-01-31 08:00","2017","01","31","08:00","-17.6","","-20.4","","79","","36","","5","","24.1","","100.95","","","","-22","","NA"
"2017-01-31 09:00","2017","01","31","09:00","-13.7","","-16.8","","78","","36","","3","","24.1","","100.95","","","","-16","","NA"
"2017-01-31 10:00","2017","01","31","10:00","-11.0","","-14.3","","77","","36","","3","","24.1","","100.92","","","","-13","","Mainly Clear"
"2017-01-31 11:00","2017","01","31","11:00","-9.3","","-15.3","","62","","10","","4","","24.1","","100.88","","","","-12","","NA"
"2017-01-31 12:00","2017","01","31","12:00","-8.3","","-15.2","","58","","12","","9","","24.1","","100.82","","","","-13","","NA"
"2017-01-31 13:00","2017","01","31","13:00","-8.0","","-14.9","","58","","11","","10","","24.1","","100.73","","","","-13","","Mainly Clear"
"2017-01-31 14:00","2017","01","31","14:00","-7.6","","-14.3","","59","","11","","4","","24.1","","100.67","","","","-10","","NA"
"2017-01-31 15:00","2017","01","31","15:00","-7.4","","-14.1","","59","","8","","7","","24.1","","100.64","","","","-11","","NA"
"2017-01-31 16:00","2017","01","31","16:00","-8.1","","-14.0","","63","","4","","19","","24.1","","100.63","","","","-15","","Mostly Cloudy"
"2017-01-31 17:00","2017","01","31","17:00","-9.4","","-15.0","","64","","5","","17","","24.1","","100.69","","","","-16","","NA"
"2017-01-31 18:00","2017","01","31","18:00","-9.7","","-14.9","","66","","4","","17","","24.1","","100.70","","","","-17","","NA"
"2017-01-31 19:00","2017","01","31","19:00","-10.6","","-15.6","","67","","4","","18","","24.1","","100.72","","","","-18","","Mainly Clear"
"2017-01-31 20:00","2017","01","31","20:00","-10.9","","-15.7","","68","","4","","17","","24.1","","100.72","","","","-18","","NA"
"2017-01-31 21:00","2017","01","31","21:00","-10.9","","-15.5","","69","","4","","23","","24.1","","100.69","","","","-20","","NA"
"2017-01-31 22:00","2017","01","31","22:00","-11.9","","-15.6","","74","","2","","18","","24.1","","100.65","","","","-20","","Mainly Clear"
"2017-01-31 23:00","2017","01","31","23:00","-12.9","","-16.1","","77","","2","","21","","24.1","","100.63","","","","-22","","NA"
