"Station Name","MONTREAL INTL A"
"Province","QUEBEC"
"Latitude","45.47"
"Longitude","-73.74"
"Elevation","36.00"
"Climate Identifier","7025251"
"WMO Identifier","71627"
"TC Identifier","YUL"
"All times are specified in Local Standard Time (LST). Add 1 hour to adjust for Daylight Saving Time where and when it is observed."

"Legend"
"E","Estimated"
"M","Missing"
"NA","Not Available"

"Date/Time","Year","Month","Day","Time","Temp (°C)","Temp Flag","Dew Point Temp (°C)","Dew Point Temp Flag","Rel Hum (%)","Rel Hum Flag","Wind Dir (10s deg)","Wind Dir Flag","Wind Spd (km/h)","Wind Spd Flag","Visibility (km)","Visibility Flag","Stn Press (kPa)","Stn Press Flag","Hmdx","Hmdx Flag","Wind Chill","Wind Chill Flag","Weather"
"2016-04-01 00:00","2016","04","01","00:00","15.7","","10.1","","69","","18","","23","","24.1","","99.11","","","","","","NA"
"2016-04-01 01:00","2016","04","01","01:00","16.3","","10.5","","68","","18","","22","","24.1","","98.98","","","","","","Cloudy"
"2016-04-01 02:00","2016","04","01","02:00","14.4","","10.5","","77","","17","","15","","24.1","","99.00","","","","","","Rain Showers"
"2016-04-01 03:00","2016","04","01","03:00","14.3","","10.6","","78","","22","","33","","24.1","","99.09","","","","","","NA"
"2016-04-01 04:00","2016","04","01","04:00","13.3","","10.5","","83","","21","","29","","24.1","","99.09","","","","","","Cloudy"
"2016-04-01 05:00","2016","04","01","05:00","13.3","","10.9","","85","","23","","36","","19.3","","99.17","","","","","","Rain Showers"
"2016-04-01 06:00","2016","04","01","06:00","12.6","","10.7","","88","","23","","41","","24.1","","99.17","","","","","","Rain Showers"
"2016-04-01 07:00","2016","04","01","07:00","12.1","","10.7","","91","","21","","21","","24.1","","99.17","","","","","","Mostly Cloudy"
"2016-04-01 08:00","2016","04","01","08:00","11.1","","9.9","","92","","21","","20","","16.1","","99.17","","","","","","Rain Showers"
"2016-04-01 09:00","2016","04","01","09:00","11.1","","10.0","","93","","21","","18","","24.1","","99.17","","","","","","NA"
"2016-04-01 10:00","2016","04","01","10:00","11.7","","10.8","","94","","21","","16","","24.1","","99.15","","","","","","Cloudy"
"2016-04-01 11:00","2016","04","01","11:00","13.9","","10.0","","77","","26","","29","","24.1","","99.06","","","","","","NA"
"2016-04-01 12:00","2016","04","01","12:00","12.6","","8.9","","78","","22","","28","","24.1","","99.04","","","","","","Rain Showers"
"2016-04-01 13:00","2016","04","01","13:00","13.8","","8.9","","72","","25","","30","","24.1","","98.98","","","","","","Mostly Cloudy"
"2016-04-01 14:00","2016","04","01","14:00","11.9","","6.4","","69","","26","","27","","24.1","","99.02","","","","","","NA"
"2016-04-01 15:00","2016","04","01","15:00","12.7","","5.7","","62","","26","","39","","24.1","","99.06","","","","","","NA"
"2016-04-01 16:00","2016","04","01","16:00","11.1","","4.6","","64","","27","","37","","24.1","","99.11","","","","","","Mainly Clear"
"2016-04-01 17:00","2016","04","01","17:00","9.9","","3.2","","63","","27","","37","","24.1","","99.20","","","","","","NA"
"2016-04-01 18:00","2016","04","01","18:00","8.3","","3.0","","69","","26","","32","","24.1","","99.32","","","","","","NA"
"2016-04-01 19:00","2016","04","01","19:00","8.0","","1.9","","65","","26","","34","","24.1","","99.56","","","","","","Mainly Clear"
"2016-04-01 20:00","2016","04","01","20:00","7.1","","1.4","","67","","28","","22","","24.1","","99.69","","","","","","NA"
"2016-04-01 21:00","2016","04","01","21:00","5.9","","1.1","","71","","25","","30","","24.1","","99.82","","","","","","NA"
"2016-04-01 22:00","2016","04","01","22:00","4.9","","0.7","","74","","27","","19","","24.1","","99.80","","","","","","Clear"
"2016-04-01 23:00","2016","04","01","23:00","4.2","","0.4","","76","","27","","22","","24.1","","99.73","","","","","","NA"
"2016-04-02 00:00","2016","04","02","00:00","3.6","","-0.8","","73","","29","","13","","24.1","","99.85","","","","","","NA"
"2016-04-02 01:00","2016","04","02","01:00","3.3","","-1.7","","70","","31","","14","","24.1","","99.93","","","","","","Mainly Clear"
"2016-04-02 02:00","2016","04","02","02:00","2.1","","-2.1","","74","","29","","9","","24.1","","99.90","","","","","","NA"
"2016-04-02 03:00","2016","04","02","03:00","1.6","","-2.9","","72","","34","","3","","24.1","","99.80","","","","","","NA"
"2016-04-02 04:00","2016","04","02","04:00","1.6","","-2.4","","75","","33","","3","","24.1","","99.80","","","","","","Mostly Cloudy"
"2016-04-02 05:00","2016","04","02","05:00","1.8","","-2.7","","72","","36","","2","","24.1","","99.76","","","","","","NA"
"2016-04-02 06:00","2016","04","02","06:00","2.3","","-2.4","","71","","11","","7","","24.1","","99.68","","","","","","NA"
"2016-04-02 07:00","2016","04","02","07:00","2.7","","-1.8","","72","","14","","10","","24.1","","99.60","","","","","","Mostly Cloudy"
"2016-04-02 08:00","2016","04","02","08:00","3.7","","-0.7","","73","","15","","9","","24.1","","99.55","","","","","","NA"
"2016-04-02 09:00","2016","04","02","09:00","5.3","","-0.1","","68","","21","","15","","48.3","","99.45","","","","","","NA"
"2016-04-02 10:00","2016","04","02","10:00","6.0","","-0.5","","63","","15","","9","","48.3","","99.26","","","","","","Mostly Cloudy"
"2016-04-02 11:00","2016","04","02","11:00","7.4","","0.2","","60","","16","","19","","48.3","","99.10","","","","","","NA"
"2016-04-02 12:00","2016","04","02","12:00","8.3","","0.6","","58","","13","","18","","24.1","","98.89","","","","","","Rain"
"2016-04-02 13:00","2016","04","02","13:00","6.4","","3.9","","84","","22","","16","","24.1","","98.86","","","","","","Cloudy"
"2016-04-02 14:00","2016","04","02","14:00","5.1","","3.1","","87","","24","","23","","24.1","","98.82","","","","","","NA"
"2016-04-02 15:00","2016","04","02","15:00","7.2","","0.2","","61","","25","","34","","24.1","","98.76","","","","","","NA"
"2016-04-02 16:00","2016","04","02","16:00","6.4","","-1.5","","57","","27","","39","","48.3","","98.81","","","","","","Mainly Clear"
"2016-04-02 17:00","2016","04","02","17:00","5.5","","-4.9","","47","","26","","29","","48.3","","98.91","","","","","","NA"
"2016-04-02 18:00","2016","04","02","18:00","4.3","","-8.2","","40","","27","","33","","48.3","","98.98","","","","","","NA"
"2016-04-02 19:00","2016","04","02","19:00","3.4","","-7.4","","45","","27","","16","","24.1","","98.98","","","","","","Mainly Clear"
"2016-04-02 20:00","2016","04","02","20:00","2.8","","-7.2","","48","","31","","21","","24.1","","99.10","","","","","","NA"
"2016-04-02 21:00","2016","04","02","21:00","1.2","","-6.2","","58","","33","","18","","24.1","","99.19","","","","","","NA"
"2016-04-02 22:00","2016","04","02","22:00","-0.3","","-9.0","","52","","32","","20","","24.1","","99.11","","","","-6","","Clear"
"2016-04-02 23:00","2016","04","02","23:00","-1.1","","-9.3","","54","","32","","13","","24.1","","99.14","","","","-5","","NA"
"2016-04-03 00:00","2016","04","03","00:00","-2.0","","-9.0","","59","","32","","15","","24.1","","99.17","","","","-7","","NA"
"2016-04-03 01:00","2016","04","03","01:00","-3.0","","-10.8","","55","","34","","25","","24.1","","99.28","","","","-10","","Clear"
"2016-04-03 02:00","2016","04","03","02:00","-4.0","","-11.8","","55","","35","","17","","24.1","","99.38","","","","-10","","NA"
"2016-04-03 03:00","2016","04","03","03:00","-4.6","","-12.8","","53","","34","","19","","24.1","","99.39","","","","-11","","NA"
"2016-04-03 04:00","2016","04","03","04:00","-5.6","","-15.2","","47","","34","","17","","24.1","","99.47","","","","-12","","Mainly Clear"
"2016-04-03 05:00","2016","04","03","05:00","-6.4","","-16.5","","45","","33","","19","","24.1","","99.64","","","","-13","","NA"
"2016-04-03 06:00","2016","04","03","06:00","-7.6","","-16.3","","50","","35","","16","","24.1","","99.80","","","","-14","","NA"
"2016-04-03 07:00","2016","04","03","07:00","-8.2","","-18.4","","44","","32","","24","","24.1","","99.97","","","","-16","","Mostly Cloudy"
"2016-04-03 08:00","2016","04","03","08:00","-8.0","","-17.2","","48","","29","","24","","24.1","","100.09","","","","-16","","NA"
"2016-04-03 09:00","2016","04","03","09:00","-7.3","","-16.8","","47","","28","","24","","24.1","","100.14","","","","-15","","NA"
"2016-04-03 10:00","2016","04","03","10:00","-6.2","","-17.2","","42","","29","","33","","24.1","","100.16","","","","-15","","Mostly Cloudy"
"2016-04-03 11:00","2016","04","03","11:00","-5.8","","-17.7","","39","","29","","30","","24.1","","100.24","","","","-14","","NA"
"2016-04-03 12:00","2016","04","03","12:00","-6.0","","-18.2","","38","","27","","38","","24.1","","100.32","","","","-15","","NA"
"2016-04-03 13:00","2016","04","03","13:00","-5.3","","-18.5","","35","","29","","37","","24.1","","100.43","","","","-14","","Mostly Cloudy"
"2016-04-03 14:00","2016","04","03","14:00","-5.8","","-20.1","","32","","28","","39","","24.1","","100.51","","","","-15","","NA"
"2016-04-03 15:00","2016","04","03","15:00","-5.4","","-19.7","","32","","27","","37","","24.1","","100.59","","","","-14","","NA"
"2016-04-03 16:00","2016","04","03","16:00","-5.5","","-18.7","","35","","29","","31","","24.1","","100.69","","","","-14","","Mostly Cloudy"
"2016-04-03 17:00","2016","04","03","17:00","-6.0","","-19.2","","35","","29","","28","","48.3","","100.78","","","","-14","","NA"
"2016-04-03 18:00","2016","04","03","18:00","-6.4","","-20.2","","33","","30","","28","","48.3","","100.89","","","","-15","","NA"
"2016-04-03 19:00","2016","04","03","19:00","-6.9","","-19.6","","36","","28","","30","","24.1","","101.00","","","","-15","","Mainly Clear"
"2016-04-03 20:00","2016","04","03","20:00","-7.3","","-19.4","","38","","30","","22","","24.1","","101.15","","","","-15","","NA"
"2016-04-03 21:00","2016","04","03","21:00","-7.6","","-19.6","","38","","30","","17","","24.1","","101.26","","","","-14","","NA"
"2016-04-03 22:00","2016","04","03","22:00","-7.8","","-18.9","","41","","34","","16","","24.1","","101.32","","","","-14","","Clear"
"2016-04-03 23:00","2016","04","03","23:00","-8.5","","-18.7","","44","","34","","17","","24.1","","101.34","","","","-15","","NA"
"2016-04-04 00:00","2016","04","04","00:00","-8.6","","-18.3","","46","","35","","15","","24.1","","101.30","","","","-15","","NA"
"2016-04-04 01:00","2016","04","04","01:00","-9.1","","-18.5","","47","","4","","8","","24.1","","101.33","","","","-13","","Mostly Cloudy"
"2016-04-04 02:00","2016","04","04","02:00","-9.1","","-19.5","","43","","36","","10","","24.1","","101.35","","","","-14","","NA"
"2016-04-04 03:00","2016","04","04","03:00","-9.3","","-19.5","","44","","35","","8","","24.1","","101.35","","","","-14","","NA"
"2016-04-04 04:00","2016","04","04","04:00","-9.6","","-19.2","","46","","2","","8","","24.1","","101.37","","","","-14","","Mostly Cloudy"
"2016-04-04 05:00","2016","04","04","05:00","-9.6","","-18.5","","49","","4","","15","","24.1","","101.41","","","","-16","","NA"
"2016-04-04 06:00","2016","04","04","06:00","-9.2","","-19.1","","45","","3","","16","","24.1","","101.48","","","","-16","","NA"
"2016-04-04 07:00","2016","04","04","07:00","-8.9","","-18.3","","47","","5","","18","","24.1","","101.53","","","","-16","","Mostly Cloudy"
"2016-04-04 08:00","2016","04","04","08:00","-8.5","","-18.2","","46","","2","","22","","24.1","","101.54","","","","-16","","NA"
"2016-04-04 09:00","2016","04","04","09:00","-8.0","","-18.0","","45","","4","","20","","24.1","","101.54","","","","-15","","NA"
"2016-04-04 10:00","2016","04","04","10:00","-7.1","","-18.6","","40","","3","","19","","24.1","","101.58","","","","-14","","Mostly Cloudy"
"2016-04-04 11:00","2016","04","04","11:00","-6.2","","-17.5","","41","","4","","18","","24.1","","101.52","","","","-13","","NA"
"2016-04-04 12:00","2016","04","04","12:00","-6.2","","-19.0","","36","","35","","11","","48.3","","101.49","","","","-11","","NA"
"2016-04-04 13:00","2016","04","04","13:00","-5.5","","-19.1","","34","","1","","13","","48.3","","101.49","","","","-11","","Mostly Cloudy"
"2016-04-04 14:00","2016","04","04","14:00","-4.5","","-18.5","","33","","4","","17","","48.3","","101.44","","","","-10","","NA"
"2016-04-04 15:00","2016","04","04","15:00","-4.1","","-19.3","","30","","2","","4","","48.3","","101.40","","","","-6","","NA"
"2016-04-04 16:00","2016","04","04","16:00","-3.5","","-18.8","","30","","4","","4","","48.3","","101.43","","","","-5","","Mostly Cloudy"
"2016-04-04 17:00","2016","04","04","17:00","-3.7","","-18.9","","30","","17","","4","","48.3","","101.47","","","","-5","","NA"
"2016-04-04 18:00","2016","04","04","18:00","-3.7","","-17.4","","34","","21","","11","","48.3","","101.54","","","","-8","","NA"
"2016-04-04 19:00","2016","04","04","19:00","-4.0","","-18.4","","32","","36","","1","","24.1","","101.60","","","","-4","","Clear"
"2016-04-04 20:00","2016","04","04","20:00","-4.4","","-16.1","","40","","17","","11","","24.1","","101.69","","","","-9","","NA"
"2016-04-04 21:00","2016","04","04","21:00","-4.5","","-15.9","","41","","17","","10","","24.1","","101.77","","","","-9","","NA"
"2016-04-04 22:00","2016","04","04","22:00","-5.8","","-15.4","","47","","25","","6","","24.1","","101.79","","","","-9","","Clear"
"2016-04-04 23:00","2016","04","04","23:00","-5.4","","-14.3","","50","","33","","14","","24.1","","101.83","","","","-11","","NA"
"2016-04-05 00:00","2016","04","05","00:00","-6.0","","-13.4","","56","","33","","12","","24.1","","101.88","","","","-11","","NA"
"2016-04-05 01:00","2016","04","05","01:00","-6.4","","-13.4","","58","","36","","16","","24.1","","101.95","","","","-13","","Clear"
"2016-04-05 02:00","2016","04","05","02:00","-6.9","","-15.9","","49","","36","","19","","24.1","","102.03","","","","-14","","NA"
"2016-04-05 03:00","2016","04","05","03:00","-7.9","","-16.9","","49","","1","","26","","24.1","","102.12","","","","-16","","NA"
"2016-04-05 04:00","2016","04","05","04:00","-8.5","","-17.2","","50","","1","","19","","24.1","","102.21","","","","-16","","Clear"
"2016-04-05 05:00","2016","04","05","05:00","-8.9","","-17.3","","51","","36","","16","","24.1","","102.30","","","","-16","","NA"
"2016-04-05 06:00","2016","04","05","06:00","-8.9","","-17.1","","52","","36","","13","","24.1","","102.42","","","","-15","","NA"
"2016-04-05 07:00","2016","04","05","07:00","-8.2","","-17.4","","48","","1","","14","","24.1","","102.50","","","","-14","","Clear"
"2016-04-05 08:00","2016","04","05","08:00","-7.1","","-17.7","","43","","1","","11","","48.3","","102.54","","","","-12","","NA"
"2016-04-05 09:00","2016","04","05","09:00","-6.2","","-18.7","","37","","31","","12","","48.3","","102.59","","","","-11","","NA"
"2016-04-05 10:00","2016","04","05","10:00","-5.6","","-19.2","","34","","28","","14","","48.3","","102.59","","","","-11","","Mainly Clear"
"2016-04-05 11:00","2016","04","05","11:00","-3.8","","-17.9","","33","","26","","17","","48.3","","102.53","","","","-10","","NA"
"2016-04-05 12:00","2016","04","05","12:00","-2.7","","-17.7","","31","","25","","23","","48.3","","102.45","","","","-9","","NA"
"2016-04-05 13:00","2016","04","05","13:00","-2.3","","-17.3","","31","","24","","27","","48.3","","102.41","","","","-9","","Mainly Clear"
"2016-04-05 14:00","2016","04","05","14:00","-1.5","","-17.8","","28","","28","","21","","48.3","","102.34","","","","-7","","NA"
"2016-04-05 15:00","2016","04","05","15:00","-0.9","","-18.2","","26","","26","","27","","48.3","","102.27","","","","-7","","NA"
"2016-04-05 16:00","2016","04","05","16:00","-0.5","","-18.3","","25","","28","","32","","48.3","","102.24","","","","-7","","Clear"
"2016-04-05 17:00","2016","04","05","17:00","-0.5","","-18.3","","25","","25","","26","","48.3","","102.22","","","","-7","","NA"
"2016-04-05 18:00","2016","04","05","18:00","-0.9","","-19.1","","24","","28","","21","","48.3","","102.21","","","","-7","","NA"
"2016-04-05 19:00","2016","04","05","19:00","-1.7","","-18.4","","27","","27","","14","","24.1","","102.19","","","","-6","","Clear"
"2016-04-05 20:00","2016","04","05","20:00","-2.4","","-17.0","","32","","25","","10","","24.1","","102.20","","","","-6","","NA"
"2016-04-05 21:00","2016","04","05","21:00","-3.1","","-15.2","","39","","30","","5","","24.1","","102.22","","","","-5","","NA"
"2016-04-05 22:00","2016","04","05","22:00","-2.6","","-16.4","","34","","31","","4","","24.1","","102.21","","","","-4","","Mainly Clear"
"2016-04-05 23:00","2016","04","05","23:00","-4.1","","-14.1","","46","","25","","13","","24.1","","102.24","","","","-9","","NA"
"2016-04-06 00:00","2016","04","06","00:00","-5.2","","-14.3","","49","","24","","9","","24.1","","102.22","","","","-9","","NA"
"2016-04-06 01:00","2016","04","06","01:00","-5.3","","-11.5","","62","","25","","9","","24.1","","102.19","","","","-9","","Clear"
"2016-04-06 02:00","2016","04","06","02:00","-4.4","","-9.3","","69","","23","","13","","24.1","","102.17","","","","-9","","NA"
"2016-04-06 03:00","2016","04","06","03:00","-3.8","","-9.1","","67","","23","","13","","24.1","","102.14","","","","-9","","NA"
"2016-04-06 04:00","2016","04","06","04:00","-3.6","","-8.1","","71","","21","","16","","24.1","","102.05","","","","-9","","Mostly Cloudy"
"2016-04-06 05:00","2016","04","06","05:00","-3.5","","-8.0","","71","","21","","18","","24.1","","102.02","","","","-9","","NA"
"2016-04-06 06:00","2016","04","06","06:00","-3.0","","-7.7","","70","","22","","20","","48.3","","102.04","","","","-9","","NA"
"2016-04-06 07:00","2016","04","06","07:00","-2.3","","-7.6","","67","","23","","18","","48.3","","102.09","","","","-8","","Cloudy"
"2016-04-06 08:00","2016","04","06","08:00","-0.6","","-7.4","","60","","21","","17","","48.3","","102.04","","","","-6","","NA"
"2016-04-06 09:00","2016","04","06","09:00","0.1","","-7.2","","58","","22","","16","","48.3","","101.99","","","","","","NA"
"2016-04-06 10:00","2016","04","06","10:00","1.1","","-8.5","","49","","21","","16","","48.3","","101.84","","","","","","Cloudy"
"2016-04-06 11:00","2016","04","06","11:00","1.9","","-10.0","","41","","22","","17","","48.3","","101.74","","","","","","NA"
"2016-04-06 12:00","2016","04","06","12:00","2.9","","-11.1","","35","","25","","9","","48.3","","101.62","","","","","","NA"
"2016-04-06 13:00","2016","04","06","13:00","3.4","","-10.0","","37","","17","","15","","24.1","","101.49","","","","","","Cloudy"
"2016-04-06 14:00","2016","04","06","14:00","3.2","","-10.9","","35","","16","","18","","24.1","","101.33","","","","","","NA"
"2016-04-06 15:00","2016","04","06","15:00","1.6","","-7.0","","53","","18","","20","","16.1","","101.24","","","","","","Snow"
"2016-04-06 16:00","2016","04","06","16:00","-0.8","","-2.2","","90","","18","","15","","1.2","","101.17","","","","-5","","Snow"
"2016-04-06 17:00","2016","04","06","17:00","-1.2","","-2.5","","91","","14","","23","","1.2","","101.05","","","","-7","","Snow"
"2016-04-06 18:00","2016","04","06","18:00","-1.7","","-3.3","","89","","14","","19","","1.0","","100.96","","","","-7","","Snow"
"2016-04-06 19:00","2016","04","06","19:00","-1.2","","-2.6","","90","","14","","22","","1.2","","100.87","","","","-7","","Snow"
"2016-04-06 20:00","2016","04","06","20:00","-0.9","","-2.2","","91","","16","","19","","1.2","","100.83","","","","-6","","Snow"
"2016-04-06 21:00","2016","04","06","21:00","-0.7","","-1.8","","92","","15","","24","","3.2","","100.79","","","","-7","","Snow,Blowing Snow"
"2016-04-06 22:00","2016","04","06","22:00","-0.6","","-1.9","","91","","14","","17","","4.0","","100.70","","","","-6","","Snow,Blowing Snow"
"2016-04-06 23:00","2016","04","06","23:00","-0.2","","-1.3","","92","","14","","19","","3.2","","100.62","","","","-5","","Snow,Blowing Snow"
"2016-04-07 00:00","2016","04","07","00:00","-0.1","","-1.2","","92","","14","","22","","2.8","","100.49","","","","-6","","Snow"
"2016-04-07 01:00","2016","04","07","01:00","0.2","","-0.7","","94","","14","","27","","1.6","","100.37","","","","","","Snow"
"2016-04-07 02:00","2016","04","07","02:00","0.9","","-0.3","","92","","15","","26","","6.4","","100.25","","","","","","Snow"
"2016-04-07 03:00","2016","04","07","03:00","0.9","","-0.3","","92","","14","","26","","9.7","","100.10","","","","","","Rain"
"2016-04-07 04:00","2016","04","07","04:00","0.9","","-0.6","","90","","13","","31","","8.1","","100.03","","","","","","Rain,Snow"
"2016-04-07 05:00","2016","04","07","05:00","1.2","","-0.4","","89","","13","","26","","11.3","","99.99","","","","","","Rain"
"2016-04-07 06:00","2016","04","07","06:00","1.6","","-0.3","","87","","12","","22","","16.1","","99.87","","","","","","Rain"
"2016-04-07 07:00","2016","04","07","07:00","2.0","","-0.3","","85","","11","","21","","16.1","","99.79","","","","","","Rain"
"2016-04-07 08:00","2016","04","07","08:00","2.4","","0.5","","87","","11","","15","","11.3","","99.78","","","","","","Rain"
"2016-04-07 09:00","2016","04","07","09:00","2.5","","1.2","","91","","11","","13","","12.9","","99.69","","","","","","Rain"
"2016-04-07 10:00","2016","04","07","10:00","2.8","","1.3","","90","","9","","10","","12.9","","99.71","","","","","","Rain"
"2016-04-07 11:00","2016","04","07","11:00","3.4","","1.9","","90","","5","","12","","24.1","","99.58","","","","","","Rain"
"2016-04-07 12:00","2016","04","07","12:00","2.8","","1.6","","92","","3","","12","","24.1","","99.48","","","","","","Rain"
"2016-04-07 13:00","2016","04","07","13:00","3.1","","2.4","","95","","2","","15","","9.7","","99.39","","","","","","Rain,Fog"
"2016-04-07 14:00","2016","04","07","14:00","3.0","","2.4","","96","","3","","17","","3.2","","99.31","","","","","","Rain,Fog"
"2016-04-07 15:00","2016","04","07","15:00","3.1","","2.5","","96","","3","","26","","2.8","","99.13","","","","","","Rain,Fog"
"2016-04-07 16:00","2016","04","07","16:00","3.0","","2.6","","97","","1","","23","","3.2","","98.93","","","","","","Moderate Rain,Fog"
"2016-04-07 17:00","2016","04","07","17:00","2.5","","1.9","","96","","1","","23","","4.0","","98.82","","","","","","Moderate Rain,Fog"
"2016-04-07 18:00","2016","04","07","18:00","2.2","","1.6","","96","","35","","24","","4.8","","98.63","","","","","","Moderate Rain,Fog"
"2016-04-07 19:00","2016","04","07","19:00","2.8","","2.2","","96","","32","","14","","8.1","","98.58","","","","","","Rain,Fog"
"2016-04-07 20:00","2016","04","07","20:00","3.0","","2.4","","96","","25","","9","","6.4","","98.66","","","","","","Rain,Fog"
"2016-04-07 21:00","2016","04","07","21:00","3.0","","2.4","","96","","23","","17","","8.1","","98.70","","","","","","Rain,Fog"
"2016-04-07 22:00","2016","04","07","22:00","3.1","","2.7","","97","","21","","19","","8.1","","98.73","","","","","","Rain,Fog"
"2016-04-07 23:00","2016","04","07","23:00","3.9","","3.5","","97","","21","","21","","16.1","","98.74","","","","","","Rain"
"2016-04-08 00:00","2016","04","08","00:00","4.2","","3.0","","92","","21","","24","","24.1","","98.80","","","","","","NA"
"2016-04-08 01:00","2016","04","08","01:00","4.0","","2.2","","88","","22","","34","","24.1","","98.80","","","","","","Cloudy"
"2016-04-08 02:00","2016","04","08","02:00","3.8","","1.8","","87","","23","","30","","24.1","","98.78","","","","","","NA"
"2016-04-08 03:00","2016","04","08","03:00","3.3","","0.5","","82","","22","","28","","24.1","","98.84","","","","","","NA"
"2016-04-08 04:00","2016","04","08","04:00","2.5","","-0.4","","81","","23","","36","","24.1","","98.88","","","","","","Cloudy"
"2016-04-08 05:00","2016","04","08","05:00","1.8","","-1.5","","79","","24","","39","","24.1","","98.95","","","","","","Snow Showers"
"2016-04-08 06:00","2016","04","08","06:00","0.5","","-0.7","","92","","21","","29","","2.0","","99.00","","","","","","Snow"
"2016-04-08 07:00","2016","04","08","07:00","0.3","","-0.9","","92","","22","","28","","2.8","","99.05","","","","","","Snow"
"2016-04-08 08:00","2016","04","08","08:00","1.0","","-1.6","","83","","23","","23","","16.1","","99.08","","","","","","Snow"
"2016-04-08 09:00","2016","04","08","09:00","1.9","","-1.7","","77","","22","","30","","24.1","","99.10","","","","","","NA"
"2016-04-08 10:00","2016","04","08","10:00","2.1","","-1.7","","76","","22","","35","","48.3","","99.17","","","","","","Cloudy"
"2016-04-08 11:00","2016","04","08","11:00","1.8","","-2.5","","73","","23","","32","","48.3","","99.25","","","","","","NA"
"2016-04-08 12:00","2016","04","08","12:00","1.6","","-1.8","","78","","23","","30","","24.1","","99.32","","","","","","NA"
"2016-04-08 13:00","2016","04","08","13:00","1.6","","-2.4","","75","","25","","32","","24.1","","99.39","","","","","","Mostly Cloudy"
"2016-04-08 14:00","2016","04","08","14:00","1.0","","-4.1","","69","","25","","30","","24.1","","99.48","","","","","","NA"
"2016-04-08 15:00","2016","04","08","15:00","0.9","","-6.0","","60","","25","","33","","24.1","","99.56","","","","","","NA"
"2016-04-08 16:00","2016","04","08","16:00","0.1","","-6.6","","61","","26","","32","","24.1","","99.67","","","","","","Cloudy"
"2016-04-08 17:00","2016","04","08","17:00","-0.9","","-6.9","","64","","26","","24","","24.1","","99.81","","","","-7","","NA"
"2016-04-08 18:00","2016","04","08","18:00","-2.0","","-7.5","","66","","26","","32","","24.1","","99.92","","","","-9","","NA"
"2016-04-08 19:00","2016","04","08","19:00","-2.8","","-6.0","","79","","25","","32","","16.1","","100.02","","","","-10","","Snow Showers"
"2016-04-08 20:00","2016","04","08","20:00","-2.6","","-6.1","","77","","26","","24","","16.1","","100.13","","","","-9","","Snow Showers"
"2016-04-08 21:00","2016","04","08","21:00","-3.0","","-6.1","","79","","28","","26","","12.9","","100.22","","","","-10","","Snow Showers"
"2016-04-08 22:00","2016","04","08","22:00","-3.1","","-6.9","","75","","26","","21","","16.1","","100.26","","","","-9","","Snow Showers"
"2016-04-08 23:00","2016","04","08","23:00","-3.2","","-6.5","","78","","26","","25","","24.1","","100.29","","","","-10","","Snow Showers"
"2016-04-09 00:00","2016","04","09","00:00","-3.4","","-7.4","","74","","27","","18","","24.1","","100.33","","","","-9","","NA"
"2016-04-09 01:00","2016","04","09","01:00","-3.7","","-8.4","","70","","28","","19","","24.1","","100.33","","","","-10","","Mainly Clear"
"2016-04-09 02:00","2016","04","09","02:00","-4.2","","-8.5","","72","","28","","20","","24.1","","100.32","","","","-11","","NA"
"2016-04-09 03:00","2016","04","09","03:00","-4.9","","-9.0","","73","","30","","17","","24.1","","100.33","","","","-11","","NA"
"2016-04-09 04:00","2016","04","09","04:00","-5.4","","-9.5","","73","","29","","12","","24.1","","100.37","","","","-10","","Clear"
"2016-04-09 05:00","2016","04","09","05:00","-5.8","","-10.1","","72","","31","","12","","24.1","","100.41","","","","-11","","NA"
"2016-04-09 06:00","2016","04","09","06:00","-5.7","","-10.2","","71","","31","","12","","24.1","","100.51","","","","-11","","NA"
"2016-04-09 07:00","2016","04","09","07:00","-5.1","","-10.5","","66","","31","","13","","48.3","","100.63","","","","-10","","Clear"
"2016-04-09 08:00","2016","04","09","08:00","-4.3","","-10.7","","61","","31","","14","","48.3","","100.68","","","","-9","","NA"
"2016-04-09 09:00","2016","04","09","09:00","-3.9","","-11.5","","56","","27","","7","","48.3","","100.75","","","","-7","","NA"
"2016-04-09 10:00","2016","04","09","10:00","-2.7","","-10.3","","56","","28","","14","","48.3","","100.80","","","","-8","","Clear"
"2016-04-09 11:00","2016","04","09","11:00","-1.8","","-10.2","","53","","28","","20","","48.3","","100.82","","","","-8","","NA"
"2016-04-09 12:00","2016","04","09","12:00","-0.9","","-9.8","","51","","28","","18","","48.3","","100.82","","","","-6","","NA"
"2016-04-09 13:00","2016","04","09","13:00","-0.1","","-9.1","","51","","24","","14","","48.3","","100.82","","","","-4","","Mainly Clear"
"2016-04-09 14:00","2016","04","09","14:00","0.0","","-9.8","","48","","28","","12","","48.3","","100.81","","","","-4","","NA"
"2016-04-09 15:00","2016","04","09","15:00","1.4","","-7.9","","50","","29","","21","","48.3","","100.78","","","","","","NA"
"2016-04-09 16:00","2016","04","09","16:00","1.0","","-10.0","","44","","28","","11","","48.3","","100.85","","","","","","Mostly Cloudy"
"2016-04-09 17:00","2016","04","09","17:00","1.3","","-10.0","","43","","32","","16","","24.1","","100.99","","","","","","NA"
"2016-04-09 18:00","2016","04","09","18:00","0.9","","-9.8","","45","","34","","15","","24.1","","101.10","","","","","","NA"
"2016-04-09 19:00","2016","04","09","19:00","0.1","","-10.2","","46","","34","","21","","24.1","","101.20","","","","","","Mainly Clear"
"2016-04-09 20:00","2016","04","09","20:00","-1.4","","-9.8","","53","","35","","19","","24.1","","101.35","","","","-7","","NA"
"2016-04-09 21:00","2016","04","09","21:00","-3.3","","-11.1","","55","","35","","27","","24.1","","101.46","","","","-10","","NA"
"2016-04-09 22:00","2016","04","09","22:00","-4.0","","-12.2","","53","","34","","19","","24.1","","101.54","","","","-10","","Mainly Clear"
"2016-04-09 23:00","2016","04","09","23:00","-4.6","","-12.6","","54","","34","","17","","24.1","","101.60","","","","-10","","NA"
"2016-04-10 00:00","2016","04","10","00:00","-4.9","","-12.6","","55","","33","","13","","24.1","","101.66","","","","-10","","NA"
"2016-04-10 01:00","2016","04","10","01:00","-5.3","","-13.0","","55","","32","","9","","24.1","","101.70","","","","-9","","Clear"
"2016-04-10 02:00","2016","04","10","02:00","-5.9","","-13.1","","57","","31","","10","","24.1","","101.75","","","","-10","","NA"
"2016-04-10 03:00","2016","04","10","03:00","-6.5","","-12.4","","63","","28","","8","","24.1","","101.80","","","","-10","","NA"
"2016-04-10 04:00","2016","04","10","04:00","-6.7","","-12.4","","64","","29","","9","","24.1","","101.86","","","","-11","","Clear"
"2016-04-10 05:00","2016","04","10","05:00","-6.6","","-12.1","","65","","30","","10","","24.1","","101.96","","","","-11","","NA"
"2016-04-10 06:00","2016","04","10","06:00","-6.1","","-11.9","","64","","32","","10","","48.3","","102.03","","","","-11","","NA"
"2016-04-10 07:00","2016","04","10","07:00","-5.3","","-12.3","","58","","31","","13","","48.3","","102.12","","","","-10","","Clear"
"2016-04-10 08:00","2016","04","10","08:00","-4.5","","-15.3","","43","","31","","14","","48.3","","102.17","","","","-10","","NA"
"2016-04-10 09:00","2016","04","10","09:00","-3.5","","-15.3","","40","","27","","13","","48.3","","102.18","","","","-8","","NA"
"2016-04-10 10:00","2016","04","10","10:00","-2.8","","-15.0","","39","","27","","13","","48.3","","102.18","","","","-7","","Clear"
"2016-04-10 11:00","2016","04","10","11:00","-1.8","","-14.4","","38","","24","","10","","48.3","","102.16","","","","-5","","NA"
"2016-04-10 12:00","2016","04","10","12:00","-0.7","","-14.4","","35","","27","","17","","48.3","","102.12","","","","-6","","NA"
"2016-04-10 13:00","2016","04","10","13:00","0.0","","-13.8","","35","","26","","23","","48.3","","102.11","","","","-6","","Mainly Clear"
"2016-04-10 14:00","2016","04","10","14:00","0.9","","-11.9","","38","","28","","22","","48.3","","102.06","","","","","","NA"
"2016-04-10 15:00","2016","04","10","15:00","1.3","","-10.3","","42","","19","","17","","48.3","","101.99","","","","","","NA"
"2016-04-10 16:00","2016","04","10","16:00","1.6","","-10.0","","42","","20","","20","","48.3","","101.96","","","","","","Mainly Clear"
"2016-04-10 17:00","2016","04","10","17:00","1.9","","-9.7","","42","","23","","14","","48.3","","101.94","","","","","","NA"
"2016-04-10 18:00","2016","04","10","18:00","1.1","","-11.1","","40","","26","","13","","48.3","","101.93","","","","","","NA"
"2016-04-10 19:00","2016","04","10","19:00","0.3","","-10.6","","44","","28","","6","","24.1","","101.92","","","","","","Mostly Cloudy"
"2016-04-10 20:00","2016","04","10","20:00","-0.2","","-9.7","","49","","8","","4","","24.1","","101.92","","","","-1","","NA"
"2016-04-10 21:00","2016","04","10","21:00","0.5","","-9.0","","49","","14","","7","","24.1","","101.91","","","","","","NA"
"2016-04-10 22:00","2016","04","10","22:00","0.1","","-8.9","","51","","13","","8","","24.1","","101.89","","","","","","Mostly Cloudy"
"2016-04-10 23:00","2016","04","10","23:00","-0.1","","-8.3","","54","","14","","8","","24.1","","101.86","","","","-3","","NA"
"2016-04-11 00:00","2016","04","11","00:00","0.2","","-8.3","","53","","14","","14","","24.1","","101.85","","","","","","NA"
"2016-04-11 01:00","2016","04","11","01:00","0.1","","-8.1","","54","","13","","13","","24.1","","101.78","","","","","","Cloudy"
"2016-04-11 02:00","2016","04","11","02:00","0.3","","-7.7","","55","","14","","17","","8.1","","101.70","","","","","","Snow"
"2016-04-11 03:00","2016","04","11","03:00","-1.2","","-3.6","","84","","12","","14","","8.1","","101.60","","","","-6","","Snow"
"2016-04-11 04:00","2016","04","11","04:00","-1.4","","-3.0","","89","","10","","13","","2.4","","101.46","","","","-6","","Snow"
"2016-04-11 05:00","2016","04","11","05:00","-0.8","","-1.9","","92","","11","","18","","2.4","","101.33","","","","-6","","Snow"
"2016-04-11 06:00","2016","04","11","06:00","0.2","","-0.8","","93","","11","","20","","2.8","","101.23","","","","","","Snow,Fog"
"2016-04-11 07:00","2016","04","11","07:00","0.9","","-0.3","","92","","13","","24","","12.9","","101.09","","","","","","Snow,Ice Pellets"
"2016-04-11 08:00","2016","04","11","08:00","2.3","","-1.0","","79","","12","","21","","24.1","","100.94","","","","","","Rain"
"2016-04-11 09:00","2016","04","11","09:00","3.0","","-0.8","","76","","14","","30","","19.3","","100.90","","","","","","Rain"
"2016-04-11 10:00","2016","04","11","10:00","2.9","","-0.6","","78","","14","","24","","19.3","","100.78","","","","","","Rain"
"2016-04-11 11:00","2016","04","11","11:00","3.2","","0.9","","85","","15","","25","","8.1","","100.71","","","","","","Rain"
"2016-04-11 12:00","2016","04","11","12:00","3.7","","2.1","","89","","15","","26","","16.1","","100.68","","","","","","Rain"
"2016-04-11 13:00","2016","04","11","13:00","4.5","","2.5","","87","","15","","27","","24.1","","100.64","","","","","","Rain"
"2016-04-11 14:00","2016","04","11","14:00","4.5","","3.3","","92","","15","","27","","4.8","","100.64","","","","","","Rain"
"2016-04-11 15:00","2016","04","11","15:00","5.1","","4.1","","93","","15","","26","","19.3","","100.61","","","","","","Rain"
"2016-04-11 16:00","2016","04","11","16:00","5.6","","4.6","","93","","15","","23","","16.1","","100.60","","","","","","Rain"
"2016-04-11 17:00","2016","04","11","17:00","5.8","","4.9","","94","","15","","24","","19.3","","100.59","","","","","","Rain"
"2016-04-11 18:00","2016","04","11","18:00","5.9","","4.9","","93","","15","","21","","19.3","","100.63","","","","","","Rain"
"2016-04-11 19:00","2016","04","11","19:00","6.1","","5.1","","93","","15","","22","","24.1","","100.62","","","","","","Rain"
"2016-04-11 20:00","2016","04","11","20:00","6.2","","5.3","","94","","14","","18","","16.1","","100.61","","","","","","Rain"
"2016-04-11 21:00","2016","04","11","21:00","6.4","","5.7","","95","","14","","18","","24.1","","100.56","","","","","","Rain"
"2016-04-11 22:00","2016","04","11","22:00","6.7","","5.8","","94","","15","","17","","9.7","","100.51","","","","","","Rain"
"2016-04-11 23:00","2016","04","11","23:00","6.8","","5.9","","94","","14","","17","","12.9","","100.44","","","","","","Rain"
"2016-04-12 00:00","2016","04","12","00:00","7.2","","6.2","","93","","16","","22","","16.1","","100.40","","","","","","Rain"
"2016-04-12 01:00","2016","04","12","01:00","7.3","","6.4","","94","","14","","20","","19.3","","100.32","","","","","","Rain"
"2016-04-12 02:00","2016","04","12","02:00","7.5","","6.3","","92","","15","","21","","24.1","","100.24","","","","","","NA"
"2016-04-12 03:00","2016","04","12","03:00","8.1","","6.4","","89","","21","","16","","24.1","","100.30","","","","","","NA"
"2016-04-12 04:00","2016","04","12","04:00","6.0","","4.3","","89","","28","","19","","24.1","","100.43","","","","","","Rain"
"2016-04-12 05:00","2016","04","12","05:00","4.2","","2.9","","91","","23","","27","","19.3","","100.65","","","","","","Rain"
"2016-04-12 06:00","2016","04","12","06:00","3.8","","2.2","","89","","24","","28","","24.1","","100.75","","","","","","NA"
"2016-04-12 07:00","2016","04","12","07:00","3.6","","1.6","","87","","25","","26","","24.1","","100.89","","","","","","Mostly Cloudy"
"2016-04-12 08:00","2016","04","12","08:00","3.4","","1.0","","84","","26","","27","","24.1","","100.94","","","","","","NA"
"2016-04-12 09:00","2016","04","12","09:00","4.9","","0.5","","73","","27","","28","","24.1","","101.03","","","","","","NA"
"2016-04-12 10:00","2016","04","12","10:00","5.9","","0.5","","68","","25","","32","","24.1","","101.11","","","","","","Mostly Cloudy"
"2016-04-12 11:00","2016","04","12","11:00","5.5","","-1.0","","63","","27","","33","","48.3","","101.18","","","","","","NA"
"2016-04-12 12:00","2016","04","12","12:00","6.1","","-1.1","","60","","27","","31","","48.3","","101.25","","","","","","NA"
"2016-04-12 13:00","2016","04","12","13:00","5.8","","-2.1","","57","","26","","28","","48.3","","101.33","","","","","","Mostly Cloudy"
"2016-04-12 14:00","2016","04","12","14:00","7.2","","-0.5","","58","","24","","23","","24.1","","101.37","","","","","","NA"
"2016-04-12 15:00","2016","04","12","15:00","6.5","","-1.9","","55","","26","","27","","48.3","","101.44","","","","","","NA"
"2016-04-12 16:00","2016","04","12","16:00","6.5","","-1.6","","56","","26","","23","","24.1","","101.51","","","","","","Mostly Cloudy"
"2016-04-12 17:00","2016","04","12","17:00","6.2","","-2.2","","55","","26","","21","","24.1","","101.58","","","","","","NA"
"2016-04-12 18:00","2016","04","12","18:00","5.8","","-2.1","","57","","26","","23","","24.1","","101.68","","","","","","NA"
"2016-04-12 19:00","2016","04","12","19:00","4.8","","-2.1","","61","","28","","17","","24.1","","101.76","","","","","","Mainly Clear"
"2016-04-12 20:00","2016","04","12","20:00","3.5","","-2.7","","64","","30","","14","","24.1","","101.87","","","","","","NA"
"2016-04-12 21:00","2016","04","12","21:00","2.9","","-3.0","","65","","30","","17","","24.1","","101.97","","","","","","NA"
"2016-04-12 22:00","2016","04","12","22:00","2.2","","-3.7","","65","","28","","16","","24.1","","102.05","","","","","","Mainly Clear"
"2016-04-12 23:00","2016","04","12","23:00","1.4","","-3.9","","68","","29","","15","","24.1","","102.13","","","","","","NA"
"2016-04-13 00:00","2016","04","13","00:00","0.7","","-4.7","","67","","28","","12","","24.1","","102.21","","","","","","NA"
"2016-04-13 01:00","2016","04","13","01:00","0.1","","-5.5","","66","","29","","16","","24.1","","102.29","","","","","","Clear"
"2016-04-13 02:00","2016","04","13","02:00","-0.5","","-7.1","","61","","28","","16","","24.1","","102.38","","","","-5","","NA"
"2016-04-13 03:00","2016","04","13","03:00","-0.8","","-7.6","","60","","29","","13","","24.1","","102.47","","","","-5","","NA"
"2016-04-13 04:00","2016","04","13","04:00","-1.2","","-7.6","","62","","30","","12","","24.1","","102.54","","","","-5","","Clear"
"2016-04-13 05:00","2016","04","13","05:00","-1.6","","-7.4","","65","","30","","13","","48.3","","102.64","","","","-6","","NA"
"2016-04-13 06:00","2016","04","13","06:00","-1.4","","-7.2","","65","","31","","9","","48.3","","102.76","","","","-5","","NA"
"2016-04-13 07:00","2016","04","13","07:00","-0.3","","-7.2","","60","","34","","13","","48.3","","102.85","","","","-4","","Clear"
"2016-04-13 08:00","2016","04","13","08:00","0.5","","-7.5","","55","","1","","10","","48.3","","102.89","","","","","","NA"
"2016-04-13 09:00","2016","04","13","09:00","1.8","","-7.3","","51","","32","","9","","48.3","","102.89","","","","","","NA"
"2016-04-13 10:00","2016","04","13","10:00","2.5","","-7.2","","49","","24","","5","","48.3","","102.86","","","","","","Mostly Cloudy"
"2016-04-13 11:00","2016","04","13","11:00","3.2","","-6.0","","51","","21","","21","","48.3","","102.82","","","","","","NA"
"2016-04-13 12:00","2016","04","13","12:00","4.0","","-6.3","","47","","18","","16","","48.3","","102.73","","","","","","NA"
"2016-04-13 13:00","2016","04","13","13:00","4.9","","-6.1","","45","","20","","16","","48.3","","102.69","","","","","","Mainly Clear"
"2016-04-13 14:00","2016","04","13","14:00","5.3","","-6.3","","43","","20","","14","","48.3","","102.65","","","","","","NA"
"2016-04-13 15:00","2016","04","13","15:00","5.8","","-6.8","","40","","18","","7","","48.3","","102.56","","","","","","NA"
"2016-04-13 16:00","2016","04","13","16:00","6.0","","-6.3","","41","","19","","17","","56.3","","102.53","","","","","","Mainly Clear"
"2016-04-13 17:00","2016","04","13","17:00","5.9","","-6.4","","41","","18","","13","","48.3","","102.55","","","","","","NA"
"2016-04-13 18:00","2016","04","13","18:00","4.7","","-6.5","","44","","19","","14","","48.3","","102.56","","","","","","NA"
"2016-04-13 19:00","2016","04","13","19:00","4.0","","-6.0","","48","","21","","10","","24.1","","102.61","","","","","","Mostly Cloudy"
"2016-04-13 20:00","2016","04","13","20:00","4.2","","-5.1","","51","","22","","7","","24.1","","102.64","","","","","","NA"
"2016-04-13 21:00","2016","04","13","21:00","3.4","","-4.3","","57","","21","","8","","24.1","","102.62","","","","","","NA"
"2016-04-13 22:00","2016","04","13","22:00","2.1","","-3.6","","66","","22","","6","","24.1","","102.60","","","","","","Clear"
"2016-04-13 23:00","2016","04","13","23:00","1.3","","-5.2","","62","","26","","11","","24.1","","102.61","","","","","","NA"
"2016-04-14 00:00","2016","04","14","00:00","0.8","","-4.6","","67","","33","","4","","24.1","","102.58","","","","","","NA"
"2016-04-14 01:00","2016","04","14","01:00","0.2","","-6.9","","59","","36","","10","","24.1","","102.58","","","","","","Clear"
"2016-04-14 02:00","2016","04","14","02:00","-0.4","","-5.2","","70","","1","","12","","24.1","","102.58","","","","-4","","NA"
"2016-04-14 03:00","2016","04","14","03:00","-1.6","","-4.9","","78","","3","","12","","24.1","","102.62","","","","-6","","NA"
"2016-04-14 04:00","2016","04","14","04:00","-1.5","","-4.7","","79","","3","","16","","24.1","","102.66","","","","-6","","Clear"
"2016-04-14 05:00","2016","04","14","05:00","-1.9","","-5.9","","74","","3","","14","","48.3","","102.74","","","","-7","","NA"
"2016-04-14 06:00","2016","04","14","06:00","-0.6","","-6.6","","64","","3","","17","","48.3","","102.81","","","","-6","","NA"
"2016-04-14 07:00","2016","04","14","07:00","1.4","","-6.0","","58","","4","","13","","48.3","","102.85","","","","","","Clear"
"2016-04-14 08:00","2016","04","14","08:00","3.3","","-6.2","","50","","2","","14","","48.3","","102.87","","","","","","NA"
"2016-04-14 09:00","2016","04","14","09:00","5.1","","-6.5","","43","","3","","14","","48.3","","102.90","","","","","","NA"
"2016-04-14 10:00","2016","04","14","10:00","6.0","","-6.9","","39","","4","","10","","48.3","","102.91","","","","","","Clear"
"2016-04-14 11:00","2016","04","14","11:00","6.5","","-7.5","","36","","6","","12","","48.3","","102.86","","","","","","NA"
"2016-04-14 12:00","2016","04","14","12:00","7.2","","-8.0","","33","","1","","9","","48.3","","102.83","","","","","","NA"
"2016-04-14 13:00","2016","04","14","13:00","8.1","","-6.1","","36","","4","","14","","48.3","","102.78","","","","","","Clear"
"2016-04-14 14:00","2016","04","14","14:00","9.1","","-6.3","","33","","36","","17","","48.3","","102.70","","","","","","NA"
"2016-04-14 15:00","2016","04","14","15:00","9.0","","-8.1","","29","","2","","9","","48.3","","102.64","","","","","","NA"
"2016-04-14 16:00","2016","04","14","16:00","9.1","","-8.5","","28","","4","","14","","48.3","","102.63","","","","","","Mainly Clear"
"2016-04-14 17:00","2016","04","14","17:00","8.8","","-10.7","","24","","3","","20","","48.3","","102.61","","","","","","NA"
"2016-04-14 18:00","2016","04","14","18:00","7.7","","-9.3","","29","","5","","17","","48.3","","102.62","","","","","","NA"
"2016-04-14 19:00","2016","04","14","19:00","6.1","","-8.6","","34","","5","","11","","24.1","","102.63","","","","","","Mainly Clear"
"2016-04-14 20:00","2016","04","14","20:00","5.8","","-8.9","","34","","6","","10","","24.1","","102.69","","","","","","NA"
"2016-04-14 21:00","2016","04","14","21:00","5.0","","-6.9","","42","","2","","7","","24.1","","102.73","","","","","","NA"
"2016-04-14 22:00","2016","04","14","22:00","4.5","","-8.0","","40","","4","","9","","24.1","","102.72","","","","","","Clear"
"2016-04-14 23:00","2016","04","14","23:00","2.3","","-7.1","","50","","1","","8","","24.1","","102.76","","","","","","NA"
"2016-04-15 00:00","2016","04","15","00:00","2.6","","-7.1","","49","","36","","7","","24.1","","102.80","","","","","","NA"
"2016-04-15 01:00","2016","04","15","01:00","1.0","","-7.1","","55","","1","","12","","24.1","","102.79","","","","","","Clear"
"2016-04-15 02:00","2016","04","15","02:00","0.8","","-6.8","","57","","2","","14","","24.1","","102.78","","","","","","NA"
"2016-04-15 03:00","2016","04","15","03:00","0.5","","-6.0","","62","","2","","17","","24.1","","102.78","","","","","","NA"
"2016-04-15 04:00","2016","04","15","04:00","0.4","","-5.2","","66","","2","","21","","24.1","","102.82","","","","","","Mainly Clear"
"2016-04-15 05:00","2016","04","15","05:00","-0.3","","-5.5","","68","","2","","18","","48.3","","102.85","","","","-5","","NA"
"2016-04-15 06:00","2016","04","15","06:00","0.2","","-5.8","","64","","2","","21","","48.3","","102.93","","","","","","NA"
"2016-04-15 07:00","2016","04","15","07:00","2.2","","-5.2","","58","","3","","21","","48.3","","102.99","","","","","","Clear"
"2016-04-15 08:00","2016","04","15","08:00","4.7","","-4.3","","52","","2","","18","","48.3","","103.03","","","","","","NA"
"2016-04-15 09:00","2016","04","15","09:00","7.3","","-3.6","","46","","1","","16","","48.3","","103.05","","","","","","NA"
"2016-04-15 10:00","2016","04","15","10:00","9.1","","-5.2","","36","","5","","18","","48.3","","103.03","","","","","","Clear"
"2016-04-15 11:00","2016","04","15","11:00","10.5","","-5.9","","31","","5","","16","","48.3","","103.01","","","","","","NA"
"2016-04-15 12:00","2016","04","15","12:00","11.4","","-5.5","","30","","7","","14","","48.3","","102.96","","","","","","NA"
"2016-04-15 13:00","2016","04","15","13:00","11.9","","-5.6","","29","","10","","17","","48.3","","102.93","","","","","","Clear"
"2016-04-15 14:00","2016","04","15","14:00","12.8","","-3.0","","33","","3","","12","","48.3","","102.89","","","","","","NA"
"2016-04-15 15:00","2016","04","15","15:00","13.1","","-4.0","","30","","3","","15","","48.3","","102.86","","","","","","NA"
"2016-04-15 16:00","2016","04","15","16:00","12.9","","-4.2","","30","","8","","14","","48.3","","102.79","","","","","","Mainly Clear"
"2016-04-15 17:00","2016","04","15","17:00","12.5","","-5.0","","29","","6","","15","","48.3","","102.81","","","","","","NA"
"2016-04-15 18:00","2016","04","15","18:00","11.1","","-3.0","","37","","5","","17","","48.3","","102.83","","","","","","NA"
"2016-04-15 19:00","2016","04","15","19:00","9.1","","-2.8","","43","","4","","21","","24.1","","102.86","","","","","","Mainly Clear"
"2016-04-15 20:00","2016","04","15","20:00","8.1","","-3.4","","44","","5","","14","","24.1","","102.90","","","","","","NA"
"2016-04-15 21:00","2016","04","15","21:00","7.7","","-4.4","","42","","4","","13","","24.1","","102.92","","","","","","NA"
"2016-04-15 22:00","2016","04","15","22:00","7.4","","-4.1","","44","","5","","12","","24.1","","102.90","","","","","","Clear"
"2016-04-15 23:00","2016","04","15","23:00","6.9","","-4.5","","44","","4","","10","","24.1","","102.89","","","","","","NA"
"2016-04-16 00:00","2016","04","16","00:00","5.1","","-3.4","","54","","3","","18","","24.1","","102.94","","","","","","NA"
"2016-04-16 01:00","2016","04","16","01:00","3.8","","-3.0","","61","","2","","16","","24.1","","102.91","","","","","","Clear"
"2016-04-16 02:00","2016","04","16","02:00","2.9","","-3.5","","63","","2","","15","","24.1","","102.92","","","","","","NA"
"2016-04-16 03:00","2016","04","16","03:00","2.7","","-3.2","","65","","2","","16","","24.1","","102.93","","","","","","NA"
"2016-04-16 04:00","2016","04","16","04:00","1.9","","-3.0","","70","","2","","19","","24.1","","102.97","","","","","","Clear"
"2016-04-16 05:00","2016","04","16","05:00","1.5","","-3.8","","68","","2","","22","","48.3","","103.04","","","","","","NA"
"2016-04-16 06:00","2016","04","16","06:00","2.1","","-3.8","","65","","2","","19","","48.3","","103.11","","","","","","NA"
"2016-04-16 07:00","2016","04","16","07:00","3.8","","-4.4","","55","","3","","20","","48.3","","103.13","","","","","","Mainly Clear"
"2016-04-16 08:00","2016","04","16","08:00","6.0","","-3.9","","49","","3","","18","","48.3","","103.16","","","","","","NA"
"2016-04-16 09:00","2016","04","16","09:00","7.9","","-4.2","","42","","3","","19","","48.3","","103.18","","","","","","NA"
"2016-04-16 10:00","2016","04","16","10:00","9.9","","-4.5","","36","","2","","14","","48.3","","103.13","","","","","","Mainly Clear"
"2016-04-16 11:00","2016","04","16","11:00","11.5","","-6.4","","28","","4","","20","","48.3","","103.10","","","","","","NA"
"2016-04-16 12:00","2016","04","16","12:00","12.5","","-6.0","","27","","4","","14","","48.3","","103.04","","","","","","NA"
"2016-04-16 13:00","2016","04","16","13:00","13.2","","-6.9","","24","","36","","16","","48.3","","102.99","","","","","","Mostly Cloudy"
"2016-04-16 14:00","2016","04","16","14:00","14.1","","-4.1","","28","","2","","18","","48.3","","102.93","","","","","","NA"
"2016-04-16 15:00","2016","04","16","15:00","14.5","","-5.8","","24","","3","","15","","48.3","","102.89","","","","","","NA"
"2016-04-16 16:00","2016","04","16","16:00","14.5","","-8.2","","20","","1","","14","","48.3","","102.85","","","","","","Mostly Cloudy"
"2016-04-16 17:00","2016","04","16","17:00","14.3","","-9.0","","19","","1","","14","","48.3","","102.82","","","","","","NA"
"2016-04-16 18:00","2016","04","16","18:00","12.7","","-6.8","","25","","4","","14","","48.3","","102.80","","","","","","NA"
"2016-04-16 19:00","2016","04","16","19:00","10.5","","-6.3","","30","","4","","13","","24.1","","102.77","","","","","","Mainly Clear"
"2016-04-16 20:00","2016","04","16","20:00","10.9","","-7.9","","26","","4","","10","","24.1","","102.77","","","","","","NA"
"2016-04-16 21:00","2016","04","16","21:00","8.7","","-5.2","","37","","5","","6","","24.1","","102.75","","","","","","NA"
"2016-04-16 22:00","2016","04","16","22:00","8.3","","-5.5","","37","","1","","3","","24.1","","102.72","","","","","","Mainly Clear"
"2016-04-16 23:00","2016","04","16","23:00","6.8","","-3.2","","49","","35","","7","","24.1","","102.71","","","","","","NA"
"2016-04-17 00:00","2016","04","17","00:00","6.5","","-4.3","","46","","36","","5","","24.1","","102.72","","","","","","NA"
"2016-04-17 01:00","2016","04","17","01:00","6.9","","-4.8","","43","","36","","7","","24.1","","102.70","","","","","","Clear"
"2016-04-17 02:00","2016","04","17","02:00","5.0","","-3.8","","53","","35","","7","","24.1","","102.67","","","","","","NA"
"2016-04-17 03:00","2016","04","17","03:00","4.4","","-3.9","","55","","36","","2","","24.1","","102.67","","","","","","NA"
"2016-04-17 04:00","2016","04","17","04:00","3.8","","-2.6","","63","","33","","3","","24.1","","102.65","","","","","","Clear"
"2016-04-17 05:00","2016","04","17","05:00","2.9","","-2.4","","68","","36","","2","","48.3","","102.68","","","","","","NA"
"2016-04-17 06:00","2016","04","17","06:00","3.9","","-2.1","","65","","34","","8","","48.3","","102.73","","","","","","NA"
"2016-04-17 07:00","2016","04","17","07:00","6.9","","-1.8","","54","","36","","3","","48.3","","102.71","","","","","","Mainly Clear"
"2016-04-17 08:00","2016","04","17","08:00","10.0","","-1.4","","45","","24","","4","","48.3","","102.72","","","","","","NA"
"2016-04-17 09:00","2016","04","17","09:00","12.4","","-1.1","","39","","20","","8","","48.3","","102.69","","","","","","NA"
"2016-04-17 10:00","2016","04","17","10:00","14.1","","-2.3","","32","","18","","9","","48.3","","102.66","","","","","","Mainly Clear"
"2016-04-17 11:00","2016","04","17","11:00","15.9","","-3.0","","27","","18","","12","","48.3","","102.57","","","","","","NA"
"2016-04-17 12:00","2016","04","17","12:00","17.8","","-2.9","","24","","19","","14","","48.3","","102.47","","","","","","NA"
"2016-04-17 13:00","2016","04","17","13:00","19.5","","-2.1","","23","","20","","15","","48.3","","102.38","","","","","","Mostly Cloudy"
"2016-04-17 14:00","2016","04","17","14:00","20.3","","-1.4","","23","","20","","17","","48.3","","102.30","","","","","","NA"
"2016-04-17 15:00","2016","04","17","15:00","20.6","","-0.5","","24","","19","","16","","48.3","","102.21","","","","","","NA"
"2016-04-17 16:00","2016","04","17","16:00","21.9","","-1.9","","20","","28","","20","","48.3","","102.16","","","","","","Mainly Clear"
"2016-04-17 17:00","2016","04","17","17:00","21.7","","-1.4","","21","","25","","18","","48.3","","102.12","","","","","","NA"
"2016-04-17 18:00","2016","04","17","18:00","20.1","","-1.0","","24","","25","","16","","48.3","","102.10","","","","","","NA"
"2016-04-17 19:00","2016","04","17","19:00","17.8","","-1.3","","27","","25","","9","","24.1","","102.08","","","","","","Mainly Clear"
"2016-04-17 20:00","2016","04","17","20:00","15.7","","-0.9","","32","","26","","11","","24.1","","102.09","","","","","","NA"
"2016-04-17 21:00","2016","04","17","21:00","14.7","","-0.1","","36","","23","","6","","24.1","","102.08","","","","","","NA"
"2016-04-17 22:00","2016","04","17","22:00","11.9","","1.9","","50","","15","","4","","24.1","","102.06","","","","","","Mainly Clear"
"2016-04-17 23:00","2016","04","17","23:00","12.9","","0.7","","43","","4","","17","","24.1","","102.10","","","","","","NA"
"2016-04-18 00:00","2016","04","18","00:00","11.8","","1.2","","48","","2","","12","","24.1","","102.13","","","","","","NA"
"2016-04-18 01:00","2016","04","18","01:00","11.2","","1.8","","52","","1","","10","","24.1","","102.12","","","","","","Mostly Cloudy"
"2016-04-18 02:00","2016","04","18","02:00","10.6","","2.2","","56","","2","","14","","24.1","","102.13","","","","","","NA"
"2016-04-18 03:00","2016","04","18","03:00","9.3","","0.8","","55","","2","","14","","24.1","","102.19","","","","","","NA"
"2016-04-18 04:00","2016","04","18","04:00","8.7","","-0.6","","52","","3","","19","","24.1","","102.22","","","","","","Mainly Clear"
"2016-04-18 05:00","2016","04","18","05:00","9.0","","-4.6","","38","","3","","28","","48.3","","102.27","","","","","","NA"
"2016-04-18 06:00","2016","04","18","06:00","8.5","","-4.3","","40","","3","","24","","48.3","","102.31","","","","","","NA"
"2016-04-18 07:00","2016","04","18","07:00","8.2","","-4.9","","39","","3","","27","","48.3","","102.32","","","","","","Mostly Cloudy"
"2016-04-18 08:00","2016","04","18","08:00","8.1","","-4.0","","42","","2","","22","","48.3","","102.37","","","","","","NA"
"2016-04-18 09:00","2016","04","18","09:00","8.6","","-3.0","","44","","4","","25","","48.3","","102.35","","","","","","NA"
"2016-04-18 10:00","2016","04","18","10:00","8.4","","-2.8","","45","","4","","23","","48.3","","102.34","","","","","","Cloudy"
"2016-04-18 11:00","2016","04","18","11:00","8.3","","-2.6","","46","","3","","19","","48.3","","102.29","","","","","","NA"
"2016-04-18 12:00","2016","04","18","12:00","8.3","","-2.1","","48","","5","","11","","48.3","","102.24","","","","","","NA"
"2016-04-18 13:00","2016","04","18","13:00","7.9","","0.6","","60","","1","","14","","48.3","","102.17","","","","","","Rain Showers"
"2016-04-18 14:00","2016","04","18","14:00","8.3","","1.9","","64","","2","","15","","24.1","","102.08","","","","","","Rain"
"2016-04-18 15:00","2016","04","18","15:00","7.7","","3.6","","75","","2","","13","","24.1","","102.01","","","","","","Rain"
"2016-04-18 16:00","2016","04","18","16:00","6.8","","4.0","","82","","3","","14","","16.1","","101.96","","","","","","Rain"
"2016-04-18 17:00","2016","04","18","17:00","6.5","","4.7","","88","","3","","10","","12.9","","101.94","","","","","","Rain"
"2016-04-18 18:00","2016","04","18","18:00","6.3","","5.0","","91","","2","","16","","12.9","","101.90","","","","","","Rain"
"2016-04-18 19:00","2016","04","18","19:00","5.1","","3.3","","88","","3","","15","","16.1","","101.86","","","","","","Rain"
"2016-04-18 20:00","2016","04","18","20:00","5.0","","3.2","","88","","3","","16","","19.3","","101.91","","","","","","Rain"
"2016-04-18 21:00","2016","04","18","21:00","5.0","","3.8","","92","","3","","16","","9.7","","101.74","","","","","","Rain,Fog"
"2016-04-18 22:00","2016","04","18","22:00","4.8","","3.8","","93","","2","","16","","9.7","","101.67","","","","","","Rain,Fog"
"2016-04-18 23:00","2016","04","18","23:00","4.9","","3.9","","93","","36","","12","","11.3","","101.66","","","","","","Rain"
"2016-04-19 00:00","2016","04","19","00:00","4.9","","3.6","","91","","36","","13","","16.1","","101.62","","","","","","Rain"
"2016-04-19 01:00","2016","04","19","01:00","4.9","","3.6","","91","","34","","12","","19.3","","101.59","","","","","","Rain"
"2016-04-19 02:00","2016","04","19","02:00","4.8","","3.6","","92","","33","","12","","24.1","","101.51","","","","","","NA"
"2016-04-19 03:00","2016","04","19","03:00","4.3","","3.0","","91","","31","","10","","24.1","","101.53","","","","","","NA"
"2016-04-19 04:00","2016","04","19","04:00","3.0","","2.0","","93","","30","","10","","24.1","","101.53","","","","","","Clear"
"2016-04-19 05:00","2016","04","19","05:00","2.6","","1.4","","92","","30","","12","","48.3","","101.57","","","","","","NA"
"2016-04-19 06:00","2016","04","19","06:00","3.2","","1.6","","89","","","","0","","48.3","","101.60","","","","","","NA"
"2016-04-19 07:00","2016","04","19","07:00","5.1","","1.2","","76","","30","","9","","48.3","","101.68","","","","","","Mainly Clear"
"2016-04-19 08:00","2016","04","19","08:00","7.0","","0.0","","61","","34","","12","","48.3","","101.70","","","","","","NA"
"2016-04-19 09:00","2016","04","19","09:00","9.1","","0.1","","53","","23","","5","","48.3","","101.63","","","","","","NA"
"2016-04-19 10:00","2016","04","19","10:00","10.0","","-4.4","","36","","32","","28","","48.3","","101.69","","","","","","Mainly Clear"
"2016-04-19 11:00","2016","04","19","11:00","11.0","","-4.2","","34","","30","","20","","48.3","","101.66","","","","","","NA"
"2016-04-19 12:00","2016","04","19","12:00","12.2","","-2.4","","36","","28","","18","","48.3","","101.58","","","","","","NA"
"2016-04-19 13:00","2016","04","19","13:00","13.0","","-3.3","","32","","29","","25","","48.3","","101.54","","","","","","Mainly Clear"
"2016-04-19 14:00","2016","04","19","14:00","13.7","","-1.8","","34","","29","","28","","48.3","","101.49","","","","","","NA"
"2016-04-19 15:00","2016","04","19","15:00","13.7","","-3.1","","31","","28","","22","","48.3","","101.45","","","","","","NA"
"2016-04-19 16:00","2016","04","19","16:00","13.8","","-3.9","","29","","31","","32","","48.3","","101.47","","","","","","Mainly Clear"
"2016-04-19 17:00","2016","04","19","17:00","13.3","","-4.3","","29","","30","","29","","48.3","","101.48","","","","","","NA"
"2016-04-19 18:00","2016","04","19","18:00","12.7","","-3.5","","32","","30","","23","","48.3","","101.51","","","","","","NA"
"2016-04-19 19:00","2016","04","19","19:00","11.4","","-2.4","","38","","30","","26","","48.3","","101.56","","","","","","Mainly Clear"
"2016-04-19 20:00","2016","04","19","20:00","10.5","","-3.6","","37","","31","","21","","24.1","","101.65","","","","","","NA"
"2016-04-19 21:00","2016","04","19","21:00","9.5","","-4.1","","38","","30","","13","","24.1","","101.70","","","","","","NA"
"2016-04-19 22:00","2016","04","19","22:00","6.9","","-3.4","","48","","2","","16","","24.1","","101.79","","","","","","Clear"
"2016-04-19 23:00","2016","04","19","23:00","7.5","","-6.3","","37","","36","","26","","24.1","","101.86","","","","","","NA"
"2016-04-20 00:00","2016","04","20","00:00","6.2","","-7.8","","36","","36","","19","","24.1","","101.95","","","","","","NA"
"2016-04-20 01:00","2016","04","20","01:00","5.3","","-7.6","","39","","35","","15","","24.1","","102.01","","","","","","Mainly Clear"
"2016-04-20 02:00","2016","04","20","02:00","3.6","","-6.7","","47","","36","","12","","24.1","","102.08","","","","","","NA"
"2016-04-20 03:00","2016","04","20","03:00","2.9","","-7.1","","48","","35","","11","","24.1","","102.15","","","","","","NA"
"2016-04-20 04:00","2016","04","20","04:00","2.5","","-7.4","","48","","36","","14","","24.1","","102.22","","","","","","Clear"
"2016-04-20 05:00","2016","04","20","05:00","1.3","","-7.3","","53","","1","","10","","48.3","","102.29","","","","","","NA"
"2016-04-20 06:00","2016","04","20","06:00","2.4","","-6.5","","52","","2","","14","","48.3","","102.35","","","","","","NA"
"2016-04-20 07:00","2016","04","20","07:00","3.8","","-6.5","","47","","3","","19","","48.3","","102.41","","","","","","Mainly Clear"
"2016-04-20 08:00","2016","04","20","08:00","4.6","","-6.1","","46","","2","","15","","48.3","","102.43","","","","","","NA"
"2016-04-20 09:00","2016","04","20","09:00","5.4","","-5.6","","45","","3","","6","","48.3","","102.42","","","","","","NA"
"2016-04-20 10:00","2016","04","20","10:00","7.1","","-6.3","","38","","3","","10","","48.3","","102.40","","","","","","Mostly Cloudy"
"2016-04-20 11:00","2016","04","20","11:00","7.6","","-7.7","","33","","23","","4","","48.3","","102.34","","","","","","NA"
"2016-04-20 12:00","2016","04","20","12:00","9.3","","-7.4","","30","","30","","5","","48.3","","102.29","","","","","","NA"
"2016-04-20 13:00","2016","04","20","13:00","9.9","","-4.8","","35","","22","","12","","48.3","","102.22","","","","","","Mainly Clear"
"2016-04-20 14:00","2016","04","20","14:00","10.8","","-6.5","","29","","21","","23","","48.3","","102.14","","","","","","NA"
"2016-04-20 15:00","2016","04","20","15:00","11.9","","-4.7","","31","","19","","14","","48.3","","102.04","","","","","","NA"
"2016-04-20 16:00","2016","04","20","16:00","12.0","","-6.9","","26","","18","","16","","48.3","","101.98","","","","","","Mainly Clear"
"2016-04-20 17:00","2016","04","20","17:00","12.2","","-6.2","","27","","20","","12","","48.3","","101.93","","","","","","NA"
"2016-04-20 18:00","2016","04","20","18:00","11.9","","-5.1","","30","","20","","16","","48.3","","101.88","","","","","","NA"
"2016-04-20 19:00","2016","04","20","19:00","10.9","","-4.7","","33","","20","","15","","48.3","","101.83","","","","","","Mainly Clear"
"2016-04-20 20:00","2016","04","20","20:00","10.3","","-4.1","","36","","19","","12","","24.1","","101.82","","","","","","NA"
"2016-04-20 21:00","2016","04","20","21:00","7.7","","-1.8","","51","","22","","9","","24.1","","101.80","","","","","","NA"
"2016-04-20 22:00","2016","04","20","22:00","7.4","","-4.7","","42","","20","","11","","24.1","","101.76","","","","","","Clear"
"2016-04-20 23:00","2016","04","20","23:00","7.9","","-4.9","","40","","15","","7","","24.1","","101.69","","","","","","NA"
"2016-04-21 00:00","2016","04","21","00:00","7.5","","-6.3","","37","","15","","5","","24.1","","101.63","","","","","","NA"
"2016-04-21 01:00","2016","04","21","01:00","5.1","","-5.0","","48","","16","","4","","24.1","","101.59","","","","","","Clear"
"2016-04-21 02:00","2016","04","21","02:00","3.0","","-3.8","","61","","18","","5","","24.1","","101.57","","","","","","NA"
"2016-04-21 03:00","2016","04","21","03:00","4.2","","-2.4","","62","","12","","7","","24.1","","101.50","","","","","","NA"
"2016-04-21 04:00","2016","04","21","04:00","4.3","","-3.5","","57","","14","","5","","24.1","","101.49","","","","","","Clear"
"2016-04-21 05:00","2016","04","21","05:00","3.6","","-3.2","","61","","15","","4","","48.3","","101.50","","","","","","NA"
"2016-04-21 06:00","2016","04","21","06:00","4.7","","-1.5","","64","","16","","8","","48.3","","101.50","","","","","","NA"
"2016-04-21 07:00","2016","04","21","07:00","6.8","","-2.6","","51","","15","","8","","48.3","","101.47","","","","","","Mainly Clear"
"2016-04-21 08:00","2016","04","21","08:00","9.6","","-2.0","","44","","19","","6","","48.3","","101.45","","","","","","NA"
"2016-04-21 09:00","2016","04","21","09:00","11.5","","-3.8","","34","","19","","10","","48.3","","101.36","","","","","","NA"
"2016-04-21 10:00","2016","04","21","10:00","14.0","","-4.7","","27","","18","","9","","48.3","","101.28","","","","","","Mostly Cloudy"
"2016-04-21 11:00","2016","04","21","11:00","15.8","","-7.1","","20","","19","","7","","48.3","","101.22","","","","","","NA"
"2016-04-21 12:00","2016","04","21","12:00","17.8","","-8.3","","16","","21","","16","","48.3","","101.11","","","","","","NA"
"2016-04-21 13:00","2016","04","21","13:00","19.2","","-8.0","","15","","23","","10","","48.3","","101.00","","","","","","Mainly Clear"
"2016-04-21 14:00","2016","04","21","14:00","20.7","","-6.8","","15","","20","","14","","48.3","","100.90","","","","","","NA"
"2016-04-21 15:00","2016","04","21","15:00","20.6","","-6.8","","15","","22","","10","","48.3","","100.81","","","","","","NA"
"2016-04-21 16:00","2016","04","21","16:00","21.3","","-5.4","","16","","19","","13","","48.3","","100.75","","","","","","Cloudy"
"2016-04-21 17:00","2016","04","21","17:00","20.6","","-6.0","","16","","19","","7","","48.3","","100.74","","","","","","NA"
"2016-04-21 18:00","2016","04","21","18:00","20.1","","-4.8","","18","","15","","8","","48.3","","100.74","","","","","","NA"
"2016-04-21 19:00","2016","04","21","19:00","19.0","","-2.5","","23","","16","","10","","48.3","","100.76","","","","","","Cloudy"
"2016-04-21 20:00","2016","04","21","20:00","18.6","","-2.3","","24","","13","","5","","24.1","","100.77","","","","","","NA"
"2016-04-21 21:00","2016","04","21","21:00","16.8","","-0.3","","31","","27","","5","","24.1","","100.79","","","","","","NA"
"2016-04-21 22:00","2016","04","21","22:00","18.1","","-2.1","","25","","11","","7","","24.1","","100.72","","","","","","Cloudy"
"2016-04-21 23:00","2016","04","21","23:00","16.5","","-0.6","","31","","18","","9","","24.1","","100.72","","","","","","NA"
"2016-04-22 00:00","2016","04","22","00:00","15.0","","3.6","","46","","20","","16","","24.1","","100.73","","","","","","Rain Showers"
"2016-04-22 01:00","2016","04","22","01:00","14.7","","8.0","","64","","22","","18","","24.1","","100.70","","","","","","Rain Showers"
"2016-04-22 02:00","2016","04","22","02:00","13.4","","10.2","","81","","11","","6","","24.1","","100.70","","","","","","Rain Showers"
"2016-04-22 03:00","2016","04","22","03:00","12.3","","9.9","","85","","13","","10","","24.1","","100.67","","","","","","Rain"
"2016-04-22 04:00","2016","04","22","04:00","11.9","","10.0","","88","","15","","12","","24.1","","100.63","","","","","","Rain"
"2016-04-22 05:00","2016","04","22","05:00","11.4","","10.5","","94","","12","","14","","9.7","","100.56","","","","","","Rain,Fog"
"2016-04-22 06:00","2016","04","22","06:00","11.6","","11.0","","96","","14","","16","","9.7","","100.57","","","","","","Rain,Fog"
"2016-04-22 07:00","2016","04","22","07:00","11.9","","11.1","","95","","14","","17","","19.3","","100.53","","","","","","Rain"
"2016-04-22 08:00","2016","04","22","08:00","12.7","","11.3","","91","","14","","26","","19.3","","100.48","","","","","","Rain"
"2016-04-22 09:00","2016","04","22","09:00","13.0","","11.4","","90","","16","","19","","8.1","","100.48","","","","","","Rain"
"2016-04-22 10:00","2016","04","22","10:00","13.0","","12.2","","95","","16","","19","","9.7","","100.45","","","","","","Rain"
"2016-04-22 11:00","2016","04","22","11:00","13.8","","13.0","","95","","19","","18","","11.3","","100.44","","","","","","NA"
"2016-04-22 12:00","2016","04","22","12:00","14.1","","13.2","","94","","22","","20","","16.1","","100.44","","","","","","Rain"
"2016-04-22 13:00","2016","04","22","13:00","15.0","","13.9","","93","","25","","16","","9.7","","100.45","","","","","","Rain,Fog"
"2016-04-22 14:00","2016","04","22","14:00","16.0","","14.2","","89","","26","","18","","16.1","","100.46","","","","","","NA"
"2016-04-22 15:00","2016","04","22","15:00","15.6","","13.3","","86","","28","","17","","24.1","","100.47","","","","","","NA"
"2016-04-22 16:00","2016","04","22","16:00","15.8","","12.4","","80","","28","","22","","24.1","","100.48","","","","","","Cloudy"
"2016-04-22 17:00","2016","04","22","17:00","15.6","","12.0","","79","","30","","20","","24.1","","100.51","","","","","","NA"
"2016-04-22 18:00","2016","04","22","18:00","13.5","","9.0","","74","","32","","25","","24.1","","100.60","","","","","","NA"
"2016-04-22 19:00","2016","04","22","19:00","11.1","","7.3","","77","","31","","20","","24.1","","100.71","","","","","","Mostly Cloudy"
"2016-04-22 20:00","2016","04","22","20:00","10.7","","6.7","","76","","32","","18","","24.1","","100.82","","","","","","NA"
"2016-04-22 21:00","2016","04","22","21:00","10.1","","5.5","","73","","33","","18","","24.1","","100.89","","","","","","NA"
"2016-04-22 22:00","2016","04","22","22:00","8.5","","4.2","","74","","33","","23","","24.1","","100.97","","","","","","Mostly Cloudy"
"2016-04-22 23:00","2016","04","22","23:00","7.7","","3.4","","74","","34","","20","","24.1","","101.02","","","","","","NA"
"2016-04-23 00:00","2016","04","23","00:00","6.7","","2.4","","74","","35","","18","","24.1","","101.08","","","","","","NA"
"2016-04-23 01:00","2016","04","23","01:00","6.1","","1.3","","71","","35","","17","","24.1","","101.08","","","","","","Mostly Cloudy"
"2016-04-23 02:00","2016","04","23","02:00","5.8","","1.2","","72","","35","","14","","24.1","","101.11","","","","","","NA"
"2016-04-23 03:00","2016","04","23","03:00","5.2","","-0.8","","65","","1","","23","","24.1","","101.14","","","","","","NA"
"2016-04-23 04:00","2016","04","23","04:00","4.3","","-2.8","","60","","1","","24","","24.1","","101.17","","","","","","Mostly Cloudy"
"2016-04-23 05:00","2016","04","23","05:00","3.8","","-3.5","","59","","36","","19","","24.1","","101.22","","","","","","NA"
"2016-04-23 06:00","2016","04","23","06:00","3.5","","-3.8","","59","","35","","20","","24.1","","101.30","","","","","","NA"
"2016-04-23 07:00","2016","04","23","07:00","4.0","","-4.5","","54","","34","","23","","48.3","","101.36","","","","","","Clear"
"2016-04-23 08:00","2016","04","23","08:00","4.8","","-5.3","","48","","1","","21","","48.3","","101.40","","","","","","NA"
"2016-04-23 09:00","2016","04","23","09:00","5.8","","-6.1","","42","","35","","17","","48.3","","101.44","","","","","","NA"
"2016-04-23 10:00","2016","04","23","10:00","6.6","","-7.8","","35","","33","","16","","48.3","","101.43","","","","","","Clear"
"2016-04-23 11:00","2016","04","23","11:00","8.1","","-8.9","","29","","33","","16","","48.3","","101.39","","","","","","NA"
"2016-04-23 12:00","2016","04","23","12:00","9.1","","-8.9","","27","","32","","9","","48.3","","101.34","","","","","","NA"
"2016-04-23 13:00","2016","04","23","13:00","10.1","","-9.1","","25","","28","","10","","48.3","","101.30","","","","","","Clear"
"2016-04-23 14:00","2016","04","23","14:00","11.2","","-9.2","","23","","32","","17","","48.3","","101.25","","","","","","NA"
"2016-04-23 15:00","2016","04","23","15:00","12.0","","-6.9","","26","","26","","17","","48.3","","101.21","","","","","","NA"
"2016-04-23 16:00","2016","04","23","16:00","12.0","","-7.4","","25","","29","","10","","48.3","","101.20","","","","","","Clear"
"2016-04-23 17:00","2016","04","23","17:00","11.7","","-9.9","","21","","34","","20","","48.3","","101.21","","","","","","NA"
"2016-04-23 18:00","2016","04","23","18:00","10.8","","-10.7","","21","","33","","21","","48.3","","101.24","","","","","","NA"
"2016-04-23 19:00","2016","04","23","19:00","9.2","","-10.9","","23","","34","","19","","48.3","","101.30","","","","","","Clear"
"2016-04-23 20:00","2016","04","23","20:00","7.5","","-10.8","","26","","35","","19","","24.1","","101.40","","","","","","NA"
"2016-04-23 21:00","2016","04","23","21:00","6.0","","-10.8","","29","","1","","22","","24.1","","101.46","","","","","","NA"
"2016-04-23 22:00","2016","04","23","22:00","4.8","","-11.0","","31","","36","","17","","24.1","","101.50","","","","","","Clear"
"2016-04-23 23:00","2016","04","23","23:00","3.9","","-11.4","","32","","36","","18","","24.1","","101.53","","","","","","NA"
"2016-04-24 00:00","2016","04","24","00:00","3.0","","-11.4","","34","","36","","21","","24.1","","101.56","","","","","","NA"
"2016-04-24 01:00","2016","04","24","01:00","2.1","","-11.5","","36","","36","","19","","24.1","","101.57","","","","","","Clear"
"2016-04-24 02:00","2016","04","24","02:00","1.3","","-11.2","","39","","36","","16","","24.1","","101.58","","","","","","NA"
"2016-04-24 03:00","2016","04","24","03:00","0.3","","-11.5","","41","","36","","11","","24.1","","101.60","","","","","","NA"
"2016-04-24 04:00","2016","04","24","04:00","0.0","","-12.1","","40","","36","","15","","24.1","","101.66","","","","-4","","Clear"
"2016-04-24 05:00","2016","04","24","05:00","-0.5","","-12.2","","41","","35","","12","","24.1","","101.73","","","","-4","","NA"
"2016-04-24 06:00","2016","04","24","06:00","0.6","","-12.5","","37","","1","","18","","48.3","","101.80","","","","","","NA"
"2016-04-24 07:00","2016","04","24","07:00","1.4","","-13.2","","33","","36","","18","","48.3","","101.84","","","","","","Clear"
"2016-04-24 08:00","2016","04","24","08:00","2.0","","-13.5","","31","","36","","13","","48.3","","101.83","","","","","","NA"
"2016-04-24 09:00","2016","04","24","09:00","3.0","","-13.0","","30","","1","","12","","48.3","","101.83","","","","","","NA"
"2016-04-24 10:00","2016","04","24","10:00","4.5","","-13.0","","27","","25","","7","","48.3","","101.79","","","","","","Clear"
"2016-04-24 11:00","2016","04","24","11:00","6.1","","-11.6","","27","","19","","10","","48.3","","101.73","","","","","","NA"
"2016-04-24 12:00","2016","04","24","12:00","6.3","","-15.1","","20","","22","","17","","48.3","","101.65","","","","","","NA"
"2016-04-24 13:00","2016","04","24","13:00","8.1","","-13.6","","20","","19","","16","","48.3","","101.55","","","","","","Clear"
"2016-04-24 14:00","2016","04","24","14:00","8.9","","-11.2","","23","","20","","22","","48.3","","101.46","","","","","","NA"
"2016-04-24 15:00","2016","04","24","15:00","10.2","","-10.6","","22","","20","","22","","48.3","","101.36","","","","","","NA"
"2016-04-24 16:00","2016","04","24","16:00","10.6","","-8.1","","26","","22","","23","","48.3","","101.30","","","","","","Mainly Clear"
"2016-04-24 17:00","2016","04","24","17:00","11.3","","-9.1","","23","","23","","27","","48.3","","101.26","","","","","","NA"
"2016-04-24 18:00","2016","04","24","18:00","10.5","","-9.2","","24","","26","","20","","48.3","","101.22","","","","","","NA"
"2016-04-24 19:00","2016","04","24","19:00","8.9","","-9.1","","27","","24","","17","","48.3","","101.22","","","","","","Mainly Clear"
"2016-04-24 20:00","2016","04","24","20:00","7.4","","-8.3","","32","","24","","14","","24.1","","101.24","","","","","","NA"
"2016-04-24 21:00","2016","04","24","21:00","6.5","","-3.2","","50","","23","","10","","24.1","","101.24","","","","","","NA"
"2016-04-24 22:00","2016","04","24","22:00","6.4","","-7.3","","37","","28","","15","","24.1","","101.27","","","","","","Mainly Clear"
"2016-04-24 23:00","2016","04","24","23:00","6.2","","-6.4","","40","","33","","8","","24.1","","101.32","","","","","","NA"
"2016-04-25 00:00","2016","04","25","00:00","5.5","","-6.7","","41","","2","","16","","24.1","","101.36","","","","","","NA"
"2016-04-25 01:00","2016","04","25","01:00","3.6","","-10.1","","36","","2","","27","","24.1","","101.40","","","","","","Clear"
"2016-04-25 02:00","2016","04","25","02:00","2.8","","-9.5","","40","","2","","14","","24.1","","101.47","","","","","","NA"
"2016-04-25 03:00","2016","04","25","03:00","1.7","","-10.2","","41","","2","","19","","24.1","","101.55","","","","","","NA"
"2016-04-25 04:00","2016","04","25","04:00","1.0","","-12.5","","36","","2","","22","","24.1","","101.55","","","","","","Mainly Clear"
"2016-04-25 05:00","2016","04","25","05:00","0.0","","-12.7","","38","","2","","15","","24.1","","101.61","","","","-4","","NA"
"2016-04-25 06:00","2016","04","25","06:00","0.8","","-12.7","","36","","2","","18","","48.3","","101.65","","","","","","NA"
"2016-04-25 07:00","2016","04","25","07:00","2.0","","-11.6","","36","","3","","16","","48.3","","101.69","","","","","","Mainly Clear"
"2016-04-25 08:00","2016","04","25","08:00","2.1","","-13.0","","32","","5","","8","","48.3","","101.67","","","","","","NA"
"2016-04-25 09:00","2016","04","25","09:00","3.1","","-12.5","","31","","1","","8","","48.3","","101.62","","","","","","NA"
"2016-04-25 10:00","2016","04","25","10:00","4.5","","-12.1","","29","","27","","10","","48.3","","101.57","","","","","","Mostly Cloudy"
"2016-04-25 11:00","2016","04","25","11:00","5.5","","-12.6","","26","","28","","9","","48.3","","101.50","","","","","","NA"
"2016-04-25 12:00","2016","04","25","12:00","7.2","","-11.1","","26","","28","","15","","48.3","","101.43","","","","","","NA"
"2016-04-25 13:00","2016","04","25","13:00","8.0","","-10.4","","26","","27","","18","","48.3","","101.34","","","","","","Cloudy"
"2016-04-25 14:00","2016","04","25","14:00","8.7","","-10.8","","24","","21","","5","","48.3","","101.27","","","","","","NA"
"2016-04-25 15:00","2016","04","25","15:00","9.2","","-12.1","","21","","27","","18","","48.3","","101.20","","","","","","NA"
"2016-04-25 16:00","2016","04","25","16:00","9.6","","-13.7","","18","","29","","18","","48.3","","101.16","","","","","","Cloudy"
"2016-04-25 17:00","2016","04","25","17:00","9.2","","-14.0","","18","","30","","12","","48.3","","101.14","","","","","","NA"
"2016-04-25 18:00","2016","04","25","18:00","8.5","","-14.6","","18","","31","","14","","48.3","","101.12","","","","","","NA"
"2016-04-25 19:00","2016","04","25","19:00","7.1","","-13.9","","21","","30","","8","","48.3","","101.12","","","","","","Cloudy"
"2016-04-25 20:00","2016","04","25","20:00","7.1","","-12.7","","23","","32","","10","","24.1","","101.15","","","","","","NA"
"2016-04-25 21:00","2016","04","25","21:00","5.2","","-9.8","","33","","5","","14","","24.1","","101.16","","","","","","NA"
"2016-04-25 22:00","2016","04","25","22:00","4.6","","-10.8","","32","","6","","19","","24.1","","101.14","","","","","","Mostly Cloudy"
"2016-04-25 23:00","2016","04","25","23:00","3.1","","-11.7","","33","","3","","21","","24.1","","101.15","","","","","","NA"
"2016-04-26 00:00","2016","04","26","00:00","2.7","","-11.0","","36","","4","","16","","24.1","","101.12","","","","","","NA"
"2016-04-26 01:00","2016","04","26","01:00","2.6","","-11.8","","34","","5","","28","","24.1","","101.11","","","","","","Mostly Cloudy"
"2016-04-26 02:00","2016","04","26","02:00","2.1","","-11.5","","36","","5","","22","","24.1","","101.09","","","","","","NA"
"2016-04-26 03:00","2016","04","26","03:00","1.8","","-12.1","","35","","5","","22","","24.1","","101.07","","","","","","NA"
"2016-04-26 04:00","2016","04","26","04:00","1.2","","-11.6","","38","","5","","27","","24.1","","100.99","","","","","","Cloudy"
"2016-04-26 05:00","2016","04","26","05:00","0.9","","-10.9","","41","","5","","25","","24.1","","100.90","","","","","","NA"
"2016-04-26 06:00","2016","04","26","06:00","0.5","","-10.4","","44","","5","","31","","24.1","","100.90","","","","","","NA"
"2016-04-26 07:00","2016","04","26","07:00","0.7","","-11.1","","41","","4","","28","","24.1","","100.90","","","","","","Cloudy"
"2016-04-26 08:00","2016","04","26","08:00","0.8","","-11.7","","39","","5","","28","","24.1","","100.87","","","","","","NA"
"2016-04-26 09:00","2016","04","26","09:00","1.8","","-10.8","","39","","5","","21","","24.1","","100.84","","","","","","NA"
"2016-04-26 10:00","2016","04","26","10:00","2.8","","-11.2","","35","","4","","26","","24.1","","100.83","","","","","","Cloudy"
"2016-04-26 11:00","2016","04","26","11:00","3.4","","-11.4","","33","","3","","26","","24.1","","100.76","","","","","","NA"
"2016-04-26 12:00","2016","04","26","12:00","4.8","","-11.0","","31","","1","","16","","24.1","","100.70","","","","","","NA"
"2016-04-26 13:00","2016","04","26","13:00","5.2","","-11.5","","29","","5","","13","","24.1","","100.66","","","","","","Mainly Clear"
"2016-04-26 14:00","2016","04","26","14:00","6.2","","-11.0","","28","","9","","7","","24.1","","100.62","","","","","","NA"
"2016-04-26 15:00","2016","04","26","15:00","7.3","","-11.0","","26","","32","","3","","48.3","","100.58","","","","","","NA"
"2016-04-26 16:00","2016","04","26","16:00","8.0","","-9.0","","29","","20","","16","","48.3","","100.56","","","","","","Mainly Clear"
"2016-04-26 17:00","2016","04","26","17:00","7.5","","-10.4","","27","","19","","13","","48.3","","100.56","","","","","","NA"
"2016-04-26 18:00","2016","04","26","18:00","7.1","","-9.8","","29","","20","","14","","48.3","","100.55","","","","","","NA"
"2016-04-26 19:00","2016","04","26","19:00","6.5","","-6.1","","40","","20","","14","","48.3","","100.55","","","","","","Clear"
"2016-04-26 20:00","2016","04","26","20:00","6.4","","-8.0","","35","","25","","9","","24.1","","100.58","","","","","","NA"
"2016-04-26 21:00","2016","04","26","21:00","4.7","","-7.8","","40","","26","","9","","24.1","","100.62","","","","","","NA"
"2016-04-26 22:00","2016","04","26","22:00","5.2","","-11.5","","29","","31","","14","","24.1","","100.67","","","","","","Clear"
"2016-04-26 23:00","2016","04","26","23:00","4.1","","-11.6","","31","","31","","13","","24.1","","100.70","","","","","","NA"
"2016-04-27 00:00","2016","04","27","00:00","2.5","","-11.5","","35","","34","","12","","24.1","","100.73","","","","","","NA"
"2016-04-27 01:00","2016","04","27","01:00","2.6","","-12.5","","32","","33","","16","","24.1","","100.81","","","","","","Clear"
"2016-04-27 02:00","2016","04","27","02:00","1.6","","-12.3","","35","","33","","10","","24.1","","100.88","","","","","","NA"
"2016-04-27 03:00","2016","04","27","03:00","-0.3","","-11.7","","42","","30","","10","","24.1","","100.95","","","","-4","","NA"
"2016-04-27 04:00","2016","04","27","04:00","-0.8","","-12.2","","42","","31","","9","","24.1","","100.99","","","","-4","","Clear"
"2016-04-27 05:00","2016","04","27","05:00","-1.3","","-12.1","","44","","31","","8","","48.3","","101.02","","","","-4","","NA"
"2016-04-27 06:00","2016","04","27","06:00","-0.4","","-11.2","","44","","34","","10","","48.3","","101.05","","","","-4","","NA"
"2016-04-27 07:00","2016","04","27","07:00","0.3","","-11.2","","42","","28","","12","","48.3","","101.11","","","","","","Clear"
"2016-04-27 08:00","2016","04","27","08:00","1.0","","-12.5","","36","","27","","8","","48.3","","101.08","","","","","","NA"
"2016-04-27 09:00","2016","04","27","09:00","2.2","","-14.6","","28","","30","","20","","48.3","","101.04","","","","","","NA"
"2016-04-27 10:00","2016","04","27","10:00","2.5","","-12.6","","32","","29","","13","","48.3","","100.96","","","","","","Clear"
"2016-04-27 11:00","2016","04","27","11:00","3.0","","-12.6","","31","","26","","16","","48.3","","100.92","","","","","","NA"
"2016-04-27 12:00","2016","04","27","12:00","4.2","","-13.7","","26","","29","","21","","48.3","","100.88","","","","","","NA"
"2016-04-27 13:00","2016","04","27","13:00","5.7","","-14.5","","22","","25","","26","","48.3","","100.82","","","","","","Clear"
"2016-04-27 14:00","2016","04","27","14:00","6.8","","-13.0","","23","","28","","26","","48.3","","100.72","","","","","","NA"
"2016-04-27 15:00","2016","04","27","15:00","6.3","","-14.0","","22","","25","","26","","48.3","","100.74","","","","","","NA"
"2016-04-27 16:00","2016","04","27","16:00","6.2","","-14.1","","22","","26","","31","","48.3","","100.79","","","","","","Mostly Cloudy"
"2016-04-27 17:00","2016","04","27","17:00","6.3","","-14.5","","21","","31","","13","","48.3","","100.82","","","","","","NA"
"2016-04-27 18:00","2016","04","27","18:00","6.4","","-14.5","","21","","32","","16","","48.3","","100.82","","","","","","NA"
"2016-04-27 19:00","2016","04","27","19:00","5.6","","-14.0","","23","","33","","13","","48.3","","100.86","","","","","","Mainly Clear"
"2016-04-27 20:00","2016","04","27","20:00","5.1","","-13.4","","25","","34","","11","","24.1","","100.93","","","","","","NA"
"2016-04-27 21:00","2016","04","27","21:00","1.4","","-11.8","","37","","3","","10","","24.1","","100.99","","","","","","NA"
"2016-04-27 22:00","2016","04","27","22:00","1.6","","-11.6","","37","","8","","8","","24.1","","101.03","","","","","","Clear"
"2016-04-27 23:00","2016","04","27","23:00","2.4","","-11.6","","35","","36","","1","","24.1","","101.03","","","","","","NA"
"2016-04-28 00:00","2016","04","28","00:00","-0.2","","-10.2","","47","","28","","4","","24.1","","101.06","","","","-1","","NA"
"2016-04-28 01:00","2016","04","28","01:00","0.8","","-9.8","","45","","31","","8","","24.1","","101.11","","","","","","Clear"
"2016-04-28 02:00","2016","04","28","02:00","0.9","","-9.2","","47","","31","","9","","24.1","","101.14","","","","","","NA"
"2016-04-28 03:00","2016","04","28","03:00","0.3","","-9.0","","50","","33","","13","","24.1","","101.20","","","","","","NA"
"2016-04-28 04:00","2016","04","28","04:00","-0.7","","-8.9","","54","","32","","11","","24.1","","101.31","","","","-4","","Clear"
"2016-04-28 05:00","2016","04","28","05:00","-1.1","","-9.3","","54","","35","","17","","48.3","","101.41","","","","-6","","NA"
"2016-04-28 06:00","2016","04","28","06:00","-0.3","","-10.0","","48","","33","","13","","48.3","","101.55","","","","-4","","NA"
"2016-04-28 07:00","2016","04","28","07:00","0.4","","-10.5","","44","","35","","17","","48.3","","101.64","","","","","","Clear"
"2016-04-28 08:00","2016","04","28","08:00","1.5","","-10.1","","42","","34","","14","","48.3","","101.70","","","","","","NA"
"2016-04-28 09:00","2016","04","28","09:00","1.3","","-10.3","","42","","33","","13","","48.3","","101.75","","","","","","NA"
"2016-04-28 10:00","2016","04","28","10:00","2.4","","-10.2","","39","","33","","12","","48.3","","101.71","","","","","","Mainly Clear"
"2016-04-28 11:00","2016","04","28","11:00","3.7","","-9.7","","37","","3","","19","","48.3","","101.67","","","","","","NA"
"2016-04-28 12:00","2016","04","28","12:00","4.3","","-9.2","","37","","22","","7","","48.3","","101.66","","","","","","NA"
"2016-04-28 13:00","2016","04","28","13:00","5.3","","-7.9","","38","","20","","23","","48.3","","101.62","","","","","","Mainly Clear"
"2016-04-28 14:00","2016","04","28","14:00","6.1","","-7.5","","37","","17","","15","","48.3","","101.54","","","","","","NA"
"2016-04-28 15:00","2016","04","28","15:00","5.8","","-8.9","","34","","16","","9","","48.3","","101.53","","","","","","NA"
"2016-04-28 16:00","2016","04","28","16:00","5.8","","-8.9","","34","","16","","15","","48.3","","101.55","","","","","","Mostly Cloudy"
"2016-04-28 17:00","2016","04","28","17:00","6.2","","-9.7","","31","","23","","9","","48.3","","101.58","","","","","","NA"
"2016-04-28 18:00","2016","04","28","18:00","6.1","","-9.0","","33","","17","","12","","48.3","","101.60","","","","","","NA"
"2016-04-28 19:00","2016","04","28","19:00","5.7","","-9.8","","32","","17","","7","","48.3","","101.65","","","","","","Mostly Cloudy"
"2016-04-28 20:00","2016","04","28","20:00","5.4","","-8.9","","35","","14","","10","","24.1","","101.70","","","","","","NA"
"2016-04-28 21:00","2016","04","28","21:00","4.6","","-9.2","","36","","10","","13","","24.1","","101.75","","","","","","NA"
"2016-04-28 22:00","2016","04","28","22:00","3.8","","-8.9","","39","","10","","9","","24.1","","101.78","","","","","","Clear"
"2016-04-28 23:00","2016","04","28","23:00","3.3","","-7.8","","44","","8","","10","","24.1","","101.78","","","","","","NA"
"2016-04-29 00:00","2016","04","29","00:00","3.3","","-9.7","","38","","7","","19","","24.1","","101.80","","","","","","NA"
"2016-04-29 01:00","2016","04","29","01:00","1.5","","-10.1","","42","","6","","12","","24.1","","101.79","","","","","","Clear"
"2016-04-29 02:00","2016","04","29","02:00","0.3","","-9.2","","49","","4","","13","","24.1","","101.79","","","","","","NA"
"2016-04-29 03:00","2016","04","29","03:00","-0.2","","-9.4","","50","","5","","14","","24.1","","101.80","","","","-4","","NA"
"2016-04-29 04:00","2016","04","29","04:00","-1.3","","-7.9","","61","","2","","14","","24.1","","101.80","","","","-6","","Clear"
"2016-04-29 05:00","2016","04","29","05:00","-1.4","","-7.4","","64","","2","","14","","24.1","","101.82","","","","-6","","NA"
"2016-04-29 06:00","2016","04","29","06:00","0.3","","-7.3","","57","","2","","16","","48.3","","101.85","","","","","","NA"
"2016-04-29 07:00","2016","04","29","07:00","2.3","","-6.6","","52","","2","","19","","48.3","","101.88","","","","","","Mainly Clear"
"2016-04-29 08:00","2016","04","29","08:00","4.2","","-7.0","","44","","2","","18","","48.3","","101.88","","","","","","NA"
"2016-04-29 09:00","2016","04","29","09:00","5.7","","-9.8","","32","","4","","17","","48.3","","101.89","","","","","","NA"
"2016-04-29 10:00","2016","04","29","10:00","6.3","","-9.6","","31","","9","","12","","48.3","","101.85","","","","","","Mainly Clear"
"2016-04-29 11:00","2016","04","29","11:00","7.7","","-8.8","","30","","2","","17","","48.3","","101.79","","","","","","NA"
"2016-04-29 12:00","2016","04","29","12:00","8.6","","-8.9","","28","","1","","15","","48.3","","101.71","","","","","","NA"
"2016-04-29 13:00","2016","04","29","13:00","9.3","","-8.8","","27","","2","","13","","48.3","","101.64","","","","","","Mostly Cloudy"
"2016-04-29 14:00","2016","04","29","14:00","10.5","","-8.7","","25","","36","","19","","48.3","","101.59","","","","","","NA"
"2016-04-29 15:00","2016","04","29","15:00","10.6","","-9.2","","24","","4","","14","","48.3","","101.55","","","","","","NA"
"2016-04-29 16:00","2016","04","29","16:00","11.4","","-9.0","","23","","4","","13","","48.3","","101.55","","","","","","Cloudy"
"2016-04-29 17:00","2016","04","29","17:00","11.2","","-11.0","","20","","5","","13","","48.3","","101.53","","","","","","NA"
"2016-04-29 18:00","2016","04","29","18:00","10.8","","-12.0","","19","","6","","13","","48.3","","101.52","","","","","","NA"
"2016-04-29 19:00","2016","04","29","19:00","9.6","","-10.6","","23","","8","","17","","48.3","","101.56","","","","","","Cloudy"
"2016-04-29 20:00","2016","04","29","20:00","8.9","","-10.1","","25","","8","","11","","24.1","","101.64","","","","","","NA"
"2016-04-29 21:00","2016","04","29","21:00","8.4","","-9.1","","28","","5","","8","","24.1","","101.72","","","","","","NA"
"2016-04-29 22:00","2016","04","29","22:00","7.0","","-7.4","","35","","34","","7","","24.1","","101.76","","","","","","Mainly Clear"
"2016-04-29 23:00","2016","04","29","23:00","3.8","","-7.1","","45","","35","","8","","24.1","","101.80","","","","","","NA"
"2016-04-30 00:00","2016","04","30","00:00","3.3","","-7.0","","47","","2","","13","","24.1","","101.84","","","","","","NA"
"2016-04-30 01:00","2016","04","30","01:00","4.3","","-6.3","","46","","3","","10","","24.1","","101.81","","","","","","Mainly Clear"
"2016-04-30 02:00","2016","04","30","02:00","3.1","","-6.3","","50","","2","","10","","24.1","","101.88","","","","","","NA"
"2016-04-30 03:00","2016","04","30","03:00","2.8","","-7.4","","47","","2","","17","","24.1","","101.87","","","","","","NA"
"2016-04-30 04:00","2016","04","30","04:00","1.8","","-7.0","","52","","2","","15","","24.1","","101.92","","","","","","Clear"
"2016-04-30 05:00","2016","04","30","05:00","1.2","","-8.4","","49","","2","","11","","24.1","","102.00","","","","","","NA"
"2016-04-30 06:00","2016","04","30","06:00","3.8","","-7.4","","44","","3","","12","","48.3","","102.06","","","","","","NA"
"2016-04-30 07:00","2016","04","30","07:00","5.6","","-9.1","","34","","2","","26","","48.3","","102.11","","","","","","Clear"
"2016-04-30 08:00","2016","04","30","08:00","7.0","","-8.6","","32","","36","","16","","48.3","","102.15","","","","","","NA"
"2016-04-30 09:00","2016","04","30","09:00","8.9","","-8.7","","28","","36","","13","","48.3","","102.16","","","","","","NA"
"2016-04-30 10:00","2016","04","30","10:00","10.1","","-9.1","","25","","36","","17","","48.3","","102.09","","","","","","Clear"
"2016-04-30 11:00","2016","04","30","11:00","11.1","","-8.7","","24","","3","","7","","48.3","","102.07","","","","","","NA"
"2016-04-30 12:00","2016","04","30","12:00","12.4","","-9.3","","21","","35","","14","","48.3","","102.02","","","","","","NA"
"2016-04-30 13:00","2016","04","30","13:00","13.2","","-9.3","","20","","5","","14","","48.3","","101.95","","","","","","Clear"
"2016-04-30 14:00","2016","04","30","14:00","13.8","","-8.8","","20","","8","","8","","48.3","","101.90","","","","","","NA"
"2016-04-30 15:00","2016","04","30","15:00","13.9","","-8.1","","21","","9","","5","","48.3","","101.87","","","","","","NA"
"2016-04-30 16:00","2016","04","30","16:00","14.7","","-8.7","","19","","11","","13","","48.3","","101.86","","","","","","Mainly Clear"
"2016-04-30 17:00","2016","04","30","17:00","14.7","","-8.7","","19","","9","","14","","48.3","","101.83","","","","","","NA"
"2016-04-30 18:00","2016","04","30","18:00","13.8","","-8.8","","20","","15","","13","","48.3","","101.84","","","","","","NA"
"2016-04-30 19:00","2016","04","30","19:00","13.0","","-9.4","","20","","10","","12","","48.3","","101.85","","","","","","Mostly Cloudy"
"2016-04-30 20:00","2016","04","30","20:00","12.0","","-9.7","","21","","10","","11","","24.1","","101.91","","","","","","NA"
"2016-04-30 21:00","2016","04","30","21:00","10.8","","-9.0","","24","","7","","8","","24.1","","101.91","","","","","","NA"
"2016-04-30 22:00","2016","04","30","22:00","9.5","","-9.6","","25","","5","","10","","24.1","","101.86","","","","","","Mostly Cloudy"
"2016-04-30 23:00","2016","04","30","23:00","8.9","","-9.1","","27","","5","","12","","24.1","","101.87","","","","","","NA"
